{
  "id": 1679078909,
  "type": "Feature",
  "properties": {
    "edtf:cessation": "2016-10-18T23:11:58",
    "edtf:inception": "2016-10-18~",
    "flysfo:airline": "WN",
    "flysfo:date": "2016-10-18",
    "flysfo:event": "A",
    "flysfo:flight_number": "WN333",
    "flysfo:journey": "KMIA-SFO",
    "geom:area": 0,
    "geom:bbox": "-122.370943,25.790470,-80.296006,37.617990",
    "geom:latitude": 31.70423,
    "geom:longitude": -101.3334745,
    "iata:airline": "WN",
    "icao:aircraft": "B738",
    "icao:airline": "SWA",
    "mz:is_current": -1,
    "sfomuseum:aircraft_id": 1159289871,
    "sfomuseum:airline_id": 1159285591,
    "sfomuseum:arrival_id": 102527513,
    "sfomuseum:departure_id": 102531023,
    "sfomuseum:flight_id": "20161018-A-SWA-333",
    "sfomuseum:flight_number": [
      "WN333", 
      "SWA333"
    ],
    "sfomuseum:placetype": "flight",
    "src:geom": "sfonoise",
    "wof:belongsto": [
      1679078909, 
      85922583, 
      85688637, 
      1159157271, 
      102191575, 
      85633793, 
      102527513, 
      102087579
    ],
    "wof:country": "US",
    "wof:created": 1582932072,
    "wof:geomhash": "38f88108bbae8bb050c3144d37bdc384",
    "wof:hierarchy": [
      {
        "building_id": 1159157271,
        "campus_id": 102527513,
        "concourse_id": -1,
        "continent_id": 102191575,
        "country_id": 85633793,
        "county_id": 102087579,
        "event_id": 1679078909,
        "locality_id": 85922583,
        "neighbourhood_id": -1,
        "region_id": 85688637,
        "venue_id": -1,
        "wing_id": -1
      }
    ],
    "wof:id": 1679078909,
    "wof:lastmodified": 1582932072,
    "wof:name": "SWA333 (KMIA-SFO)",
    "wof:parent_id": -1,
    "wof:placetype": "event",
    "wof:repo": "sfomuseum-data-flights-2016",
    "wof:superseded_by": [],
    "wof:supersedes": []
  },
  "bbox": [
    -122.370943, 
    25.79047, 
    -80.296006, 
    37.61799
  ],
  "geometry": {"coordinates":[[-80.296006,25.79047],[-122.370943,37.61799]],"type":"MultiPoint"}
}
