{
  "id": 1662102677,
  "type": "Feature",
  "properties": {
    "edtf:cessation": "2016-02-09~",
    "edtf:inception": "2016-02-09T06:53:43",
    "flysfo:airline": "UA",
    "flysfo:date": "2016-02-09",
    "flysfo:event": "D",
    "flysfo:flight_number": "UA2290",
    "flysfo:journey": "SFO-PAED",
    "geom:area": 0,
    "geom:bbox": "-149.842684,37.617990,-122.370943,61.242334",
    "geom:latitude": 49.430161999999996,
    "geom:longitude": -136.1068135,
    "iata:airline": "UA",
    "icao:aircraft": "B744",
    "icao:airline": "UAL",
    "mz:is_current": -1,
    "sfomuseum:aircraft_id": 1159289915,
    "sfomuseum:airline_id": 1159285413,
    "sfomuseum:arrival_id": 102524963,
    "sfomuseum:departure_id": 102527513,
    "sfomuseum:flight_id": "20160209-D-UAL-2290",
    "sfomuseum:flight_number": [
      "UA2290", 
      "UAL2290"
    ],
    "sfomuseum:placetype": "flight",
    "src:geom": "sfonoise",
    "wof:belongsto": [
      85633793, 
      85688637, 
      1159396321, 
      102527513, 
      85922583, 
      102191575, 
      102087579, 
      1662102677
    ],
    "wof:country": "US",
    "wof:created": 1582922698,
    "wof:geomhash": "4d07772b004eb3e7ef33be956df7a272",
    "wof:hierarchy": [
      {
        "building_id": 1159396321,
        "campus_id": 102527513,
        "concourse_id": -1,
        "continent_id": 102191575,
        "country_id": 85633793,
        "county_id": 102087579,
        "event_id": 1662102677,
        "locality_id": 85922583,
        "neighbourhood_id": -1,
        "region_id": 85688637,
        "venue_id": -1,
        "wing_id": -1
      }
    ],
    "wof:id": 1662102677,
    "wof:lastmodified": 1582922698,
    "wof:name": "UAL2290 (SFO-PAED)",
    "wof:parent_id": -1,
    "wof:placetype": "event",
    "wof:repo": "sfomuseum-data-flights-2016",
    "wof:superseded_by": [],
    "wof:supersedes": []
  },
  "bbox": [
    -149.842684, 
    37.61799, 
    -122.370943, 
    61.242334
  ],
  "geometry": {"coordinates":[[-122.370943,37.61799],[-149.842684,61.242334]],"type":"MultiPoint"}
}
