{
  "id": 1678926349,
  "type": "Feature",
  "properties": {
    "edtf:cessation": "2016-09-13T17:41:15",
    "edtf:inception": "2016-09-13~",
    "flysfo:airline": "B6",
    "flysfo:date": "2016-09-13",
    "flysfo:event": "A",
    "flysfo:flight_number": "B6615",
    "flysfo:journey": "KOAK-SFO",
    "geom:area": 0,
    "geom:bbox": "-122.370943,37.617990,-122.212464,37.721310",
    "geom:latitude": 37.669650000000004,
    "geom:longitude": -122.2917035,
    "iata:airline": "B6",
    "icao:aircraft": "A321",
    "icao:airline": "JBU",
    "mz:is_current": -1,
    "sfomuseum:aircraft_id": 1159289411,
    "sfomuseum:airline_id": 1360700745,
    "sfomuseum:arrival_id": 102527513,
    "sfomuseum:departure_id": 102531041,
    "sfomuseum:flight_id": "20160913-A-JBU-615",
    "sfomuseum:flight_number": [
      "B6615", 
      "JBU615"
    ],
    "sfomuseum:placetype": "flight",
    "src:geom": "sfonoise",
    "wof:belongsto": [
      102527513, 
      1159157271, 
      85633793, 
      85688637, 
      85922583, 
      102191575, 
      102087579, 
      1678926349
    ],
    "wof:country": "US",
    "wof:created": 1582930280,
    "wof:geomhash": "ef262e0da13c3e8dd354e2b42ae8d539",
    "wof:hierarchy": [
      {
        "building_id": 1159157271,
        "campus_id": 102527513,
        "concourse_id": -1,
        "continent_id": 102191575,
        "country_id": 85633793,
        "county_id": 102087579,
        "event_id": 1678926349,
        "locality_id": 85922583,
        "neighbourhood_id": -1,
        "region_id": 85688637,
        "venue_id": -1,
        "wing_id": -1
      }
    ],
    "wof:id": 1678926349,
    "wof:lastmodified": 1582930280,
    "wof:name": "JBU615 (KOAK-SFO)",
    "wof:parent_id": -1,
    "wof:placetype": "event",
    "wof:repo": "sfomuseum-data-flights-2016",
    "wof:superseded_by": [],
    "wof:supersedes": []
  },
  "bbox": [
    -122.370943, 
    37.61799, 
    -122.212464, 
    37.72131
  ],
  "geometry": {"coordinates":[[-122.212464,37.72131],[-122.370943,37.61799]],"type":"MultiPoint"}
}
