{
  "id": 1662053909,
  "type": "Feature",
  "properties": {
    "edtf:cessation": "2016-01-07T08:36:23",
    "edtf:inception": "2016-01-07~",
    "flysfo:airline": "UA",
    "flysfo:date": "2016-01-07",
    "flysfo:event": "A",
    "flysfo:flight_number": "UA1855",
    "flysfo:journey": "PDX-SFO",
    "geom:area": 0,
    "geom:bbox": "-122.597389,37.617990,-122.370943,45.586144",
    "geom:latitude": 41.602067,
    "geom:longitude": -122.484166,
    "iata:airline": "UA",
    "icao:aircraft": "A319",
    "icao:airline": "UAL",
    "mz:is_current": -1,
    "sfomuseum:aircraft_id": 1159289407,
    "sfomuseum:airline_id": 1159285413,
    "sfomuseum:arrival_id": 102527513,
    "sfomuseum:departure_id": 102532251,
    "sfomuseum:flight_id": "20160107-A-UAL-1855",
    "sfomuseum:flight_number": [
      "UA1855", 
      "UAL1855"
    ],
    "sfomuseum:placetype": "flight",
    "src:geom": "sfonoise",
    "wof:belongsto": [
      1159396321, 
      1662053909, 
      102191575, 
      102087579, 
      85922583, 
      85688637, 
      102527513, 
      85633793
    ],
    "wof:country": "US",
    "wof:created": 1582922025,
    "wof:geomhash": "3af422147b92e6fa9912d38a57ea404a",
    "wof:hierarchy": [
      {
        "building_id": 1159396321,
        "campus_id": 102527513,
        "concourse_id": -1,
        "continent_id": 102191575,
        "country_id": 85633793,
        "county_id": 102087579,
        "event_id": 1662053909,
        "locality_id": 85922583,
        "neighbourhood_id": -1,
        "region_id": 85688637,
        "venue_id": -1,
        "wing_id": -1
      }
    ],
    "wof:id": 1662053909,
    "wof:lastmodified": 1582922025,
    "wof:name": "UAL1855 (PDX-SFO)",
    "wof:parent_id": -1,
    "wof:placetype": "event",
    "wof:repo": "sfomuseum-data-flights-2016",
    "wof:superseded_by": [],
    "wof:supersedes": []
  },
  "bbox": [
    -122.597389, 
    37.61799, 
    -122.370943, 
    45.586144
  ],
  "geometry": {"coordinates":[[-122.597389,45.586144],[-122.370943,37.61799]],"type":"MultiPoint"}
}
