{
  "id": 1662307297,
  "type": "Feature",
  "properties": {
    "edtf:cessation": "2016-06-08~",
    "edtf:inception": "2016-06-08T08:41:24",
    "flysfo:airline": "KZ",
    "flysfo:date": "2016-06-08",
    "flysfo:event": "D",
    "flysfo:flight_number": "KZ109",
    "flysfo:journey": "SFO-RJAA",
    "geom:area": 0,
    "geom:bbox": "-122.370943,35.755744,140.395257,37.617990",
    "geom:latitude": 36.686867,
    "geom:longitude": 9.012156999999995,
    "iata:airline": "KZ",
    "icao:aircraft": "B748",
    "icao:airline": "NCA",
    "mz:is_current": -1,
    "sfomuseum:aircraft_id": 1159293239,
    "sfomuseum:airline_id": 1159284873,
    "sfomuseum:arrival_id": 102541685,
    "sfomuseum:departure_id": 102527513,
    "sfomuseum:flight_id": "20160608-D-NCA-109",
    "sfomuseum:flight_number": [
      "KZ109", 
      "NCA109"
    ],
    "sfomuseum:placetype": "flight",
    "src:geom": "sfonoise",
    "wof:belongsto": [
      102191575, 
      1662307297, 
      85633793, 
      1159396321, 
      102527513, 
      85922583, 
      85688637, 
      102087579
    ],
    "wof:country": "US",
    "wof:created": 1582926273,
    "wof:geomhash": "b0708fbc9882ec26729f19c3bf135279",
    "wof:hierarchy": [
      {
        "building_id": 1159396321,
        "campus_id": 102527513,
        "concourse_id": -1,
        "continent_id": 102191575,
        "country_id": 85633793,
        "county_id": 102087579,
        "event_id": 1662307297,
        "locality_id": 85922583,
        "neighbourhood_id": -1,
        "region_id": 85688637,
        "venue_id": -1,
        "wing_id": -1
      }
    ],
    "wof:id": 1662307297,
    "wof:lastmodified": 1582926273,
    "wof:name": "NCA109 (SFO-RJAA)",
    "wof:parent_id": -1,
    "wof:placetype": "event",
    "wof:repo": "sfomuseum-data-flights-2016",
    "wof:superseded_by": [],
    "wof:supersedes": []
  },
  "bbox": [
    -122.370943, 
    35.755744, 
    140.395257, 
    37.61799
  ],
  "geometry": {"coordinates":[[-122.370943,37.61799],[140.395257,35.755744]],"type":"MultiPoint"}
}
