{
  "id": 1679249633,
  "type": "Feature",
  "properties": {
    "edtf:cessation": "2016-12-06T04:24:58",
    "edtf:inception": "2016-12-06~",
    "flysfo:airline": "DL",
    "flysfo:date": "2016-12-06",
    "flysfo:event": "A",
    "flysfo:flight_number": "DL8843",
    "flysfo:journey": "KSLC-SFO",
    "geom:area": 0,
    "geom:bbox": "-122.370943,37.617990,-111.980566,40.782170",
    "geom:latitude": 39.20008,
    "geom:longitude": -117.1757545,
    "iata:airline": "DL",
    "icao:aircraft": "B752",
    "icao:airline": "DAL",
    "mz:is_current": -1,
    "sfomuseum:aircraft_id": 1159289939,
    "sfomuseum:airline_id": 1159284261,
    "sfomuseum:arrival_id": 102527513,
    "sfomuseum:departure_id": 102527363,
    "sfomuseum:flight_id": "20161206-A-DAL-8843",
    "sfomuseum:flight_number": [
      "DL8843", 
      "DAL8843"
    ],
    "sfomuseum:placetype": "flight",
    "src:geom": "sfonoise",
    "wof:belongsto": [
      1679249633, 
      85922583, 
      102087579, 
      85633793, 
      102527513, 
      102191575, 
      1159157271, 
      85688637
    ],
    "wof:country": "US",
    "wof:created": 1582933853,
    "wof:geomhash": "24b8b627208edff0ed857058cce4fc5a",
    "wof:hierarchy": [
      {
        "building_id": 1159157271,
        "campus_id": 102527513,
        "concourse_id": -1,
        "continent_id": 102191575,
        "country_id": 85633793,
        "county_id": 102087579,
        "event_id": 1679249633,
        "locality_id": 85922583,
        "neighbourhood_id": -1,
        "region_id": 85688637,
        "venue_id": -1,
        "wing_id": -1
      }
    ],
    "wof:id": 1679249633,
    "wof:lastmodified": 1582933853,
    "wof:name": "DAL8843 (KSLC-SFO)",
    "wof:parent_id": -1,
    "wof:placetype": "event",
    "wof:repo": "sfomuseum-data-flights-2016",
    "wof:superseded_by": [],
    "wof:supersedes": []
  },
  "bbox": [
    -122.370943, 
    37.61799, 
    -111.980566, 
    40.78217
  ],
  "geometry": {"coordinates":[[-111.980566,40.78217],[-122.370943,37.61799]],"type":"MultiPoint"}
}
