{
  "id": 1678981673,
  "type": "Feature",
  "properties": {
    "edtf:cessation": "2016-09-25~",
    "edtf:inception": "2016-09-25T17:12:28",
    "flysfo:airline": "VX",
    "flysfo:date": "2016-09-25",
    "flysfo:event": "D",
    "flysfo:flight_number": "VX720",
    "flysfo:journey": "SFO-KDAL",
    "geom:area": 0,
    "geom:bbox": "-122.370943,32.845849,-96.850523,37.617990",
    "geom:latitude": 35.231919500000004,
    "geom:longitude": -109.610733,
    "iata:airline": "VX",
    "icao:aircraft": "A320",
    "icao:airline": "VRD",
    "mz:is_current": -1,
    "sfomuseum:aircraft_id": 1159292085,
    "sfomuseum:airline_id": 1159285481,
    "sfomuseum:arrival_id": 102525799,
    "sfomuseum:departure_id": 102527513,
    "sfomuseum:flight_id": "20160925-D-VRD-720",
    "sfomuseum:flight_number": [
      "VX720", 
      "VRD720"
    ],
    "sfomuseum:placetype": "flight",
    "src:geom": "sfonoise",
    "wof:belongsto": [
      85633793, 
      1678981673, 
      1159157271, 
      85688637, 
      102087579, 
      85922583, 
      102527513, 
      102191575
    ],
    "wof:country": "US",
    "wof:created": 1582930947,
    "wof:geomhash": "a08c5b1a6c329f228ec453404f254a51",
    "wof:hierarchy": [
      {
        "building_id": 1159157271,
        "campus_id": 102527513,
        "concourse_id": -1,
        "continent_id": 102191575,
        "country_id": 85633793,
        "county_id": 102087579,
        "event_id": 1678981673,
        "locality_id": 85922583,
        "neighbourhood_id": -1,
        "region_id": 85688637,
        "venue_id": -1,
        "wing_id": -1
      }
    ],
    "wof:id": 1678981673,
    "wof:lastmodified": 1582930947,
    "wof:name": "VRD720 (SFO-KDAL)",
    "wof:parent_id": -1,
    "wof:placetype": "event",
    "wof:repo": "sfomuseum-data-flights-2016",
    "wof:superseded_by": [],
    "wof:supersedes": []
  },
  "bbox": [
    -122.370943, 
    32.845849, 
    -96.850523, 
    37.61799
  ],
  "geometry": {"coordinates":[[-122.370943,37.61799],[-96.850523,32.845849]],"type":"MultiPoint"}
}
