{
  "id": 1662185515,
  "type": "Feature",
  "properties": {
    "edtf:cessation": "2016-03-31T17:57:32",
    "edtf:inception": "2016-03-31~",
    "flysfo:airline": "VS",
    "flysfo:date": "2016-03-31",
    "flysfo:event": "A",
    "flysfo:flight_number": "VS41",
    "flysfo:journey": "EGLL-SFO",
    "geom:area": 0,
    "geom:bbox": "-122.370943,37.617990,-0.450443,51.470087",
    "geom:latitude": 44.5440385,
    "geom:longitude": -61.410693,
    "iata:airline": "VS",
    "icao:aircraft": "B789",
    "icao:airline": "VIR",
    "mz:is_current": -1,
    "sfomuseum:aircraft_id": 1159293215,
    "sfomuseum:airline_id": 1159285483,
    "sfomuseum:arrival_id": 102527513,
    "sfomuseum:departure_id": 102556703,
    "sfomuseum:flight_id": "20160331-A-VIR-41",
    "sfomuseum:flight_number": [
      "VS41", 
      "VIR41"
    ],
    "sfomuseum:placetype": "flight",
    "src:geom": "sfonoise",
    "wof:belongsto": [
      85633793, 
      102087579, 
      85688637, 
      102527513, 
      102191575, 
      1662185515, 
      85922583, 
      1159396321
    ],
    "wof:country": "US",
    "wof:created": 1582923958,
    "wof:geomhash": "c7bf5337358552a3a60caed0c1e9ea63",
    "wof:hierarchy": [
      {
        "building_id": 1159396321,
        "campus_id": 102527513,
        "concourse_id": -1,
        "continent_id": 102191575,
        "country_id": 85633793,
        "county_id": 102087579,
        "event_id": 1662185515,
        "locality_id": 85922583,
        "neighbourhood_id": -1,
        "region_id": 85688637,
        "venue_id": -1,
        "wing_id": -1
      }
    ],
    "wof:id": 1662185515,
    "wof:lastmodified": 1582923958,
    "wof:name": "VIR41 (EGLL-SFO)",
    "wof:parent_id": -1,
    "wof:placetype": "event",
    "wof:repo": "sfomuseum-data-flights-2016",
    "wof:superseded_by": [],
    "wof:supersedes": []
  },
  "bbox": [
    -122.370943, 
    37.61799, 
    -0.450443, 
    51.470087
  ],
  "geometry": {"coordinates":[[-0.450443,51.470087],[-122.370943,37.61799]],"type":"MultiPoint"}
}
