{
  "id": 1662173035,
  "type": "Feature",
  "properties": {
    "edtf:cessation": "2016-03-24~",
    "edtf:inception": "2016-03-24T14:12:05",
    "flysfo:airline": "UA",
    "flysfo:date": "2016-03-24",
    "flysfo:event": "D",
    "flysfo:flight_number": "UA1738",
    "flysfo:journey": "SFO-YYC",
    "geom:area": 0,
    "geom:bbox": "-122.370943,37.617990,-114.020920,51.119526",
    "geom:latitude": 44.368758,
    "geom:longitude": -118.1959315,
    "iata:airline": "UA",
    "icao:aircraft": "B738",
    "icao:airline": "UAL",
    "mz:is_current": -1,
    "sfomuseum:aircraft_id": 1159289871,
    "sfomuseum:airline_id": 1159285413,
    "sfomuseum:arrival_id": 102554947,
    "sfomuseum:departure_id": 102527513,
    "sfomuseum:flight_id": "20160324-D-UAL-1738",
    "sfomuseum:flight_number": [
      "UA1738", 
      "UAL1738"
    ],
    "sfomuseum:placetype": "flight",
    "src:geom": "sfonoise",
    "wof:belongsto": [
      1159396321, 
      102191575, 
      102087579, 
      1662173035, 
      102527513, 
      85633793, 
      85922583, 
      85688637
    ],
    "wof:country": "US",
    "wof:created": 1582923836,
    "wof:geomhash": "a7dd599440af55c5534b52449c3164ed",
    "wof:hierarchy": [
      {
        "building_id": 1159396321,
        "campus_id": 102527513,
        "concourse_id": -1,
        "continent_id": 102191575,
        "country_id": 85633793,
        "county_id": 102087579,
        "event_id": 1662173035,
        "locality_id": 85922583,
        "neighbourhood_id": -1,
        "region_id": 85688637,
        "venue_id": -1,
        "wing_id": -1
      }
    ],
    "wof:id": 1662173035,
    "wof:lastmodified": 1582923836,
    "wof:name": "UAL1738 (SFO-YYC)",
    "wof:parent_id": -1,
    "wof:placetype": "event",
    "wof:repo": "sfomuseum-data-flights-2016",
    "wof:superseded_by": [],
    "wof:supersedes": []
  },
  "bbox": [
    -122.370943, 
    37.61799, 
    -114.02092, 
    51.119526
  ],
  "geometry": {"coordinates":[[-122.370943,37.61799],[-114.02092,51.119526]],"type":"MultiPoint"}
}
