{
  "id": 1662150413,
  "type": "Feature",
  "properties": {
    "edtf:cessation": "2016-03-11~",
    "edtf:inception": "2016-03-11T06:19:48",
    "flysfo:airline": "UA",
    "flysfo:date": "2016-03-11",
    "flysfo:event": "D",
    "flysfo:flight_number": "UA2157",
    "flysfo:journey": "SFO-KINT",
    "geom:area": 0,
    "geom:bbox": "-122.370943,36.136350,-80.228170,37.617990",
    "geom:latitude": 36.87717,
    "geom:longitude": -101.2995565,
    "iata:airline": "UA",
    "icao:aircraft": "B737",
    "icao:airline": "UAL",
    "mz:is_current": -1,
    "sfomuseum:aircraft_id": 1159289869,
    "sfomuseum:airline_id": 1159285413,
    "sfomuseum:arrival_id": 102526635,
    "sfomuseum:departure_id": 102527513,
    "sfomuseum:flight_id": "20160311-D-UAL-2157",
    "sfomuseum:flight_number": [
      "UA2157", 
      "UAL2157"
    ],
    "sfomuseum:placetype": "flight",
    "src:geom": "sfonoise",
    "wof:belongsto": [
      85633793, 
      102087579, 
      1662150413, 
      85922583, 
      1159396321, 
      85688637, 
      102527513, 
      102191575
    ],
    "wof:country": "US",
    "wof:created": 1582923581,
    "wof:geomhash": "f426345d98ed737b56a27c7aca1005ed",
    "wof:hierarchy": [
      {
        "building_id": 1159396321,
        "campus_id": 102527513,
        "concourse_id": -1,
        "continent_id": 102191575,
        "country_id": 85633793,
        "county_id": 102087579,
        "event_id": 1662150413,
        "locality_id": 85922583,
        "neighbourhood_id": -1,
        "region_id": 85688637,
        "venue_id": -1,
        "wing_id": -1
      }
    ],
    "wof:id": 1662150413,
    "wof:lastmodified": 1582923581,
    "wof:name": "UAL2157 (SFO-KINT)",
    "wof:parent_id": -1,
    "wof:placetype": "event",
    "wof:repo": "sfomuseum-data-flights-2016",
    "wof:superseded_by": [],
    "wof:supersedes": []
  },
  "bbox": [
    -122.370943, 
    36.13635, 
    -80.22817, 
    37.61799
  ],
  "geometry": {"coordinates":[[-122.370943,37.61799],[-80.22817,36.13635]],"type":"MultiPoint"}
}
