{
  "id": 1679031111,
  "type": "Feature",
  "properties": {
    "edtf:cessation": "2016-10-07T18:21:22",
    "edtf:inception": "2016-10-07~",
    "flysfo:airline": "UA",
    "flysfo:date": "2016-10-07",
    "flysfo:event": "A",
    "flysfo:flight_number": "UA2251",
    "flysfo:journey": "KEUG-SFO",
    "geom:area": 0,
    "geom:bbox": "-123.213030,37.617990,-122.370943,44.119058",
    "geom:latitude": 40.868524,
    "geom:longitude": -122.79198650000001,
    "iata:airline": "UA",
    "icao:aircraft": "B739",
    "icao:airline": "UAL",
    "mz:is_current": -1,
    "sfomuseum:aircraft_id": 1377564285,
    "sfomuseum:airline_id": 1159285413,
    "sfomuseum:arrival_id": 102527513,
    "sfomuseum:departure_id": 102533927,
    "sfomuseum:flight_id": "20161007-A-UAL-2251",
    "sfomuseum:flight_number": [
      "UA2251", 
      "UAL2251"
    ],
    "sfomuseum:placetype": "flight",
    "src:geom": "sfonoise",
    "wof:belongsto": [
      1679031111, 
      85922583, 
      85688637, 
      102527513, 
      85633793, 
      102191575, 
      102087579, 
      1159157271
    ],
    "wof:country": "US",
    "wof:created": 1582931501,
    "wof:geomhash": "68b06bbd791163721a20ab955d143e55",
    "wof:hierarchy": [
      {
        "building_id": 1159157271,
        "campus_id": 102527513,
        "concourse_id": -1,
        "continent_id": 102191575,
        "country_id": 85633793,
        "county_id": 102087579,
        "event_id": 1679031111,
        "locality_id": 85922583,
        "neighbourhood_id": -1,
        "region_id": 85688637,
        "venue_id": -1,
        "wing_id": -1
      }
    ],
    "wof:id": 1679031111,
    "wof:lastmodified": 1582931501,
    "wof:name": "UAL2251 (KEUG-SFO)",
    "wof:parent_id": -1,
    "wof:placetype": "event",
    "wof:repo": "sfomuseum-data-flights-2016",
    "wof:superseded_by": [],
    "wof:supersedes": []
  },
  "bbox": [
    -123.21303, 
    37.61799, 
    -122.370943, 
    44.119058
  ],
  "geometry": {"coordinates":[[-123.21303,44.119058],[-122.370943,37.61799]],"type":"MultiPoint"}
}
