{
  "id": 1629180419,
  "type": "Feature",
  "properties": {
    "edtf:cessation": "2016-07-04~",
    "edtf:inception": "2016-07-04T17:20:11",
    "flysfo:airline": "WN",
    "flysfo:date": "2016-07-04",
    "flysfo:event": "D",
    "flysfo:flight_number": "WN6396",
    "flysfo:journey": "SFO-KDEN",
    "geom:area": 0,
    "geom:bbox": "-122.370943,37.617990,-104.672219,39.864939",
    "geom:latitude": 38.7414645,
    "geom:longitude": -113.521581,
    "iata:airline": "WN",
    "icao:aircraft": "B733",
    "icao:airline": "SWA",
    "mz:is_current": -1,
    "sfomuseum:aircraft_id": 1159289851,
    "sfomuseum:airline_id": 1159285591,
    "sfomuseum:arrival_id": 102531189,
    "sfomuseum:departure_id": 102527513,
    "sfomuseum:flight_id": "20160704-D-SWA-6396",
    "sfomuseum:flight_number": [
      "WN6396", 
      "SWA6396"
    ],
    "sfomuseum:placetype": "flight",
    "src:geom": "sfonoise",
    "wof:belongsto": [
      102087579, 
      85922583, 
      102191575, 
      1159157271, 
      102527513, 
      1629180419, 
      85688637, 
      85633793
    ],
    "wof:country": "US",
    "wof:created": 1582927062,
    "wof:geomhash": "976937653dbac6c9c27dd23670ba89bf",
    "wof:hierarchy": [
      {
        "building_id": 1159157271,
        "campus_id": 102527513,
        "concourse_id": -1,
        "continent_id": 102191575,
        "country_id": 85633793,
        "county_id": 102087579,
        "event_id": 1629180419,
        "locality_id": 85922583,
        "neighbourhood_id": -1,
        "region_id": 85688637,
        "venue_id": -1,
        "wing_id": -1
      }
    ],
    "wof:id": 1629180419,
    "wof:lastmodified": 1582927062,
    "wof:name": "SWA6396 (SFO-KDEN)",
    "wof:parent_id": -1,
    "wof:placetype": "event",
    "wof:repo": "sfomuseum-data-flights-2016",
    "wof:superseded_by": [],
    "wof:supersedes": []
  },
  "bbox": [
    -122.370943, 
    37.61799, 
    -104.672219, 
    39.864939
  ],
  "geometry": {"coordinates":[[-122.370943,37.61799],[-104.672219,39.864939]],"type":"MultiPoint"}
}
