{
  "id": 1629085051,
  "type": "Feature",
  "properties": {
    "edtf:cessation": "2016-02-10T07:06:33",
    "edtf:inception": "2016-02-10~",
    "flysfo:airline": "UA",
    "flysfo:date": "2016-02-10",
    "flysfo:event": "A",
    "flysfo:flight_number": "UA1682",
    "flysfo:journey": "PHX-SFO",
    "geom:area": 0,
    "geom:bbox": "-122.370943,33.432684,-112.017392,37.617990",
    "geom:latitude": 35.525337,
    "geom:longitude": -117.19416749999999,
    "iata:airline": "UA",
    "icao:aircraft": "B739",
    "icao:airline": "UAL",
    "mz:is_current": -1,
    "sfomuseum:aircraft_id": 1377564285,
    "sfomuseum:airline_id": 1159285413,
    "sfomuseum:arrival_id": 102527513,
    "sfomuseum:departure_id": 102526751,
    "sfomuseum:flight_id": "20160210-A-UAL-1682",
    "sfomuseum:flight_number": [
      "UA1682", 
      "UAL1682"
    ],
    "sfomuseum:placetype": "flight",
    "src:geom": "sfonoise",
    "wof:belongsto": [
      102527513, 
      102087579, 
      1629085051, 
      85922583, 
      102191575, 
      1159396321, 
      85633793, 
      85688637
    ],
    "wof:country": "US",
    "wof:created": 1582922726,
    "wof:geomhash": "c9fdc5df38b6a105de4fe30ae6ada830",
    "wof:hierarchy": [
      {
        "building_id": 1159396321,
        "campus_id": 102527513,
        "concourse_id": -1,
        "continent_id": 102191575,
        "country_id": 85633793,
        "county_id": 102087579,
        "event_id": 1629085051,
        "locality_id": 85922583,
        "neighbourhood_id": -1,
        "region_id": 85688637,
        "venue_id": -1,
        "wing_id": -1
      }
    ],
    "wof:id": 1629085051,
    "wof:lastmodified": 1582922726,
    "wof:name": "UAL1682 (PHX-SFO)",
    "wof:parent_id": -1,
    "wof:placetype": "event",
    "wof:repo": "sfomuseum-data-flights-2016",
    "wof:superseded_by": [],
    "wof:supersedes": []
  },
  "bbox": [
    -122.370943, 
    33.432684, 
    -112.017392, 
    37.61799
  ],
  "geometry": {"coordinates":[[-112.017392,33.432684],[-122.370943,37.61799]],"type":"MultiPoint"}
}
