{
  "id": 1679161727,
  "type": "Feature",
  "properties": {
    "edtf:cessation": "2016-11-09~",
    "edtf:inception": "2016-11-09T10:16:53",
    "flysfo:airline": "F9",
    "flysfo:date": "2016-11-09",
    "flysfo:event": "D",
    "flysfo:flight_number": "F91532",
    "flysfo:journey": "SFO-KATL",
    "geom:area": 0,
    "geom:bbox": "-122.370943,33.636518,-84.430686,37.617990",
    "geom:latitude": 35.627254,
    "geom:longitude": -103.4008145,
    "iata:airline": "F9",
    "icao:aircraft": "A320",
    "icao:airline": "FFT",
    "mz:is_current": -1,
    "sfomuseum:aircraft_id": 1159292085,
    "sfomuseum:airline_id": 1159284401,
    "sfomuseum:arrival_id": 102526927,
    "sfomuseum:departure_id": 102527513,
    "sfomuseum:flight_id": "20161109-D-FFT-1532",
    "sfomuseum:flight_number": [
      "F91532", 
      "FFT1532"
    ],
    "sfomuseum:placetype": "flight",
    "src:geom": "sfonoise",
    "wof:belongsto": [
      85633793, 
      85688637, 
      102527513, 
      102191575, 
      1679161727, 
      85922583, 
      102087579, 
      1159157271
    ],
    "wof:country": "US",
    "wof:created": 1582933013,
    "wof:geomhash": "8306f5516cededf93440c49d2c7be198",
    "wof:hierarchy": [
      {
        "building_id": 1159157271,
        "campus_id": 102527513,
        "concourse_id": -1,
        "continent_id": 102191575,
        "country_id": 85633793,
        "county_id": 102087579,
        "event_id": 1679161727,
        "locality_id": 85922583,
        "neighbourhood_id": -1,
        "region_id": 85688637,
        "venue_id": -1,
        "wing_id": -1
      }
    ],
    "wof:id": 1679161727,
    "wof:lastmodified": 1582933013,
    "wof:name": "FFT1532 (SFO-KATL)",
    "wof:parent_id": -1,
    "wof:placetype": "event",
    "wof:repo": "sfomuseum-data-flights-2016",
    "wof:superseded_by": [],
    "wof:supersedes": []
  },
  "bbox": [
    -122.370943, 
    33.636518, 
    -84.430686, 
    37.61799
  ],
  "geometry": {"coordinates":[[-122.370943,37.61799],[-84.430686,33.636518]],"type":"MultiPoint"}
}
