{
  "id": 1662258081,
  "type": "Feature",
  "properties": {
    "edtf:cessation": "2016-05-12~",
    "edtf:inception": "2016-05-12T08:32:25",
    "flysfo:airline": "FX",
    "flysfo:date": "2016-05-12",
    "flysfo:event": "D",
    "flysfo:flight_number": "FX880",
    "flysfo:journey": "SFO-KMEM",
    "geom:area": 0,
    "geom:bbox": "-122.370943,35.048890,-89.981998,37.617990",
    "geom:latitude": 36.333439999999996,
    "geom:longitude": -106.1764705,
    "iata:airline": "FX",
    "icao:aircraft": "MD11",
    "icao:airline": "FDX",
    "mz:is_current": -1,
    "sfomuseum:aircraft_id": 1159291281,
    "sfomuseum:airline_id": 1159285989,
    "sfomuseum:arrival_id": 102527185,
    "sfomuseum:departure_id": 102527513,
    "sfomuseum:flight_id": "20160512-D-FDX-880",
    "sfomuseum:flight_number": [
      "FX880", 
      "FDX880"
    ],
    "sfomuseum:placetype": "flight",
    "src:geom": "sfonoise",
    "wof:belongsto": [
      1159396321, 
      102191575, 
      85633793, 
      102087579, 
      1662258081, 
      85922583, 
      102527513, 
      85688637
    ],
    "wof:country": "US",
    "wof:created": 1582925468,
    "wof:geomhash": "c0d6b7b15085f29a6d4be92b4dd147bf",
    "wof:hierarchy": [
      {
        "building_id": 1159396321,
        "campus_id": 102527513,
        "concourse_id": -1,
        "continent_id": 102191575,
        "country_id": 85633793,
        "county_id": 102087579,
        "event_id": 1662258081,
        "locality_id": 85922583,
        "neighbourhood_id": -1,
        "region_id": 85688637,
        "venue_id": -1,
        "wing_id": -1
      }
    ],
    "wof:id": 1662258081,
    "wof:lastmodified": 1582925468,
    "wof:name": "FDX880 (SFO-KMEM)",
    "wof:parent_id": -1,
    "wof:placetype": "event",
    "wof:repo": "sfomuseum-data-flights-2016",
    "wof:superseded_by": [],
    "wof:supersedes": []
  },
  "bbox": [
    -122.370943, 
    35.04889, 
    -89.981998, 
    37.61799
  ],
  "geometry": {"coordinates":[[-122.370943,37.61799],[-89.981998,35.04889]],"type":"MultiPoint"}
}
