{
  "id": 1629134007,
  "type": "Feature",
  "properties": {
    "edtf:cessation": "2016-06-22~",
    "edtf:inception": "2016-06-22T15:35:06",
    "flysfo:airline": "DL",
    "flysfo:date": "2016-06-22",
    "flysfo:event": "D",
    "flysfo:flight_number": "DL8825",
    "flysfo:journey": "SFO-KONT",
    "geom:area": 0,
    "geom:bbox": "-122.370943,34.059934,-117.587749,37.617990",
    "geom:latitude": 35.838961999999995,
    "geom:longitude": -119.97934599999999,
    "iata:airline": "DL",
    "icao:aircraft": "B763",
    "icao:airline": "DAL",
    "mz:is_current": -1,
    "sfomuseum:aircraft_id": 1159289965,
    "sfomuseum:airline_id": 1159284261,
    "sfomuseum:arrival_id": 102533575,
    "sfomuseum:departure_id": 102527513,
    "sfomuseum:flight_id": "20160622-D-DAL-8825",
    "sfomuseum:flight_number": [
      "DL8825", 
      "DAL8825"
    ],
    "sfomuseum:placetype": "flight",
    "src:geom": "sfonoise",
    "wof:belongsto": [
      1159396321, 
      85633793, 
      102087579, 
      102191575, 
      85688637, 
      102527513, 
      1629134007, 
      85922583
    ],
    "wof:country": "US",
    "wof:created": 1582926711,
    "wof:geomhash": "ec8e91229a6790516c63cb7081c35777",
    "wof:hierarchy": [
      {
        "building_id": 1159396321,
        "campus_id": 102527513,
        "concourse_id": -1,
        "continent_id": 102191575,
        "country_id": 85633793,
        "county_id": 102087579,
        "event_id": 1629134007,
        "locality_id": 85922583,
        "neighbourhood_id": -1,
        "region_id": 85688637,
        "venue_id": -1,
        "wing_id": -1
      }
    ],
    "wof:id": 1629134007,
    "wof:lastmodified": 1582926711,
    "wof:name": "DAL8825 (SFO-KONT)",
    "wof:parent_id": -1,
    "wof:placetype": "event",
    "wof:repo": "sfomuseum-data-flights-2016",
    "wof:superseded_by": [],
    "wof:supersedes": []
  },
  "bbox": [
    -122.370943, 
    34.059934, 
    -117.587749, 
    37.61799
  ],
  "geometry": {"coordinates":[[-122.370943,37.61799],[-117.587749,34.059934]],"type":"MultiPoint"}
}
