{
  "id": 1629091811,
  "type": "Feature",
  "properties": {
    "edtf:cessation": "2016-03-03T10:42:14",
    "edtf:inception": "2016-03-03~",
    "flysfo:airline": "UA",
    "flysfo:date": "2016-03-03",
    "flysfo:event": "A",
    "flysfo:flight_number": "UA892",
    "flysfo:journey": "ICN-SFO",
    "geom:area": 0,
    "geom:bbox": "-122.370943,37.453966,126.661632,37.617990",
    "geom:latitude": 37.535978,
    "geom:longitude": 2.1453445,
    "iata:airline": "UA",
    "icao:aircraft": "B744",
    "icao:airline": "UAL",
    "mz:is_current": -1,
    "sfomuseum:aircraft_id": 1159289915,
    "sfomuseum:airline_id": 1159285413,
    "sfomuseum:arrival_id": 102527513,
    "sfomuseum:departure_id": 102556451,
    "sfomuseum:flight_id": "20160303-A-UAL-892",
    "sfomuseum:flight_number": [
      "UA892", 
      "UAL892"
    ],
    "sfomuseum:placetype": "flight",
    "src:geom": "sfonoise",
    "wof:belongsto": [
      85922583, 
      85633793, 
      1629091811, 
      102191575, 
      85688637, 
      1159396321, 
      102527513, 
      102087579
    ],
    "wof:country": "US",
    "wof:created": 1582923360,
    "wof:geomhash": "83e2c60a8819c96e9fa3721059c5eac5",
    "wof:hierarchy": [
      {
        "building_id": 1159396321,
        "campus_id": 102527513,
        "concourse_id": -1,
        "continent_id": 102191575,
        "country_id": 85633793,
        "county_id": 102087579,
        "event_id": 1629091811,
        "locality_id": 85922583,
        "neighbourhood_id": -1,
        "region_id": 85688637,
        "venue_id": -1,
        "wing_id": -1
      }
    ],
    "wof:id": 1629091811,
    "wof:lastmodified": 1582923360,
    "wof:name": "UAL892 (ICN-SFO)",
    "wof:parent_id": -1,
    "wof:placetype": "event",
    "wof:repo": "sfomuseum-data-flights-2016",
    "wof:superseded_by": [],
    "wof:supersedes": []
  },
  "bbox": [
    -122.370943, 
    37.453966, 
    126.661632, 
    37.61799
  ],
  "geometry": {"coordinates":[[126.661632,37.453966],[-122.370943,37.61799]],"type":"MultiPoint"}
}
