{
  "id": 1662111893,
  "type": "Feature",
  "properties": {
    "edtf:cessation": "2016-02-15~",
    "edtf:inception": "2016-02-15T00:45:37",
    "flysfo:airline": "BR",
    "flysfo:date": "2016-02-15",
    "flysfo:event": "D",
    "flysfo:flight_number": "BR17",
    "flysfo:journey": "SFO-TPE",
    "geom:area": 0,
    "geom:bbox": "-122.370943,25.078566,121.233152,37.617990",
    "geom:latitude": 31.348278,
    "geom:longitude": -0.5688954999999964,
    "iata:airline": "BR",
    "icao:aircraft": "B77W",
    "icao:airline": "EVA",
    "mz:is_current": -1,
    "sfomuseum:aircraft_id": 1159289993,
    "sfomuseum:airline_id": 1159284349,
    "sfomuseum:arrival_id": 102551487,
    "sfomuseum:departure_id": 102527513,
    "sfomuseum:flight_id": "20160215-D-EVA-17",
    "sfomuseum:flight_number": [
      "BR17", 
      "EVA17"
    ],
    "sfomuseum:placetype": "flight",
    "src:geom": "sfonoise",
    "wof:belongsto": [
      85633793, 
      102087579, 
      85922583, 
      102191575, 
      1159396321, 
      1662111893, 
      85688637, 
      102527513
    ],
    "wof:country": "US",
    "wof:created": 1582922853,
    "wof:geomhash": "ec4a8fe4d0e09d37ae50bf109072b003",
    "wof:hierarchy": [
      {
        "building_id": 1159396321,
        "campus_id": 102527513,
        "concourse_id": -1,
        "continent_id": 102191575,
        "country_id": 85633793,
        "county_id": 102087579,
        "event_id": 1662111893,
        "locality_id": 85922583,
        "neighbourhood_id": -1,
        "region_id": 85688637,
        "venue_id": -1,
        "wing_id": -1
      }
    ],
    "wof:id": 1662111893,
    "wof:lastmodified": 1582922853,
    "wof:name": "EVA17 (SFO-TPE)",
    "wof:parent_id": -1,
    "wof:placetype": "event",
    "wof:repo": "sfomuseum-data-flights-2016",
    "wof:superseded_by": [],
    "wof:supersedes": []
  },
  "bbox": [
    -122.370943, 
    25.078566, 
    121.233152, 
    37.61799
  ],
  "geometry": {"coordinates":[[-122.370943,37.61799],[121.233152,25.078566]],"type":"MultiPoint"}
}
