{
  "id": 1662155341,
  "type": "Feature",
  "properties": {
    "edtf:cessation": "2016-03-14T09:01:59",
    "edtf:inception": "2016-03-14~",
    "flysfo:airline": "CZ",
    "flysfo:date": "2016-03-14",
    "flysfo:event": "A",
    "flysfo:flight_number": "CZ657",
    "flysfo:journey": "CAN-SFO",
    "geom:area": 0,
    "geom:bbox": "-122.370943,23.447348,113.399556,37.617990",
    "geom:latitude": 30.532669,
    "geom:longitude": -4.4856934999999964,
    "iata:airline": "CZ",
    "icao:aircraft": "B788",
    "icao:airline": "CSN",
    "mz:is_current": -1,
    "sfomuseum:aircraft_id": 1159289995,
    "sfomuseum:airline_id": 1159284165,
    "sfomuseum:arrival_id": 102527513,
    "sfomuseum:departure_id": 102550391,
    "sfomuseum:flight_id": "20160314-A-CSN-657",
    "sfomuseum:flight_number": [
      "CZ657", 
      "CSN657"
    ],
    "sfomuseum:placetype": "flight",
    "src:geom": "sfonoise",
    "wof:belongsto": [
      85633793, 
      102087579, 
      1159396321, 
      102191575, 
      1662155341, 
      102527513, 
      85922583, 
      85688637
    ],
    "wof:country": "US",
    "wof:created": 1582923660,
    "wof:geomhash": "247e1e318adb65668d4614fd3ca74ae2",
    "wof:hierarchy": [
      {
        "building_id": 1159396321,
        "campus_id": 102527513,
        "concourse_id": -1,
        "continent_id": 102191575,
        "country_id": 85633793,
        "county_id": 102087579,
        "event_id": 1662155341,
        "locality_id": 85922583,
        "neighbourhood_id": -1,
        "region_id": 85688637,
        "venue_id": -1,
        "wing_id": -1
      }
    ],
    "wof:id": 1662155341,
    "wof:lastmodified": 1582923660,
    "wof:name": "CSN657 (CAN-SFO)",
    "wof:parent_id": -1,
    "wof:placetype": "event",
    "wof:repo": "sfomuseum-data-flights-2016",
    "wof:superseded_by": [],
    "wof:supersedes": []
  },
  "bbox": [
    -122.370943, 
    23.447348, 
    113.399556, 
    37.61799
  ],
  "geometry": {"coordinates":[[113.399556,23.447348],[-122.370943,37.61799]],"type":"MultiPoint"}
}
