{
  "id": 1662080703,
  "type": "Feature",
  "properties": {
    "edtf:cessation": "2016-01-24T20:51:11",
    "edtf:inception": "2016-01-24~",
    "flysfo:airline": "UA",
    "flysfo:date": "2016-01-24",
    "flysfo:event": "A",
    "flysfo:flight_number": "UA2035",
    "flysfo:journey": "MSY-SFO",
    "geom:area": 0,
    "geom:bbox": "-122.370943,29.982609,-90.261832,37.617990",
    "geom:latitude": 33.8002995,
    "geom:longitude": -106.31638749999999,
    "iata:airline": "UA",
    "icao:aircraft": "B738",
    "icao:airline": "UAL",
    "mz:is_current": -1,
    "sfomuseum:aircraft_id": 1159289871,
    "sfomuseum:airline_id": 1159285413,
    "sfomuseum:arrival_id": 102527513,
    "sfomuseum:departure_id": 102530009,
    "sfomuseum:flight_id": "20160124-A-UAL-2035",
    "sfomuseum:flight_number": [
      "UA2035", 
      "UAL2035"
    ],
    "sfomuseum:placetype": "flight",
    "src:geom": "sfonoise",
    "wof:belongsto": [
      102191575, 
      102087579, 
      85688637, 
      85633793, 
      102527513, 
      1662080703, 
      85922583, 
      1159396321
    ],
    "wof:country": "US",
    "wof:created": 1582922374,
    "wof:geomhash": "a7e835886f555fd347028edc152f9d8c",
    "wof:hierarchy": [
      {
        "building_id": 1159396321,
        "campus_id": 102527513,
        "concourse_id": -1,
        "continent_id": 102191575,
        "country_id": 85633793,
        "county_id": 102087579,
        "event_id": 1662080703,
        "locality_id": 85922583,
        "neighbourhood_id": -1,
        "region_id": 85688637,
        "venue_id": -1,
        "wing_id": -1
      }
    ],
    "wof:id": 1662080703,
    "wof:lastmodified": 1582922374,
    "wof:name": "UAL2035 (MSY-SFO)",
    "wof:parent_id": -1,
    "wof:placetype": "event",
    "wof:repo": "sfomuseum-data-flights-2016",
    "wof:superseded_by": [],
    "wof:supersedes": []
  },
  "bbox": [
    -122.370943, 
    29.982609, 
    -90.261832, 
    37.61799
  ],
  "geometry": {"coordinates":[[-90.261832,29.982609],[-122.370943,37.61799]],"type":"MultiPoint"}
}
