{
  "id": 1662306091,
  "type": "Feature",
  "properties": {
    "edtf:cessation": "2016-06-07~",
    "edtf:inception": "2016-06-07T14:26:36",
    "flysfo:airline": "SQ",
    "flysfo:date": "2016-06-07",
    "flysfo:event": "D",
    "flysfo:flight_number": "SQ015",
    "flysfo:journey": "SFO-RKSI",
    "geom:area": 0,
    "geom:bbox": "-122.370943,37.453966,126.661632,37.617990",
    "geom:latitude": 37.535978,
    "geom:longitude": 2.1453445,
    "iata:airline": "SQ",
    "icao:aircraft": "B77W",
    "icao:airline": "SIA",
    "mz:is_current": -1,
    "sfomuseum:aircraft_id": 1159289993,
    "sfomuseum:airline_id": 1159286259,
    "sfomuseum:arrival_id": 102556451,
    "sfomuseum:departure_id": 102527513,
    "sfomuseum:flight_id": "20160607-D-SIA-015",
    "sfomuseum:flight_number": [
      "SQ015", 
      "SIA015"
    ],
    "sfomuseum:placetype": "flight",
    "src:geom": "sfonoise",
    "wof:belongsto": [
      1662306091, 
      85688637, 
      85633793, 
      1159396321, 
      102527513, 
      102191575, 
      102087579, 
      85922583
    ],
    "wof:country": "US",
    "wof:created": 1582926256,
    "wof:geomhash": "76fab8ba90cc172f777e745d124625d2",
    "wof:hierarchy": [
      {
        "building_id": 1159396321,
        "campus_id": 102527513,
        "concourse_id": -1,
        "continent_id": 102191575,
        "country_id": 85633793,
        "county_id": 102087579,
        "event_id": 1662306091,
        "locality_id": 85922583,
        "neighbourhood_id": -1,
        "region_id": 85688637,
        "venue_id": -1,
        "wing_id": -1
      }
    ],
    "wof:id": 1662306091,
    "wof:lastmodified": 1582926256,
    "wof:name": "SIA015 (SFO-RKSI)",
    "wof:parent_id": -1,
    "wof:placetype": "event",
    "wof:repo": "sfomuseum-data-flights-2016",
    "wof:superseded_by": [],
    "wof:supersedes": []
  },
  "bbox": [
    -122.370943, 
    37.453966, 
    126.661632, 
    37.61799
  ],
  "geometry": {"coordinates":[[-122.370943,37.61799],[126.661632,37.453966]],"type":"MultiPoint"}
}
