{
  "id": 1679267795,
  "type": "Feature",
  "properties": {
    "edtf:cessation": "2016-12-11T19:21:57",
    "edtf:inception": "2016-12-11~",
    "flysfo:airline": "Y4",
    "flysfo:date": "2016-12-11",
    "flysfo:event": "A",
    "flysfo:flight_number": "Y4910",
    "flysfo:journey": "MMMX-SFO",
    "geom:area": 0,
    "geom:bbox": "-122.370943,19.431302,-99.080804,37.617990",
    "geom:latitude": 28.524645999999997,
    "geom:longitude": -110.7258735,
    "iata:airline": "Y4",
    "icao:aircraft": "A320",
    "icao:airline": "VOI",
    "mz:is_current": -1,
    "sfomuseum:aircraft_id": 1159292085,
    "sfomuseum:airline_id": 1360700749,
    "sfomuseum:arrival_id": 102527513,
    "sfomuseum:departure_id": 102536579,
    "sfomuseum:flight_id": "20161211-A-VOI-910",
    "sfomuseum:flight_number": [
      "Y4910", 
      "VOI910"
    ],
    "sfomuseum:placetype": "flight",
    "src:geom": "sfonoise",
    "wof:belongsto": [
      85633793, 
      85922583, 
      102087579, 
      1159157271, 
      1679267795, 
      85688637, 
      102527513, 
      102191575
    ],
    "wof:country": "US",
    "wof:created": 1582934021,
    "wof:geomhash": "4224d1c4c9907a232ddfbf90e60373e4",
    "wof:hierarchy": [
      {
        "building_id": 1159157271,
        "campus_id": 102527513,
        "concourse_id": -1,
        "continent_id": 102191575,
        "country_id": 85633793,
        "county_id": 102087579,
        "event_id": 1679267795,
        "locality_id": 85922583,
        "neighbourhood_id": -1,
        "region_id": 85688637,
        "venue_id": -1,
        "wing_id": -1
      }
    ],
    "wof:id": 1679267795,
    "wof:lastmodified": 1582934021,
    "wof:name": "VOI910 (MMMX-SFO)",
    "wof:parent_id": -1,
    "wof:placetype": "event",
    "wof:repo": "sfomuseum-data-flights-2016",
    "wof:superseded_by": [],
    "wof:supersedes": []
  },
  "bbox": [
    -122.370943, 
    19.431302, 
    -99.080804, 
    37.61799
  ],
  "geometry": {"coordinates":[[-99.080804,19.431302],[-122.370943,37.61799]],"type":"MultiPoint"}
}
