{
  "id": 1662308247,
  "type": "Feature",
  "properties": {
    "edtf:cessation": "2016-06-08T16:38:41",
    "edtf:inception": "2016-06-08~",
    "flysfo:airline": "UA",
    "flysfo:date": "2016-06-08",
    "flysfo:event": "A",
    "flysfo:flight_number": "UA2195",
    "flysfo:journey": "KLCQ-SFO",
    "geom:area": 0,
    "geom:bbox": "-122.370943,37.617990,-75.710820,44.059200",
    "geom:latitude": 40.838595,
    "geom:longitude": -99.0408815,
    "iata:airline": "UA",
    "icao:aircraft": "A320",
    "icao:airline": "UAL",
    "mz:is_current": -1,
    "sfomuseum:aircraft_id": 1159292085,
    "sfomuseum:airline_id": 1159285413,
    "sfomuseum:arrival_id": 102527513,
    "sfomuseum:departure_id": 102531643,
    "sfomuseum:flight_id": "20160608-A-UAL-2195",
    "sfomuseum:flight_number": [
      "UA2195", 
      "UAL2195"
    ],
    "sfomuseum:placetype": "flight",
    "src:geom": "sfonoise",
    "wof:belongsto": [
      85633793, 
      102527513, 
      1159396321, 
      102191575, 
      85688637, 
      102087579, 
      1662308247, 
      85922583
    ],
    "wof:country": "US",
    "wof:created": 1582926286,
    "wof:geomhash": "968f91bc93138a625766f1e676a062a5",
    "wof:hierarchy": [
      {
        "building_id": 1159396321,
        "campus_id": 102527513,
        "concourse_id": -1,
        "continent_id": 102191575,
        "country_id": 85633793,
        "county_id": 102087579,
        "event_id": 1662308247,
        "locality_id": 85922583,
        "neighbourhood_id": -1,
        "region_id": 85688637,
        "venue_id": -1,
        "wing_id": -1
      }
    ],
    "wof:id": 1662308247,
    "wof:lastmodified": 1582926286,
    "wof:name": "UAL2195 (KLCQ-SFO)",
    "wof:parent_id": -1,
    "wof:placetype": "event",
    "wof:repo": "sfomuseum-data-flights-2016",
    "wof:superseded_by": [],
    "wof:supersedes": []
  },
  "bbox": [
    -122.370943, 
    37.61799, 
    -75.71082, 
    44.0592
  ],
  "geometry": {"coordinates":[[-75.71082,44.0592],[-122.370943,37.61799]],"type":"MultiPoint"}
}
