{
  "id": 1662153425,
  "type": "Feature",
  "properties": {
    "edtf:cessation": "2016-03-13T00:32:04",
    "edtf:inception": "2016-03-13~",
    "flysfo:airline": "DL",
    "flysfo:date": "2016-03-13",
    "flysfo:event": "A",
    "flysfo:flight_number": "DL8932",
    "flysfo:journey": "KMKE-SFO",
    "geom:area": 0,
    "geom:bbox": "-122.370943,37.617990,-87.896339,42.949572",
    "geom:latitude": 40.283781000000005,
    "geom:longitude": -105.133641,
    "iata:airline": "DL",
    "icao:aircraft": "A319",
    "icao:airline": "DAL",
    "mz:is_current": -1,
    "sfomuseum:aircraft_id": 1159289407,
    "sfomuseum:airline_id": 1159284261,
    "sfomuseum:arrival_id": 102527513,
    "sfomuseum:departure_id": 102530849,
    "sfomuseum:flight_id": "20160313-A-DAL-8932",
    "sfomuseum:flight_number": [
      "DL8932", 
      "DAL8932"
    ],
    "sfomuseum:placetype": "flight",
    "src:geom": "sfonoise",
    "wof:belongsto": [
      102191575, 
      102087579, 
      85633793, 
      1662153425, 
      1159396321, 
      85688637, 
      102527513, 
      85922583
    ],
    "wof:country": "US",
    "wof:created": 1582923634,
    "wof:geomhash": "1e284fd777a7bf1f8b464fea635cfcb1",
    "wof:hierarchy": [
      {
        "building_id": 1159396321,
        "campus_id": 102527513,
        "concourse_id": -1,
        "continent_id": 102191575,
        "country_id": 85633793,
        "county_id": 102087579,
        "event_id": 1662153425,
        "locality_id": 85922583,
        "neighbourhood_id": -1,
        "region_id": 85688637,
        "venue_id": -1,
        "wing_id": -1
      }
    ],
    "wof:id": 1662153425,
    "wof:lastmodified": 1582923634,
    "wof:name": "DAL8932 (KMKE-SFO)",
    "wof:parent_id": -1,
    "wof:placetype": "event",
    "wof:repo": "sfomuseum-data-flights-2016",
    "wof:superseded_by": [],
    "wof:supersedes": []
  },
  "bbox": [
    -122.370943, 
    37.61799, 
    -87.896339, 
    42.949572
  ],
  "geometry": {"coordinates":[[-87.896339,42.949572],[-122.370943,37.61799]],"type":"MultiPoint"}
}
