{
  "id": 1662156625,
  "type": "Feature",
  "properties": {
    "edtf:cessation": "2016-03-14T21:44:51",
    "edtf:inception": "2016-03-14~",
    "flysfo:airline": "VX",
    "flysfo:date": "2016-03-14",
    "flysfo:event": "A",
    "flysfo:flight_number": "VX8642",
    "flysfo:journey": "KSBD-SFO",
    "geom:area": 0,
    "geom:bbox": "-122.370943,34.104408,-117.245887,37.617990",
    "geom:latitude": 35.861199,
    "geom:longitude": -119.808415,
    "iata:airline": "VX",
    "icao:aircraft": "A320",
    "icao:airline": "VRD",
    "mz:is_current": -1,
    "sfomuseum:aircraft_id": 1159292085,
    "sfomuseum:airline_id": 1159285481,
    "sfomuseum:arrival_id": 102527513,
    "sfomuseum:departure_id": 102530129,
    "sfomuseum:flight_id": "20160314-A-VRD-8642",
    "sfomuseum:flight_number": [
      "VX8642", 
      "VRD8642"
    ],
    "sfomuseum:placetype": "flight",
    "src:geom": "sfonoise",
    "wof:belongsto": [
      102191575, 
      85922583, 
      1159396321, 
      85633793, 
      1662156625, 
      102527513, 
      85688637, 
      102087579
    ],
    "wof:country": "US",
    "wof:created": 1582923673,
    "wof:geomhash": "6d8f05e22cdd419a749a10658572882e",
    "wof:hierarchy": [
      {
        "building_id": 1159396321,
        "campus_id": 102527513,
        "concourse_id": -1,
        "continent_id": 102191575,
        "country_id": 85633793,
        "county_id": 102087579,
        "event_id": 1662156625,
        "locality_id": 85922583,
        "neighbourhood_id": -1,
        "region_id": 85688637,
        "venue_id": -1,
        "wing_id": -1
      }
    ],
    "wof:id": 1662156625,
    "wof:lastmodified": 1582923673,
    "wof:name": "VRD8642 (KSBD-SFO)",
    "wof:parent_id": -1,
    "wof:placetype": "event",
    "wof:repo": "sfomuseum-data-flights-2016",
    "wof:superseded_by": [],
    "wof:supersedes": []
  },
  "bbox": [
    -122.370943, 
    34.104408, 
    -117.245887, 
    37.61799
  ],
  "geometry": {"coordinates":[[-117.245887,34.104408],[-122.370943,37.61799]],"type":"MultiPoint"}
}
