{
  "id": 1662292673,
  "type": "Feature",
  "properties": {
    "edtf:cessation": "2016-05-31~",
    "edtf:inception": "2016-05-31T10:32:30",
    "flysfo:airline": "DL",
    "flysfo:date": "2016-05-31",
    "flysfo:event": "D",
    "flysfo:flight_number": "DL8933",
    "flysfo:journey": "SFO-KOKC",
    "geom:area": 0,
    "geom:bbox": "-122.370943,35.396691,-97.593893,37.617990",
    "geom:latitude": 36.5073405,
    "geom:longitude": -109.982418,
    "iata:airline": "DL",
    "icao:aircraft": "B752",
    "icao:airline": "DAL",
    "mz:is_current": -1,
    "sfomuseum:aircraft_id": 1159289939,
    "sfomuseum:airline_id": 1159284261,
    "sfomuseum:arrival_id": 102531811,
    "sfomuseum:departure_id": 102527513,
    "sfomuseum:flight_id": "20160531-D-DAL-8933",
    "sfomuseum:flight_number": [
      "DL8933", 
      "DAL8933"
    ],
    "sfomuseum:placetype": "flight",
    "src:geom": "sfonoise",
    "wof:belongsto": [
      85633793, 
      102527513, 
      102191575, 
      1159396321, 
      102087579, 
      85922583, 
      1662292673, 
      85688637
    ],
    "wof:country": "US",
    "wof:created": 1582925971,
    "wof:geomhash": "e3775dcc82e10b2050a0f38d95bd1f16",
    "wof:hierarchy": [
      {
        "building_id": 1159396321,
        "campus_id": 102527513,
        "concourse_id": -1,
        "continent_id": 102191575,
        "country_id": 85633793,
        "county_id": 102087579,
        "event_id": 1662292673,
        "locality_id": 85922583,
        "neighbourhood_id": -1,
        "region_id": 85688637,
        "venue_id": -1,
        "wing_id": -1
      }
    ],
    "wof:id": 1662292673,
    "wof:lastmodified": 1582925971,
    "wof:name": "DAL8933 (SFO-KOKC)",
    "wof:parent_id": -1,
    "wof:placetype": "event",
    "wof:repo": "sfomuseum-data-flights-2016",
    "wof:superseded_by": [],
    "wof:supersedes": []
  },
  "bbox": [
    -122.370943, 
    35.396691, 
    -97.593893, 
    37.61799
  ],
  "geometry": {"coordinates":[[-122.370943,37.61799],[-97.593893,35.396691]],"type":"MultiPoint"}
}
