{
  "id": 1662192041,
  "type": "Feature",
  "properties": {
    "edtf:cessation": "2016-04-04~",
    "edtf:inception": "2016-04-04T15:07:39",
    "flysfo:airline": "UA",
    "flysfo:date": "2016-04-04",
    "flysfo:event": "D",
    "flysfo:flight_number": "UA1914",
    "flysfo:journey": "SFO-KIAH",
    "geom:area": 0,
    "geom:bbox": "-122.370943,29.977186,-95.338444,37.617990",
    "geom:latitude": 33.797588,
    "geom:longitude": -108.8546935,
    "iata:airline": "UA",
    "icao:aircraft": "A320",
    "icao:airline": "UAL",
    "mz:is_current": -1,
    "sfomuseum:aircraft_id": 1159292085,
    "sfomuseum:airline_id": 1159285413,
    "sfomuseum:arrival_id": 102534097,
    "sfomuseum:departure_id": 102527513,
    "sfomuseum:flight_id": "20160404-D-UAL-1914",
    "sfomuseum:flight_number": [
      "UA1914", 
      "UAL1914"
    ],
    "sfomuseum:placetype": "flight",
    "src:geom": "sfonoise",
    "wof:belongsto": [
      102191575, 
      102527513, 
      1159396321, 
      102087579, 
      85922583, 
      85633793, 
      1662192041, 
      85688637
    ],
    "wof:country": "US",
    "wof:created": 1582924039,
    "wof:geomhash": "4d8eca8dfd12d13a56951180b27dbf13",
    "wof:hierarchy": [
      {
        "building_id": 1159396321,
        "campus_id": 102527513,
        "concourse_id": -1,
        "continent_id": 102191575,
        "country_id": 85633793,
        "county_id": 102087579,
        "event_id": 1662192041,
        "locality_id": 85922583,
        "neighbourhood_id": -1,
        "region_id": 85688637,
        "venue_id": -1,
        "wing_id": -1
      }
    ],
    "wof:id": 1662192041,
    "wof:lastmodified": 1582924039,
    "wof:name": "UAL1914 (SFO-KIAH)",
    "wof:parent_id": -1,
    "wof:placetype": "event",
    "wof:repo": "sfomuseum-data-flights-2016",
    "wof:superseded_by": [],
    "wof:supersedes": []
  },
  "bbox": [
    -122.370943, 
    29.977186, 
    -95.338444, 
    37.61799
  ],
  "geometry": {"coordinates":[[-122.370943,37.61799],[-95.338444,29.977186]],"type":"MultiPoint"}
}
