{
  "id": 1662140779,
  "type": "Feature",
  "properties": {
    "edtf:cessation": "2016-03-04T21:29:46",
    "edtf:inception": "2016-03-04~",
    "flysfo:airline": "UA",
    "flysfo:date": "2016-03-04",
    "flysfo:event": "A",
    "flysfo:flight_number": "UA2298",
    "flysfo:journey": "KGRK-SFO",
    "geom:area": 0,
    "geom:bbox": "-122.370943,31.067200,-97.828903,37.617990",
    "geom:latitude": 34.342595,
    "geom:longitude": -110.09992299999999,
    "iata:airline": "UA",
    "icao:aircraft": "B772",
    "icao:airline": "UAL",
    "mz:is_current": -1,
    "sfomuseum:aircraft_id": 1159289985,
    "sfomuseum:airline_id": 1159285413,
    "sfomuseum:arrival_id": 102527513,
    "sfomuseum:departure_id": 102530435,
    "sfomuseum:flight_id": "20160304-A-UAL-2298",
    "sfomuseum:flight_number": [
      "UA2298", 
      "UAL2298"
    ],
    "sfomuseum:placetype": "flight",
    "src:geom": "sfonoise",
    "wof:belongsto": [
      1159396321, 
      1662140779, 
      102527513, 
      102191575, 
      85633793, 
      85922583, 
      102087579, 
      85688637
    ],
    "wof:country": "US",
    "wof:created": 1582923410,
    "wof:geomhash": "935b51b2101b5a3f6ccca5be45ab8b73",
    "wof:hierarchy": [
      {
        "building_id": 1159396321,
        "campus_id": 102527513,
        "concourse_id": -1,
        "continent_id": 102191575,
        "country_id": 85633793,
        "county_id": 102087579,
        "event_id": 1662140779,
        "locality_id": 85922583,
        "neighbourhood_id": -1,
        "region_id": 85688637,
        "venue_id": -1,
        "wing_id": -1
      }
    ],
    "wof:id": 1662140779,
    "wof:lastmodified": 1582923410,
    "wof:name": "UAL2298 (KGRK-SFO)",
    "wof:parent_id": -1,
    "wof:placetype": "event",
    "wof:repo": "sfomuseum-data-flights-2016",
    "wof:superseded_by": [],
    "wof:supersedes": []
  },
  "bbox": [
    -122.370943, 
    31.0672, 
    -97.828903, 
    37.61799
  ],
  "geometry": {"coordinates":[[-97.828903,31.0672],[-122.370943,37.61799]],"type":"MultiPoint"}
}
