{
  "id": 1629299339,
  "type": "Feature",
  "properties": {
    "edtf:cessation": "2016-08-03~",
    "edtf:inception": "2016-08-03T12:56:27",
    "flysfo:airline": "UA",
    "flysfo:date": "2016-08-03",
    "flysfo:event": "D",
    "flysfo:flight_number": "UA1840",
    "flysfo:journey": "SFO-KRNO",
    "geom:area": 0,
    "geom:bbox": "-122.370943,37.617990,-119.772167,39.505219",
    "geom:latitude": 38.5616045,
    "geom:longitude": -121.07155499999999,
    "iata:airline": "UA",
    "icao:aircraft": "B738",
    "icao:airline": "UAL",
    "mz:is_current": -1,
    "sfomuseum:aircraft_id": 1159289871,
    "sfomuseum:airline_id": 1159285413,
    "sfomuseum:arrival_id": 102525535,
    "sfomuseum:departure_id": 102527513,
    "sfomuseum:flight_id": "20160803-D-UAL-1840",
    "sfomuseum:flight_number": [
      "UA1840", 
      "UAL1840"
    ],
    "sfomuseum:placetype": "flight",
    "src:geom": "sfonoise",
    "wof:belongsto": [
      85633793, 
      1629299339, 
      1159157271, 
      102527513, 
      102087579, 
      85688637, 
      85922583, 
      102191575
    ],
    "wof:country": "US",
    "wof:created": 1582927985,
    "wof:geomhash": "414447526a1ddeb77713c60c4ab5a7e4",
    "wof:hierarchy": [
      {
        "building_id": 1159157271,
        "campus_id": 102527513,
        "concourse_id": -1,
        "continent_id": 102191575,
        "country_id": 85633793,
        "county_id": 102087579,
        "event_id": 1629299339,
        "locality_id": 85922583,
        "neighbourhood_id": -1,
        "region_id": 85688637,
        "venue_id": -1,
        "wing_id": -1
      }
    ],
    "wof:id": 1629299339,
    "wof:lastmodified": 1582927985,
    "wof:name": "UAL1840 (SFO-KRNO)",
    "wof:parent_id": -1,
    "wof:placetype": "event",
    "wof:repo": "sfomuseum-data-flights-2016",
    "wof:superseded_by": [],
    "wof:supersedes": []
  },
  "bbox": [
    -122.370943, 
    37.61799, 
    -119.772167, 
    39.505219
  ],
  "geometry": {"coordinates":[[-122.370943,37.61799],[-119.772167,39.505219]],"type":"MultiPoint"}
}
