{
  "id": 1662116037,
  "type": "Feature",
  "properties": {
    "edtf:cessation": "2016-02-17T16:25:38",
    "edtf:inception": "2016-02-17~",
    "flysfo:airline": "UA",
    "flysfo:date": "2016-02-17",
    "flysfo:event": "A",
    "flysfo:flight_number": "UA1615",
    "flysfo:journey": "PSP-SFO",
    "geom:area": 0,
    "geom:bbox": "-122.370943,33.824619,-116.506042,37.617990",
    "geom:latitude": 35.7213045,
    "geom:longitude": -119.4384925,
    "iata:airline": "UA",
    "icao:aircraft": "B738",
    "icao:airline": "UAL",
    "mz:is_current": -1,
    "sfomuseum:aircraft_id": 1159289871,
    "sfomuseum:airline_id": 1159285413,
    "sfomuseum:arrival_id": 102527513,
    "sfomuseum:departure_id": 102533591,
    "sfomuseum:flight_id": "20160217-A-UAL-1615",
    "sfomuseum:flight_number": [
      "UA1615", 
      "UAL1615"
    ],
    "sfomuseum:placetype": "flight",
    "src:geom": "sfonoise",
    "wof:belongsto": [
      85633793, 
      102087579, 
      102191575, 
      1662116037, 
      102527513, 
      1159396321, 
      85922583, 
      85688637
    ],
    "wof:country": "US",
    "wof:created": 1582922934,
    "wof:geomhash": "a35a6e87f0ae0f1f716f88067ee31aa3",
    "wof:hierarchy": [
      {
        "building_id": 1159396321,
        "campus_id": 102527513,
        "concourse_id": -1,
        "continent_id": 102191575,
        "country_id": 85633793,
        "county_id": 102087579,
        "event_id": 1662116037,
        "locality_id": 85922583,
        "neighbourhood_id": -1,
        "region_id": 85688637,
        "venue_id": -1,
        "wing_id": -1
      }
    ],
    "wof:id": 1662116037,
    "wof:lastmodified": 1582922934,
    "wof:name": "UAL1615 (PSP-SFO)",
    "wof:parent_id": -1,
    "wof:placetype": "event",
    "wof:repo": "sfomuseum-data-flights-2016",
    "wof:superseded_by": [],
    "wof:supersedes": []
  },
  "bbox": [
    -122.370943, 
    33.824619, 
    -116.506042, 
    37.61799
  ],
  "geometry": {"coordinates":[[-116.506042,33.824619],[-122.370943,37.61799]],"type":"MultiPoint"}
}
