{
  "id": 1629100163,
  "type": "Feature",
  "properties": {
    "edtf:cessation": "2016-03-28~",
    "edtf:inception": "2016-03-28T13:16:44",
    "flysfo:airline": "AM",
    "flysfo:date": "2016-03-28",
    "flysfo:event": "D",
    "flysfo:flight_number": "AM663",
    "flysfo:journey": "SFO-MMGL",
    "geom:area": 0,
    "geom:bbox": "-122.370943,20.525627,-103.301974,37.617990",
    "geom:latitude": 29.0718085,
    "geom:longitude": -112.83645849999999,
    "iata:airline": "AM",
    "icao:aircraft": "B738",
    "icao:airline": "AMX",
    "mz:is_current": -1,
    "sfomuseum:aircraft_id": 1159289871,
    "sfomuseum:airline_id": 1159283539,
    "sfomuseum:arrival_id": 102536387,
    "sfomuseum:departure_id": 102527513,
    "sfomuseum:flight_id": "20160328-D-AMX-663",
    "sfomuseum:flight_number": [
      "AM663", 
      "AMX663"
    ],
    "sfomuseum:placetype": "flight",
    "src:geom": "sfonoise",
    "wof:belongsto": [
      85633793, 
      1159396321, 
      102527513, 
      1629100163, 
      102191575, 
      85922583, 
      85688637, 
      102087579
    ],
    "wof:country": "US",
    "wof:created": 1582923902,
    "wof:geomhash": "c9806dbd281b9c6ccae24134b59a20cd",
    "wof:hierarchy": [
      {
        "building_id": 1159396321,
        "campus_id": 102527513,
        "concourse_id": -1,
        "continent_id": 102191575,
        "country_id": 85633793,
        "county_id": 102087579,
        "event_id": 1629100163,
        "locality_id": 85922583,
        "neighbourhood_id": -1,
        "region_id": 85688637,
        "venue_id": -1,
        "wing_id": -1
      }
    ],
    "wof:id": 1629100163,
    "wof:lastmodified": 1582923902,
    "wof:name": "AMX663 (SFO-MMGL)",
    "wof:parent_id": -1,
    "wof:placetype": "event",
    "wof:repo": "sfomuseum-data-flights-2016",
    "wof:superseded_by": [],
    "wof:supersedes": []
  },
  "bbox": [
    -122.370943, 
    20.525627, 
    -103.301974, 
    37.61799
  ],
  "geometry": {"coordinates":[[-122.370943,37.61799],[-103.301974,20.525627]],"type":"MultiPoint"}
}
