{
  "id": 1662254411,
  "type": "Feature",
  "properties": {
    "edtf:cessation": "2016-05-10T09:15:02",
    "edtf:inception": "2016-05-10~",
    "flysfo:airline": "VX",
    "flysfo:date": "2016-05-10",
    "flysfo:event": "A",
    "flysfo:flight_number": "VX219",
    "flysfo:journey": "KAUS-SFO",
    "geom:area": 0,
    "geom:bbox": "-122.370943,30.206175,-97.643029,37.617990",
    "geom:latitude": 33.9120825,
    "geom:longitude": -110.006986,
    "iata:airline": "VX",
    "icao:aircraft": "A320",
    "icao:airline": "VRD",
    "mz:is_current": -1,
    "sfomuseum:aircraft_id": 1159292085,
    "sfomuseum:airline_id": 1159285481,
    "sfomuseum:arrival_id": 102527513,
    "sfomuseum:departure_id": 102521851,
    "sfomuseum:flight_id": "20160510-A-VRD-219",
    "sfomuseum:flight_number": [
      "VX219", 
      "VRD219"
    ],
    "sfomuseum:placetype": "flight",
    "src:geom": "sfonoise",
    "wof:belongsto": [
      102527513, 
      85688637, 
      102191575, 
      85922583, 
      102087579, 
      1159396321, 
      85633793, 
      1662254411
    ],
    "wof:country": "US",
    "wof:created": 1582925413,
    "wof:geomhash": "62f9f5a2734b9c5938b0b415e9e4a515",
    "wof:hierarchy": [
      {
        "building_id": 1159396321,
        "campus_id": 102527513,
        "concourse_id": -1,
        "continent_id": 102191575,
        "country_id": 85633793,
        "county_id": 102087579,
        "event_id": 1662254411,
        "locality_id": 85922583,
        "neighbourhood_id": -1,
        "region_id": 85688637,
        "venue_id": -1,
        "wing_id": -1
      }
    ],
    "wof:id": 1662254411,
    "wof:lastmodified": 1582925413,
    "wof:name": "VRD219 (KAUS-SFO)",
    "wof:parent_id": -1,
    "wof:placetype": "event",
    "wof:repo": "sfomuseum-data-flights-2016",
    "wof:superseded_by": [],
    "wof:supersedes": []
  },
  "bbox": [
    -122.370943, 
    30.206175, 
    -97.643029, 
    37.61799
  ],
  "geometry": {"coordinates":[[-97.643029,30.206175],[-122.370943,37.61799]],"type":"MultiPoint"}
}
