{
  "id": 1662224469,
  "type": "Feature",
  "properties": {
    "edtf:cessation": "2016-04-23T08:20:55",
    "edtf:inception": "2016-04-23~",
    "flysfo:airline": "UA",
    "flysfo:date": "2016-04-23",
    "flysfo:event": "A",
    "flysfo:flight_number": "UA133",
    "flysfo:journey": "KSAT-SFO",
    "geom:area": 0,
    "geom:bbox": "-122.370943,29.534838,-98.472784,37.617990",
    "geom:latitude": 33.576414,
    "geom:longitude": -110.4218635,
    "iata:airline": "UA",
    "icao:aircraft": "B739",
    "icao:airline": "UAL",
    "mz:is_current": -1,
    "sfomuseum:aircraft_id": 1377564285,
    "sfomuseum:airline_id": 1159285413,
    "sfomuseum:arrival_id": 102527513,
    "sfomuseum:departure_id": 102527373,
    "sfomuseum:flight_id": "20160423-A-UAL-133",
    "sfomuseum:flight_number": [
      "UA133", 
      "UAL133"
    ],
    "sfomuseum:placetype": "flight",
    "src:geom": "sfonoise",
    "wof:belongsto": [
      102527513, 
      102087579, 
      85688637, 
      102191575, 
      1159396321, 
      85633793, 
      1662224469, 
      85922583
    ],
    "wof:country": "US",
    "wof:created": 1582924794,
    "wof:geomhash": "d45c6baaf0d56697f52acbb8a9e14867",
    "wof:hierarchy": [
      {
        "building_id": 1159396321,
        "campus_id": 102527513,
        "concourse_id": -1,
        "continent_id": 102191575,
        "country_id": 85633793,
        "county_id": 102087579,
        "event_id": 1662224469,
        "locality_id": 85922583,
        "neighbourhood_id": -1,
        "region_id": 85688637,
        "venue_id": -1,
        "wing_id": -1
      }
    ],
    "wof:id": 1662224469,
    "wof:lastmodified": 1582924794,
    "wof:name": "UAL133 (KSAT-SFO)",
    "wof:parent_id": -1,
    "wof:placetype": "event",
    "wof:repo": "sfomuseum-data-flights-2016",
    "wof:superseded_by": [],
    "wof:supersedes": []
  },
  "bbox": [
    -122.370943, 
    29.534838, 
    -98.472784, 
    37.61799
  ],
  "geometry": {"coordinates":[[-98.472784,29.534838],[-122.370943,37.61799]],"type":"MultiPoint"}
}
