{
  "id": 1678810211,
  "type": "Feature",
  "properties": {
    "edtf:cessation": "2016-08-21~",
    "edtf:inception": "2016-08-21T19:29:57",
    "flysfo:airline": "QF",
    "flysfo:date": "2016-08-21",
    "flysfo:event": "D",
    "flysfo:flight_number": "QF6007",
    "flysfo:journey": "SFO-SCEL",
    "geom:area": 0,
    "geom:bbox": "-122.370943,-33.390427,-70.790951,37.617990",
    "geom:latitude": 2.113781499999998,
    "geom:longitude": -96.58094700000001,
    "iata:airline": "QF",
    "icao:aircraft": "B744",
    "icao:airline": "QFA",
    "mz:is_current": -1,
    "sfomuseum:aircraft_id": 1159289915,
    "sfomuseum:airline_id": 1159285043,
    "sfomuseum:arrival_id": 102556169,
    "sfomuseum:departure_id": 102527513,
    "sfomuseum:flight_id": "20160821-D-QFA-6007",
    "sfomuseum:flight_number": [
      "QF6007", 
      "QFA6007"
    ],
    "sfomuseum:placetype": "flight",
    "src:geom": "sfonoise",
    "wof:belongsto": [
      85688637, 
      102527513, 
      85633793, 
      102087579, 
      102191575, 
      1678810211, 
      85922583, 
      1159157271
    ],
    "wof:country": "US",
    "wof:created": 1582928713,
    "wof:geomhash": "0df29420bf2908e6ea517cba6bc0fa50",
    "wof:hierarchy": [
      {
        "building_id": 1159157271,
        "campus_id": 102527513,
        "concourse_id": -1,
        "continent_id": 102191575,
        "country_id": 85633793,
        "county_id": 102087579,
        "event_id": 1678810211,
        "locality_id": 85922583,
        "neighbourhood_id": -1,
        "region_id": 85688637,
        "venue_id": -1,
        "wing_id": -1
      }
    ],
    "wof:id": 1678810211,
    "wof:lastmodified": 1582928713,
    "wof:name": "QFA6007 (SFO-SCEL)",
    "wof:parent_id": -1,
    "wof:placetype": "event",
    "wof:repo": "sfomuseum-data-flights-2016",
    "wof:superseded_by": [],
    "wof:supersedes": []
  },
  "bbox": [
    -122.370943, 
    -33.390427, 
    -70.790951, 
    37.61799
  ],
  "geometry": {"coordinates":[[-122.370943,37.61799],[-70.790951,-33.390427]],"type":"MultiPoint"}
}
