{
  "id": 1679116683,
  "type": "Feature",
  "properties": {
    "edtf:cessation": "2016-10-27~",
    "edtf:inception": "2016-10-27T21:24:03",
    "flysfo:airline": "5Y",
    "flysfo:date": "2016-10-27",
    "flysfo:event": "D",
    "flysfo:flight_number": "5Y17",
    "flysfo:journey": "SFO-KCVG",
    "geom:area": 0,
    "geom:bbox": "-122.370943,37.617990,-84.657144,39.054422",
    "geom:latitude": 38.336206000000004,
    "geom:longitude": -103.5140435,
    "iata:airline": "5Y",
    "icao:aircraft": "B762",
    "icao:airline": "GTI",
    "mz:is_current": -1,
    "sfomuseum:aircraft_id": 1159289953,
    "sfomuseum:airline_id": 1159283935,
    "sfomuseum:arrival_id": 102528187,
    "sfomuseum:departure_id": 102527513,
    "sfomuseum:flight_id": "20161027-D-GTI-17",
    "sfomuseum:flight_number": [
      "5Y17", 
      "GTI17"
    ],
    "sfomuseum:placetype": "flight",
    "src:geom": "sfonoise",
    "wof:belongsto": [
      102527513, 
      102191575, 
      85688637, 
      102087579, 
      1679116683, 
      1159157271, 
      85633793, 
      85922583
    ],
    "wof:country": "US",
    "wof:created": 1582932508,
    "wof:geomhash": "c97739d28e676f0ee62f6ec4585963c5",
    "wof:hierarchy": [
      {
        "building_id": 1159157271,
        "campus_id": 102527513,
        "concourse_id": -1,
        "continent_id": 102191575,
        "country_id": 85633793,
        "county_id": 102087579,
        "event_id": 1679116683,
        "locality_id": 85922583,
        "neighbourhood_id": -1,
        "region_id": 85688637,
        "venue_id": -1,
        "wing_id": -1
      }
    ],
    "wof:id": 1679116683,
    "wof:lastmodified": 1582932508,
    "wof:name": "GTI17 (SFO-KCVG)",
    "wof:parent_id": -1,
    "wof:placetype": "event",
    "wof:repo": "sfomuseum-data-flights-2016",
    "wof:superseded_by": [],
    "wof:supersedes": []
  },
  "bbox": [
    -122.370943, 
    37.61799, 
    -84.657144, 
    39.054422
  ],
  "geometry": {"coordinates":[[-122.370943,37.61799],[-84.657144,39.054422]],"type":"MultiPoint"}
}
