{
  "id": 1662150553,
  "type": "Feature",
  "properties": {
    "edtf:cessation": "2016-03-11~",
    "edtf:inception": "2016-03-11T09:17:48",
    "flysfo:airline": "DL",
    "flysfo:date": "2016-03-11",
    "flysfo:event": "D",
    "flysfo:flight_number": "DL414",
    "flysfo:journey": "SFO-JFK",
    "geom:area": 0,
    "geom:bbox": "-122.370943,37.617990,-73.787845,40.643286",
    "geom:latitude": 39.130638000000005,
    "geom:longitude": -98.07939400000001,
    "iata:airline": "DL",
    "icao:aircraft": "A333",
    "icao:airline": "DAL",
    "mz:is_current": -1,
    "sfomuseum:aircraft_id": 1159289423,
    "sfomuseum:airline_id": 1159284261,
    "sfomuseum:arrival_id": 102534365,
    "sfomuseum:departure_id": 102527513,
    "sfomuseum:flight_id": "20160311-D-DAL-414",
    "sfomuseum:flight_number": [
      "DL414", 
      "DAL414"
    ],
    "sfomuseum:placetype": "flight",
    "src:geom": "sfonoise",
    "wof:belongsto": [
      102191575, 
      85633793, 
      1662150553, 
      1159396321, 
      102087579, 
      85922583, 
      85688637, 
      102527513
    ],
    "wof:country": "US",
    "wof:created": 1582923584,
    "wof:geomhash": "1348792a172720778d3219cc18ccd8ee",
    "wof:hierarchy": [
      {
        "building_id": 1159396321,
        "campus_id": 102527513,
        "concourse_id": -1,
        "continent_id": 102191575,
        "country_id": 85633793,
        "county_id": 102087579,
        "event_id": 1662150553,
        "locality_id": 85922583,
        "neighbourhood_id": -1,
        "region_id": 85688637,
        "venue_id": -1,
        "wing_id": -1
      }
    ],
    "wof:id": 1662150553,
    "wof:lastmodified": 1582923584,
    "wof:name": "DAL414 (SFO-JFK)",
    "wof:parent_id": -1,
    "wof:placetype": "event",
    "wof:repo": "sfomuseum-data-flights-2016",
    "wof:superseded_by": [],
    "wof:supersedes": []
  },
  "bbox": [
    -122.370943, 
    37.61799, 
    -73.787845, 
    40.643286
  ],
  "geometry": {"coordinates":[[-122.370943,37.61799],[-73.787845,40.643286]],"type":"MultiPoint"}
}
