{
  "id": 1629080007,
  "type": "Feature",
  "properties": {
    "edtf:cessation": "2016-01-23T13:57:06",
    "edtf:inception": "2016-01-23~",
    "flysfo:airline": "UA",
    "flysfo:date": "2016-01-23",
    "flysfo:event": "A",
    "flysfo:flight_number": "UA676",
    "flysfo:journey": "RNO-SFO",
    "geom:area": 0,
    "geom:bbox": "-122.370943,37.617990,-119.772167,39.505219",
    "geom:latitude": 38.5616045,
    "geom:longitude": -121.07155499999999,
    "iata:airline": "UA",
    "icao:aircraft": "A319",
    "icao:airline": "UAL",
    "mz:is_current": -1,
    "sfomuseum:aircraft_id": 1159289407,
    "sfomuseum:airline_id": 1159285413,
    "sfomuseum:arrival_id": 102527513,
    "sfomuseum:departure_id": 102525535,
    "sfomuseum:flight_id": "20160123-A-UAL-676",
    "sfomuseum:flight_number": [
      "UA676", 
      "UAL676"
    ],
    "sfomuseum:placetype": "flight",
    "src:geom": "sfonoise",
    "wof:belongsto": [
      85922583, 
      102191575, 
      85633793, 
      102087579, 
      1159396321, 
      1629080007, 
      85688637, 
      102527513
    ],
    "wof:country": "US",
    "wof:created": 1582922350,
    "wof:geomhash": "a4d4dc469296ca0f5ad383dc766835b1",
    "wof:hierarchy": [
      {
        "building_id": 1159396321,
        "campus_id": 102527513,
        "concourse_id": -1,
        "continent_id": 102191575,
        "country_id": 85633793,
        "county_id": 102087579,
        "event_id": 1629080007,
        "locality_id": 85922583,
        "neighbourhood_id": -1,
        "region_id": 85688637,
        "venue_id": -1,
        "wing_id": -1
      }
    ],
    "wof:id": 1629080007,
    "wof:lastmodified": 1582922350,
    "wof:name": "UAL676 (RNO-SFO)",
    "wof:parent_id": -1,
    "wof:placetype": "event",
    "wof:repo": "sfomuseum-data-flights-2016",
    "wof:superseded_by": [],
    "wof:supersedes": []
  },
  "bbox": [
    -122.370943, 
    37.61799, 
    -119.772167, 
    39.505219
  ],
  "geometry": {"coordinates":[[-119.772167,39.505219],[-122.370943,37.61799]],"type":"MultiPoint"}
}
