{
  "id": 1662100795,
  "type": "Feature",
  "properties": {
    "edtf:cessation": "2016-02-08~",
    "edtf:inception": "2016-02-08T00:15:24",
    "flysfo:airline": "UA",
    "flysfo:date": "2016-02-08",
    "flysfo:event": "D",
    "flysfo:flight_number": "UA741",
    "flysfo:journey": "SFO-KCLT",
    "geom:area": 0,
    "geom:bbox": "-122.370943,35.220744,-80.942777,37.617990",
    "geom:latitude": 36.419367,
    "geom:longitude": -101.65686,
    "iata:airline": "UA",
    "icao:aircraft": "B752",
    "icao:airline": "UAL",
    "mz:is_current": -1,
    "sfomuseum:aircraft_id": 1159289939,
    "sfomuseum:airline_id": 1159285413,
    "sfomuseum:arrival_id": 102528659,
    "sfomuseum:departure_id": 102527513,
    "sfomuseum:flight_id": "20160208-D-UAL-741",
    "sfomuseum:flight_number": [
      "UA741", 
      "UAL741"
    ],
    "sfomuseum:placetype": "flight",
    "src:geom": "sfonoise",
    "wof:belongsto": [
      1662100795, 
      102191575, 
      85633793, 
      85688637, 
      102087579, 
      85922583, 
      1159396321, 
      102527513
    ],
    "wof:country": "US",
    "wof:created": 1582922669,
    "wof:geomhash": "6d7202e034534315a50103622977ef57",
    "wof:hierarchy": [
      {
        "building_id": 1159396321,
        "campus_id": 102527513,
        "concourse_id": -1,
        "continent_id": 102191575,
        "country_id": 85633793,
        "county_id": 102087579,
        "event_id": 1662100795,
        "locality_id": 85922583,
        "neighbourhood_id": -1,
        "region_id": 85688637,
        "venue_id": -1,
        "wing_id": -1
      }
    ],
    "wof:id": 1662100795,
    "wof:lastmodified": 1582922669,
    "wof:name": "UAL741 (SFO-KCLT)",
    "wof:parent_id": -1,
    "wof:placetype": "event",
    "wof:repo": "sfomuseum-data-flights-2016",
    "wof:superseded_by": [],
    "wof:supersedes": []
  },
  "bbox": [
    -122.370943, 
    35.220744, 
    -80.942777, 
    37.61799
  ],
  "geometry": {"coordinates":[[-122.370943,37.61799],[-80.942777,35.220744]],"type":"MultiPoint"}
}
