{
  "id": 1628926367,
  "type": "Feature",
  "properties": {
    "edtf:cessation": "2016-01-11~",
    "edtf:inception": "2016-01-11T21:58:36",
    "flysfo:airline": "PR",
    "flysfo:date": "2016-01-11",
    "flysfo:event": "D",
    "flysfo:flight_number": "PR105",
    "flysfo:journey": "SFO-PGUM",
    "geom:area": 0,
    "geom:bbox": "-122.370943,13.483889,144.797222,37.617990",
    "geom:latitude": 25.5509395,
    "geom:longitude": 11.213139500000004,
    "iata:airline": "PR",
    "icao:aircraft": "A343",
    "icao:airline": "PAL",
    "mz:is_current": -1,
    "sfomuseum:aircraft_id": 1159289429,
    "sfomuseum:airline_id": 1159285015,
    "sfomuseum:arrival_id": 102535777,
    "sfomuseum:departure_id": 102527513,
    "sfomuseum:flight_id": "20160111-D-PAL-105",
    "sfomuseum:flight_number": [
      "PR105", 
      "PAL105"
    ],
    "sfomuseum:placetype": "flight",
    "src:geom": "sfonoise",
    "wof:belongsto": [
      1628926367, 
      85922583, 
      1159396321, 
      85633793, 
      85688637, 
      102087579, 
      102191575, 
      102527513
    ],
    "wof:country": "US",
    "wof:created": 1582922125,
    "wof:geomhash": "dda5c67e1aac39b5fe10f27fb362ac64",
    "wof:hierarchy": [
      {
        "building_id": 1159396321,
        "campus_id": 102527513,
        "concourse_id": -1,
        "continent_id": 102191575,
        "country_id": 85633793,
        "county_id": 102087579,
        "event_id": 1628926367,
        "locality_id": 85922583,
        "neighbourhood_id": -1,
        "region_id": 85688637,
        "venue_id": -1,
        "wing_id": -1
      }
    ],
    "wof:id": 1628926367,
    "wof:lastmodified": 1582922125,
    "wof:name": "PAL105 (SFO-PGUM)",
    "wof:parent_id": -1,
    "wof:placetype": "event",
    "wof:repo": "sfomuseum-data-flights-2016",
    "wof:superseded_by": [],
    "wof:supersedes": []
  },
  "bbox": [
    -122.370943, 
    13.483889, 
    144.797222, 
    37.61799
  ],
  "geometry": {"coordinates":[[-122.370943,37.61799],[144.797222,13.483889]],"type":"MultiPoint"}
}
