{
  "id": 1662045807,
  "type": "Feature",
  "properties": {
    "edtf:cessation": "2016-01-02~",
    "edtf:inception": "2016-01-02T09:20:26",
    "flysfo:airline": "UA",
    "flysfo:date": "2016-01-02",
    "flysfo:event": "D",
    "flysfo:flight_number": "UA1212",
    "flysfo:journey": "SFO-PVR",
    "geom:area": 0,
    "geom:bbox": "-122.370943,20.660734,-105.250456,37.617990",
    "geom:latitude": 29.139362,
    "geom:longitude": -113.8106995,
    "iata:airline": "UA",
    "icao:aircraft": "B739",
    "icao:airline": "UAL",
    "mz:is_current": -1,
    "sfomuseum:aircraft_id": 1377564285,
    "sfomuseum:airline_id": 1159285413,
    "sfomuseum:arrival_id": 102536481,
    "sfomuseum:departure_id": 102527513,
    "sfomuseum:flight_id": "20160102-D-UAL-1212",
    "sfomuseum:flight_number": [
      "UA1212", 
      "UAL1212"
    ],
    "sfomuseum:placetype": "flight",
    "src:geom": "sfonoise",
    "wof:belongsto": [
      85633793, 
      85922583, 
      102527513, 
      102087579, 
      1662045807, 
      102191575, 
      85688637, 
      1159396321
    ],
    "wof:country": "US",
    "wof:created": 1582921931,
    "wof:geomhash": "ae49e61cad725fa4577f8355bb7297ad",
    "wof:hierarchy": [
      {
        "building_id": 1159396321,
        "campus_id": 102527513,
        "concourse_id": -1,
        "continent_id": 102191575,
        "country_id": 85633793,
        "county_id": 102087579,
        "event_id": 1662045807,
        "locality_id": 85922583,
        "neighbourhood_id": -1,
        "region_id": 85688637,
        "venue_id": -1,
        "wing_id": -1
      }
    ],
    "wof:id": 1662045807,
    "wof:lastmodified": 1582921931,
    "wof:name": "UAL1212 (SFO-PVR)",
    "wof:parent_id": -1,
    "wof:placetype": "event",
    "wof:repo": "sfomuseum-data-flights-2016",
    "wof:superseded_by": [],
    "wof:supersedes": []
  },
  "bbox": [
    -122.370943, 
    20.660734, 
    -105.250456, 
    37.61799
  ],
  "geometry": {"coordinates":[[-122.370943,37.61799],[-105.250456,20.660734]],"type":"MultiPoint"}
}
