{
  "id": 1629149305,
  "type": "Feature",
  "properties": {
    "edtf:cessation": "2016-06-26~",
    "edtf:inception": "2016-06-26T14:40:26",
    "flysfo:airline": "UA",
    "flysfo:date": "2016-06-26",
    "flysfo:event": "D",
    "flysfo:flight_number": "UA721T",
    "flysfo:journey": "SFO-KIAH",
    "geom:area": 0,
    "geom:bbox": "-122.370943,29.977186,-95.338444,37.617990",
    "geom:latitude": 33.797588,
    "geom:longitude": -108.8546935,
    "iata:airline": "UA",
    "icao:aircraft": "B738",
    "icao:airline": "UAL",
    "mz:is_current": -1,
    "sfomuseum:aircraft_id": 1159289871,
    "sfomuseum:airline_id": 1159285413,
    "sfomuseum:arrival_id": 102534097,
    "sfomuseum:departure_id": 102527513,
    "sfomuseum:flight_id": "20160626-D-UAL-721T",
    "sfomuseum:flight_number": [
      "UA721T", 
      "UAL721T"
    ],
    "sfomuseum:placetype": "flight",
    "src:geom": "sfonoise",
    "wof:belongsto": [
      102087579, 
      1159396321, 
      85633793, 
      1629149305, 
      102527513, 
      85922583, 
      85688637, 
      102191575
    ],
    "wof:country": "US",
    "wof:created": 1582926828,
    "wof:geomhash": "4d8eca8dfd12d13a56951180b27dbf13",
    "wof:hierarchy": [
      {
        "building_id": 1159396321,
        "campus_id": 102527513,
        "concourse_id": -1,
        "continent_id": 102191575,
        "country_id": 85633793,
        "county_id": 102087579,
        "event_id": 1629149305,
        "locality_id": 85922583,
        "neighbourhood_id": -1,
        "region_id": 85688637,
        "venue_id": -1,
        "wing_id": -1
      }
    ],
    "wof:id": 1629149305,
    "wof:lastmodified": 1582926828,
    "wof:name": "UAL721T (SFO-KIAH)",
    "wof:parent_id": -1,
    "wof:placetype": "event",
    "wof:repo": "sfomuseum-data-flights-2016",
    "wof:superseded_by": [],
    "wof:supersedes": []
  },
  "bbox": [
    -122.370943, 
    29.977186, 
    -95.338444, 
    37.61799
  ],
  "geometry": {"coordinates":[[-122.370943,37.61799],[-95.338444,29.977186]],"type":"MultiPoint"}
}
