{
  "id": 1662182335,
  "type": "Feature",
  "properties": {
    "edtf:cessation": "2016-03-29~",
    "edtf:inception": "2016-03-29T21:26:41",
    "flysfo:airline": "VS",
    "flysfo:date": "2016-03-29",
    "flysfo:event": "D",
    "flysfo:flight_number": "VS42",
    "flysfo:journey": "SFO-EGLL",
    "geom:area": 0,
    "geom:bbox": "-122.370943,37.617990,-0.450443,51.470087",
    "geom:latitude": 44.5440385,
    "geom:longitude": -61.410693,
    "iata:airline": "VS",
    "icao:aircraft": "B789",
    "icao:airline": "VIR",
    "mz:is_current": -1,
    "sfomuseum:aircraft_id": 1159293215,
    "sfomuseum:airline_id": 1159285483,
    "sfomuseum:arrival_id": 102556703,
    "sfomuseum:departure_id": 102527513,
    "sfomuseum:flight_id": "20160329-D-VIR-42",
    "sfomuseum:flight_number": [
      "VS42", 
      "VIR42"
    ],
    "sfomuseum:placetype": "flight",
    "src:geom": "sfonoise",
    "wof:belongsto": [
      102087579, 
      102191575, 
      85633793, 
      1662182335, 
      85688637, 
      1159396321, 
      102527513, 
      85922583
    ],
    "wof:country": "US",
    "wof:created": 1582923927,
    "wof:geomhash": "86f41e039827d60bcd1a72801f72cbc2",
    "wof:hierarchy": [
      {
        "building_id": 1159396321,
        "campus_id": 102527513,
        "concourse_id": -1,
        "continent_id": 102191575,
        "country_id": 85633793,
        "county_id": 102087579,
        "event_id": 1662182335,
        "locality_id": 85922583,
        "neighbourhood_id": -1,
        "region_id": 85688637,
        "venue_id": -1,
        "wing_id": -1
      }
    ],
    "wof:id": 1662182335,
    "wof:lastmodified": 1582923927,
    "wof:name": "VIR42 (SFO-EGLL)",
    "wof:parent_id": -1,
    "wof:placetype": "event",
    "wof:repo": "sfomuseum-data-flights-2016",
    "wof:superseded_by": [],
    "wof:supersedes": []
  },
  "bbox": [
    -122.370943, 
    37.61799, 
    -0.450443, 
    51.470087
  ],
  "geometry": {"coordinates":[[-122.370943,37.61799],[-0.450443,51.470087]],"type":"MultiPoint"}
}
