{
  "id": 1679226325,
  "type": "Feature",
  "properties": {
    "edtf:cessation": "2016-11-28~",
    "edtf:inception": "2016-11-28T22:35:23",
    "flysfo:airline": "UA",
    "flysfo:date": "2016-11-28",
    "flysfo:event": "D",
    "flysfo:flight_number": "UA480",
    "flysfo:journey": "SFO-KPIT",
    "geom:area": 0,
    "geom:bbox": "-122.370943,37.617990,-80.259551,40.492624",
    "geom:latitude": 39.055307,
    "geom:longitude": -101.315247,
    "iata:airline": "UA",
    "icao:aircraft": "B738",
    "icao:airline": "UAL",
    "mz:is_current": -1,
    "sfomuseum:aircraft_id": 1159289871,
    "sfomuseum:airline_id": 1159285413,
    "sfomuseum:arrival_id": 102528181,
    "sfomuseum:departure_id": 102527513,
    "sfomuseum:flight_id": "20161128-D-UAL-480",
    "sfomuseum:flight_number": [
      "UA480", 
      "UAL480"
    ],
    "sfomuseum:placetype": "flight",
    "src:geom": "sfonoise",
    "wof:belongsto": [
      85922583, 
      1159157271, 
      85688637, 
      102527513, 
      102087579, 
      85633793, 
      102191575, 
      1679226325
    ],
    "wof:country": "US",
    "wof:created": 1582933628,
    "wof:geomhash": "d7bea1763df143b6882335af1c301bcf",
    "wof:hierarchy": [
      {
        "building_id": 1159157271,
        "campus_id": 102527513,
        "concourse_id": -1,
        "continent_id": 102191575,
        "country_id": 85633793,
        "county_id": 102087579,
        "event_id": 1679226325,
        "locality_id": 85922583,
        "neighbourhood_id": -1,
        "region_id": 85688637,
        "venue_id": -1,
        "wing_id": -1
      }
    ],
    "wof:id": 1679226325,
    "wof:lastmodified": 1582933628,
    "wof:name": "UAL480 (SFO-KPIT)",
    "wof:parent_id": -1,
    "wof:placetype": "event",
    "wof:repo": "sfomuseum-data-flights-2016",
    "wof:superseded_by": [],
    "wof:supersedes": []
  },
  "bbox": [
    -122.370943, 
    37.61799, 
    -80.259551, 
    40.492624
  ],
  "geometry": {"coordinates":[[-122.370943,37.61799],[-80.259551,40.492624]],"type":"MultiPoint"}
}
