{
  "id": 1679064157,
  "type": "Feature",
  "properties": {
    "edtf:cessation": "2016-10-15~",
    "edtf:inception": "2016-10-15T13:51:34",
    "flysfo:airline": "UA",
    "flysfo:date": "2016-10-15",
    "flysfo:event": "D",
    "flysfo:flight_number": "UA2253",
    "flysfo:journey": "SFO-KTUS",
    "geom:area": 0,
    "geom:bbox": "-122.370943,32.119362,-110.946818,37.617990",
    "geom:latitude": 34.868676,
    "geom:longitude": -116.6588805,
    "iata:airline": "UA",
    "icao:aircraft": "B753",
    "icao:airline": "UAL",
    "mz:is_current": -1,
    "sfomuseum:aircraft_id": 1159289945,
    "sfomuseum:airline_id": 1159285413,
    "sfomuseum:arrival_id": 102527853,
    "sfomuseum:departure_id": 102527513,
    "sfomuseum:flight_id": "20161015-D-UAL-2253",
    "sfomuseum:flight_number": [
      "UA2253", 
      "UAL2253"
    ],
    "sfomuseum:placetype": "flight",
    "src:geom": "sfonoise",
    "wof:belongsto": [
      102191575, 
      1679064157, 
      85922583, 
      102527513, 
      85633793, 
      102087579, 
      85688637, 
      1159157271
    ],
    "wof:country": "US",
    "wof:created": 1582931898,
    "wof:geomhash": "6716e4c7ca0e3c1891c385118d042906",
    "wof:hierarchy": [
      {
        "building_id": 1159157271,
        "campus_id": 102527513,
        "concourse_id": -1,
        "continent_id": 102191575,
        "country_id": 85633793,
        "county_id": 102087579,
        "event_id": 1679064157,
        "locality_id": 85922583,
        "neighbourhood_id": -1,
        "region_id": 85688637,
        "venue_id": -1,
        "wing_id": -1
      }
    ],
    "wof:id": 1679064157,
    "wof:lastmodified": 1582931898,
    "wof:name": "UAL2253 (SFO-KTUS)",
    "wof:parent_id": -1,
    "wof:placetype": "event",
    "wof:repo": "sfomuseum-data-flights-2016",
    "wof:superseded_by": [],
    "wof:supersedes": []
  },
  "bbox": [
    -122.370943, 
    32.119362, 
    -110.946818, 
    37.61799
  ],
  "geometry": {"coordinates":[[-122.370943,37.61799],[-110.946818,32.119362]],"type":"MultiPoint"}
}
