{
  "id": 1629357343,
  "type": "Feature",
  "properties": {
    "edtf:cessation": "2016-08-17~",
    "edtf:inception": "2016-08-17T18:51:15",
    "flysfo:airline": "F9",
    "flysfo:date": "2016-08-17",
    "flysfo:event": "D",
    "flysfo:flight_number": "F91122",
    "flysfo:journey": "SFO-KLAS",
    "geom:area": 0,
    "geom:bbox": "-122.370943,36.081003,-115.156440,37.617990",
    "geom:latitude": 36.8494965,
    "geom:longitude": -118.7636915,
    "iata:airline": "F9",
    "icao:aircraft": "A319",
    "icao:airline": "FFT",
    "mz:is_current": -1,
    "sfomuseum:aircraft_id": 1159289407,
    "sfomuseum:airline_id": 1159284401,
    "sfomuseum:arrival_id": 102527209,
    "sfomuseum:departure_id": 102527513,
    "sfomuseum:flight_id": "20160817-D-FFT-1122",
    "sfomuseum:flight_number": [
      "F91122", 
      "FFT1122"
    ],
    "sfomuseum:placetype": "flight",
    "src:geom": "sfonoise",
    "wof:belongsto": [
      102527513, 
      102087579, 
      85688637, 
      85633793, 
      1629357343, 
      1159157271, 
      85922583, 
      102191575
    ],
    "wof:country": "US",
    "wof:created": 1582928479,
    "wof:geomhash": "ccf694144ef1f7a2823fe9bc7c6018ea",
    "wof:hierarchy": [
      {
        "building_id": 1159157271,
        "campus_id": 102527513,
        "concourse_id": -1,
        "continent_id": 102191575,
        "country_id": 85633793,
        "county_id": 102087579,
        "event_id": 1629357343,
        "locality_id": 85922583,
        "neighbourhood_id": -1,
        "region_id": 85688637,
        "venue_id": -1,
        "wing_id": -1
      }
    ],
    "wof:id": 1629357343,
    "wof:lastmodified": 1582928479,
    "wof:name": "FFT1122 (SFO-KLAS)",
    "wof:parent_id": -1,
    "wof:placetype": "event",
    "wof:repo": "sfomuseum-data-flights-2016",
    "wof:superseded_by": [],
    "wof:supersedes": []
  },
  "bbox": [
    -122.370943, 
    36.081003, 
    -115.15644, 
    37.61799
  ],
  "geometry": {"coordinates":[[-122.370943,37.61799],[-115.15644,36.081003]],"type":"MultiPoint"}
}
