{
  "id": 1662235239,
  "type": "Feature",
  "properties": {
    "edtf:cessation": "2016-04-29~",
    "edtf:inception": "2016-04-29T10:30:58",
    "flysfo:airline": "OO",
    "flysfo:date": "2016-04-29",
    "flysfo:event": "D",
    "flysfo:flight_number": "OO422R",
    "flysfo:journey": "SFO-KMCI",
    "geom:area": 0,
    "geom:bbox": "-122.370943,37.617990,-94.716176,39.304107",
    "geom:latitude": 38.461048500000004,
    "geom:longitude": -108.5435595,
    "iata:airline": "OO",
    "icao:aircraft": "B744",
    "icao:airline": "SKW",
    "mz:is_current": -1,
    "sfomuseum:aircraft_id": 1159289915,
    "sfomuseum:airline_id": 1159285179,
    "sfomuseum:arrival_id": 102533051,
    "sfomuseum:departure_id": 102527513,
    "sfomuseum:flight_id": "20160429-D-SKW-422R",
    "sfomuseum:flight_number": [
      "OO422R", 
      "SKW422R"
    ],
    "sfomuseum:placetype": "flight",
    "src:geom": "sfonoise",
    "wof:belongsto": [
      1662235239, 
      102191575, 
      102087579, 
      85922583, 
      1159396321, 
      102527513, 
      85688637, 
      85633793
    ],
    "wof:country": "US",
    "wof:created": 1582925030,
    "wof:geomhash": "b03a18c879ef85a5ca01fa93c99f372c",
    "wof:hierarchy": [
      {
        "building_id": 1159396321,
        "campus_id": 102527513,
        "concourse_id": -1,
        "continent_id": 102191575,
        "country_id": 85633793,
        "county_id": 102087579,
        "event_id": 1662235239,
        "locality_id": 85922583,
        "neighbourhood_id": -1,
        "region_id": 85688637,
        "venue_id": -1,
        "wing_id": -1
      }
    ],
    "wof:id": 1662235239,
    "wof:lastmodified": 1582925030,
    "wof:name": "SKW422R (SFO-KMCI)",
    "wof:parent_id": -1,
    "wof:placetype": "event",
    "wof:repo": "sfomuseum-data-flights-2016",
    "wof:superseded_by": [],
    "wof:supersedes": []
  },
  "bbox": [
    -122.370943, 
    37.61799, 
    -94.716176, 
    39.304107
  ],
  "geometry": {"coordinates":[[-122.370943,37.61799],[-94.716176,39.304107]],"type":"MultiPoint"}
}
