{
  "id": 1679065719,
  "type": "Feature",
  "properties": {
    "edtf:cessation": "2016-10-15~",
    "edtf:inception": "2016-10-15T21:24:14",
    "flysfo:airline": "UA",
    "flysfo:date": "2016-10-15",
    "flysfo:event": "D",
    "flysfo:flight_number": "UA2246",
    "flysfo:journey": "SFO-KLWS",
    "geom:area": 0,
    "geom:bbox": "-122.370943,37.617990,-117.015160,46.374330",
    "geom:latitude": 41.99616,
    "geom:longitude": -119.6930515,
    "iata:airline": "UA",
    "icao:aircraft": "B738",
    "icao:airline": "UAL",
    "mz:is_current": -1,
    "sfomuseum:aircraft_id": 1159289871,
    "sfomuseum:airline_id": 1159285413,
    "sfomuseum:arrival_id": 102528993,
    "sfomuseum:departure_id": 102527513,
    "sfomuseum:flight_id": "20161015-D-UAL-2246",
    "sfomuseum:flight_number": [
      "UA2246", 
      "UAL2246"
    ],
    "sfomuseum:placetype": "flight",
    "src:geom": "sfonoise",
    "wof:belongsto": [
      102087579, 
      102527513, 
      85688637, 
      1159157271, 
      102191575, 
      1679065719, 
      85922583, 
      85633793
    ],
    "wof:country": "US",
    "wof:created": 1582931917,
    "wof:geomhash": "605d0b623876a8e8fcd39109486bc3d8",
    "wof:hierarchy": [
      {
        "building_id": 1159157271,
        "campus_id": 102527513,
        "concourse_id": -1,
        "continent_id": 102191575,
        "country_id": 85633793,
        "county_id": 102087579,
        "event_id": 1679065719,
        "locality_id": 85922583,
        "neighbourhood_id": -1,
        "region_id": 85688637,
        "venue_id": -1,
        "wing_id": -1
      }
    ],
    "wof:id": 1679065719,
    "wof:lastmodified": 1582931917,
    "wof:name": "UAL2246 (SFO-KLWS)",
    "wof:parent_id": -1,
    "wof:placetype": "event",
    "wof:repo": "sfomuseum-data-flights-2016",
    "wof:superseded_by": [],
    "wof:supersedes": []
  },
  "bbox": [
    -122.370943, 
    37.61799, 
    -117.01516, 
    46.37433
  ],
  "geometry": {"coordinates":[[-122.370943,37.61799],[-117.01516,46.37433]],"type":"MultiPoint"}
}
