{
  "id": 1629173383,
  "type": "Feature",
  "properties": {
    "edtf:cessation": "2016-07-02T14:48:01",
    "edtf:inception": "2016-07-02~",
    "flysfo:airline": "UA",
    "flysfo:date": "2016-07-02",
    "flysfo:event": "A",
    "flysfo:flight_number": "UA398",
    "flysfo:journey": "KBOI-SFO",
    "geom:area": 0,
    "geom:bbox": "-122.370943,37.617990,-116.224634,43.564048",
    "geom:latitude": 40.591019,
    "geom:longitude": -119.2977885,
    "iata:airline": "UA",
    "icao:aircraft": "A320",
    "icao:airline": "UAL",
    "mz:is_current": -1,
    "sfomuseum:aircraft_id": 1159292085,
    "sfomuseum:airline_id": 1159285413,
    "sfomuseum:arrival_id": 102527513,
    "sfomuseum:departure_id": 102527733,
    "sfomuseum:flight_id": "20160702-A-UAL-398",
    "sfomuseum:flight_number": [
      "UA398", 
      "UAL398"
    ],
    "sfomuseum:placetype": "flight",
    "src:geom": "sfonoise",
    "wof:belongsto": [
      85688637, 
      102087579, 
      1629173383, 
      1159157271, 
      102527513, 
      85633793, 
      85922583, 
      102191575
    ],
    "wof:country": "US",
    "wof:created": 1582927009,
    "wof:geomhash": "e506e1cc6e68aaf992ce3bac53e4e4fa",
    "wof:hierarchy": [
      {
        "building_id": 1159157271,
        "campus_id": 102527513,
        "concourse_id": -1,
        "continent_id": 102191575,
        "country_id": 85633793,
        "county_id": 102087579,
        "event_id": 1629173383,
        "locality_id": 85922583,
        "neighbourhood_id": -1,
        "region_id": 85688637,
        "venue_id": -1,
        "wing_id": -1
      }
    ],
    "wof:id": 1629173383,
    "wof:lastmodified": 1582927009,
    "wof:name": "UAL398 (KBOI-SFO)",
    "wof:parent_id": -1,
    "wof:placetype": "event",
    "wof:repo": "sfomuseum-data-flights-2016",
    "wof:superseded_by": [],
    "wof:supersedes": []
  },
  "bbox": [
    -122.370943, 
    37.61799, 
    -116.224634, 
    43.564048
  ],
  "geometry": {"coordinates":[[-116.224634,43.564048],[-122.370943,37.61799]],"type":"MultiPoint"}
}
