{
  "id": 1679151781,
  "type": "Feature",
  "properties": {
    "edtf:cessation": "2016-11-06T16:15:26",
    "edtf:inception": "2016-11-06~",
    "flysfo:airline": "DL",
    "flysfo:date": "2016-11-06",
    "flysfo:event": "A",
    "flysfo:flight_number": "DL939",
    "flysfo:journey": "KATL-SFO",
    "geom:area": 0,
    "geom:bbox": "-122.370943,33.636518,-84.430686,37.617990",
    "geom:latitude": 35.627254,
    "geom:longitude": -103.4008145,
    "iata:airline": "DL",
    "icao:aircraft": "B752",
    "icao:airline": "DAL",
    "mz:is_current": -1,
    "sfomuseum:aircraft_id": 1159289939,
    "sfomuseum:airline_id": 1159284261,
    "sfomuseum:arrival_id": 102527513,
    "sfomuseum:departure_id": 102526927,
    "sfomuseum:flight_id": "20161106-A-DAL-939",
    "sfomuseum:flight_number": [
      "DL939", 
      "DAL939"
    ],
    "sfomuseum:placetype": "flight",
    "src:geom": "sfonoise",
    "wof:belongsto": [
      102087579, 
      102191575, 
      102527513, 
      1679151781, 
      85633793, 
      85922583, 
      85688637, 
      1159157271
    ],
    "wof:country": "US",
    "wof:created": 1582932910,
    "wof:geomhash": "ae92617dd2aca2afdb0c9096232ff0bb",
    "wof:hierarchy": [
      {
        "building_id": 1159157271,
        "campus_id": 102527513,
        "concourse_id": -1,
        "continent_id": 102191575,
        "country_id": 85633793,
        "county_id": 102087579,
        "event_id": 1679151781,
        "locality_id": 85922583,
        "neighbourhood_id": -1,
        "region_id": 85688637,
        "venue_id": -1,
        "wing_id": -1
      }
    ],
    "wof:id": 1679151781,
    "wof:lastmodified": 1582932910,
    "wof:name": "DAL939 (KATL-SFO)",
    "wof:parent_id": -1,
    "wof:placetype": "event",
    "wof:repo": "sfomuseum-data-flights-2016",
    "wof:superseded_by": [],
    "wof:supersedes": []
  },
  "bbox": [
    -122.370943, 
    33.636518, 
    -84.430686, 
    37.61799
  ],
  "geometry": {"coordinates":[[-84.430686,33.636518],[-122.370943,37.61799]],"type":"MultiPoint"}
}
