{
  "id": 1678797109,
  "type": "Feature",
  "properties": {
    "edtf:cessation": "2016-08-19~",
    "edtf:inception": "2016-08-19T00:32:17",
    "flysfo:airline": "AA",
    "flysfo:date": "2016-08-19",
    "flysfo:event": "D",
    "flysfo:flight_number": "AA832",
    "flysfo:journey": "SFO-KPHL",
    "geom:area": 0,
    "geom:bbox": "-122.370943,37.617990,-75.247885,39.880952",
    "geom:latitude": 38.749471,
    "geom:longitude": -98.809414,
    "iata:airline": "AA",
    "icao:aircraft": "A321",
    "icao:airline": "AAL",
    "mz:is_current": -1,
    "sfomuseum:aircraft_id": 1159289411,
    "sfomuseum:airline_id": 1159283851,
    "sfomuseum:arrival_id": 102529403,
    "sfomuseum:departure_id": 102527513,
    "sfomuseum:flight_id": "20160819-D-AAL-832",
    "sfomuseum:flight_number": [
      "AA832", 
      "AAL832"
    ],
    "sfomuseum:placetype": "flight",
    "src:geom": "sfonoise",
    "wof:belongsto": [
      85633793, 
      1678797109, 
      85922583, 
      1159157271, 
      85688637, 
      102527513, 
      102087579, 
      102191575
    ],
    "wof:country": "US",
    "wof:created": 1582928556,
    "wof:geomhash": "262283982e32a09ea653beb1776c6fc7",
    "wof:hierarchy": [
      {
        "building_id": 1159157271,
        "campus_id": 102527513,
        "concourse_id": -1,
        "continent_id": 102191575,
        "country_id": 85633793,
        "county_id": 102087579,
        "event_id": 1678797109,
        "locality_id": 85922583,
        "neighbourhood_id": -1,
        "region_id": 85688637,
        "venue_id": -1,
        "wing_id": -1
      }
    ],
    "wof:id": 1678797109,
    "wof:lastmodified": 1582928556,
    "wof:name": "AAL832 (SFO-KPHL)",
    "wof:parent_id": -1,
    "wof:placetype": "event",
    "wof:repo": "sfomuseum-data-flights-2016",
    "wof:superseded_by": [],
    "wof:supersedes": []
  },
  "bbox": [
    -122.370943, 
    37.61799, 
    -75.247885, 
    39.880952
  ],
  "geometry": {"coordinates":[[-122.370943,37.61799],[-75.247885,39.880952]],"type":"MultiPoint"}
}
