{
  "id": 1662181791,
  "type": "Feature",
  "properties": {
    "edtf:cessation": "2016-03-29T15:07:24",
    "edtf:inception": "2016-03-29~",
    "flysfo:airline": "UA",
    "flysfo:date": "2016-03-29",
    "flysfo:event": "A",
    "flysfo:flight_number": "UA2293",
    "flysfo:journey": "KNKX-SFO",
    "geom:area": 0,
    "geom:bbox": "-122.370943,32.870533,-117.141804,37.617990",
    "geom:latitude": 35.2442615,
    "geom:longitude": -119.7563735,
    "iata:airline": "UA",
    "icao:aircraft": "B772",
    "icao:airline": "UAL",
    "mz:is_current": -1,
    "sfomuseum:aircraft_id": 1159289985,
    "sfomuseum:airline_id": 1159285413,
    "sfomuseum:arrival_id": 102527513,
    "sfomuseum:departure_id": 102531019,
    "sfomuseum:flight_id": "20160329-A-UAL-2293",
    "sfomuseum:flight_number": [
      "UA2293", 
      "UAL2293"
    ],
    "sfomuseum:placetype": "flight",
    "src:geom": "sfonoise",
    "wof:belongsto": [
      1159396321, 
      102527513, 
      102191575, 
      85633793, 
      85922583, 
      85688637, 
      102087579, 
      1662181791
    ],
    "wof:country": "US",
    "wof:created": 1582923921,
    "wof:geomhash": "77ccee58d76363f7d51192a5da5385e7",
    "wof:hierarchy": [
      {
        "building_id": 1159396321,
        "campus_id": 102527513,
        "concourse_id": -1,
        "continent_id": 102191575,
        "country_id": 85633793,
        "county_id": 102087579,
        "event_id": 1662181791,
        "locality_id": 85922583,
        "neighbourhood_id": -1,
        "region_id": 85688637,
        "venue_id": -1,
        "wing_id": -1
      }
    ],
    "wof:id": 1662181791,
    "wof:lastmodified": 1582923921,
    "wof:name": "UAL2293 (KNKX-SFO)",
    "wof:parent_id": -1,
    "wof:placetype": "event",
    "wof:repo": "sfomuseum-data-flights-2016",
    "wof:superseded_by": [],
    "wof:supersedes": []
  },
  "bbox": [
    -122.370943, 
    32.870533, 
    -117.141804, 
    37.61799
  ],
  "geometry": {"coordinates":[[-117.141804,32.870533],[-122.370943,37.61799]],"type":"MultiPoint"}
}
