{
  "id": 1629339905,
  "type": "Feature",
  "properties": {
    "edtf:cessation": "2016-08-13T13:04:31",
    "edtf:inception": "2016-08-13~",
    "flysfo:airline": "UA",
    "flysfo:date": "2016-08-13",
    "flysfo:event": "A",
    "flysfo:flight_number": "UA1798",
    "flysfo:journey": "KJAC-SFO",
    "geom:area": 0,
    "geom:bbox": "-122.370943,37.617990,-110.738540,43.606600",
    "geom:latitude": 40.612295,
    "geom:longitude": -116.5547415,
    "iata:airline": "UA",
    "icao:aircraft": "A320",
    "icao:airline": "UAL",
    "mz:is_current": -1,
    "sfomuseum:aircraft_id": 1159292085,
    "sfomuseum:airline_id": 1159285413,
    "sfomuseum:arrival_id": 102527513,
    "sfomuseum:departure_id": 102534217,
    "sfomuseum:flight_id": "20160813-A-UAL-1798",
    "sfomuseum:flight_number": [
      "UA1798", 
      "UAL1798"
    ],
    "sfomuseum:placetype": "flight",
    "src:geom": "sfonoise",
    "wof:belongsto": [
      102527513, 
      102087579, 
      1629339905, 
      85922583, 
      102191575, 
      85633793, 
      85688637, 
      1159157271
    ],
    "wof:country": "US",
    "wof:created": 1582928342,
    "wof:geomhash": "8649ee81ac1d01facd07821b56f3d6b7",
    "wof:hierarchy": [
      {
        "building_id": 1159157271,
        "campus_id": 102527513,
        "concourse_id": -1,
        "continent_id": 102191575,
        "country_id": 85633793,
        "county_id": 102087579,
        "event_id": 1629339905,
        "locality_id": 85922583,
        "neighbourhood_id": -1,
        "region_id": 85688637,
        "venue_id": -1,
        "wing_id": -1
      }
    ],
    "wof:id": 1629339905,
    "wof:lastmodified": 1582928342,
    "wof:name": "UAL1798 (KJAC-SFO)",
    "wof:parent_id": -1,
    "wof:placetype": "event",
    "wof:repo": "sfomuseum-data-flights-2016",
    "wof:superseded_by": [],
    "wof:supersedes": []
  },
  "bbox": [
    -122.370943, 
    37.61799, 
    -110.73854, 
    43.6066
  ],
  "geometry": {"coordinates":[[-110.73854,43.6066],[-122.370943,37.61799]],"type":"MultiPoint"}
}
