{
  "id": 1679302363,
  "type": "Feature",
  "properties": {
    "edtf:cessation": "2016-12-21T21:47:58",
    "edtf:inception": "2016-12-21~",
    "flysfo:airline": "VX",
    "flysfo:date": "2016-12-21",
    "flysfo:event": "A",
    "flysfo:flight_number": "VX027",
    "flysfo:journey": "KOKC-SFO",
    "geom:area": 0,
    "geom:bbox": "-122.370943,35.396691,-97.593893,37.617990",
    "geom:latitude": 36.5073405,
    "geom:longitude": -109.982418,
    "iata:airline": "VX",
    "icao:aircraft": "A320",
    "icao:airline": "VRD",
    "mz:is_current": -1,
    "sfomuseum:aircraft_id": 1159292085,
    "sfomuseum:airline_id": 1159285481,
    "sfomuseum:arrival_id": 102527513,
    "sfomuseum:departure_id": 102531811,
    "sfomuseum:flight_id": "20161221-A-VRD-027",
    "sfomuseum:flight_number": [
      "VX027", 
      "VRD027"
    ],
    "sfomuseum:placetype": "flight",
    "src:geom": "sfonoise",
    "wof:belongsto": [
      85688637, 
      102191575, 
      1679302363, 
      102527513, 
      102087579, 
      85633793, 
      85922583, 
      1159157271
    ],
    "wof:country": "US",
    "wof:created": 1582934362,
    "wof:geomhash": "7685368f2ace650ddf08145f6ec5f0c3",
    "wof:hierarchy": [
      {
        "building_id": 1159157271,
        "campus_id": 102527513,
        "concourse_id": -1,
        "continent_id": 102191575,
        "country_id": 85633793,
        "county_id": 102087579,
        "event_id": 1679302363,
        "locality_id": 85922583,
        "neighbourhood_id": -1,
        "region_id": 85688637,
        "venue_id": -1,
        "wing_id": -1
      }
    ],
    "wof:id": 1679302363,
    "wof:lastmodified": 1582934362,
    "wof:name": "VRD027 (KOKC-SFO)",
    "wof:parent_id": -1,
    "wof:placetype": "event",
    "wof:repo": "sfomuseum-data-flights-2016",
    "wof:superseded_by": [],
    "wof:supersedes": []
  },
  "bbox": [
    -122.370943, 
    35.396691, 
    -97.593893, 
    37.61799
  ],
  "geometry": {"coordinates":[[-97.593893,35.396691],[-122.370943,37.61799]],"type":"MultiPoint"}
}
