{
  "id": 1662153797,
  "type": "Feature",
  "properties": {
    "edtf:cessation": "2016-03-13T10:47:49",
    "edtf:inception": "2016-03-13~",
    "flysfo:airline": "UA",
    "flysfo:date": "2016-03-13",
    "flysfo:event": "A",
    "flysfo:flight_number": "UA435",
    "flysfo:journey": "PHL-SFO",
    "geom:area": 0,
    "geom:bbox": "-122.370943,37.617990,-75.247885,39.880952",
    "geom:latitude": 38.749471,
    "geom:longitude": -98.809414,
    "iata:airline": "UA",
    "icao:aircraft": "A320",
    "icao:airline": "UAL",
    "mz:is_current": -1,
    "sfomuseum:aircraft_id": 1159292085,
    "sfomuseum:airline_id": 1159285413,
    "sfomuseum:arrival_id": 102527513,
    "sfomuseum:departure_id": 102529403,
    "sfomuseum:flight_id": "20160313-A-UAL-435",
    "sfomuseum:flight_number": [
      "UA435", 
      "UAL435"
    ],
    "sfomuseum:placetype": "flight",
    "src:geom": "sfonoise",
    "wof:belongsto": [
      1662153797, 
      85922583, 
      1159396321, 
      102527513, 
      102191575, 
      85633793, 
      102087579, 
      85688637
    ],
    "wof:country": "US",
    "wof:created": 1582923640,
    "wof:geomhash": "70ecaf1bff2da3af9ba52c9bde5534af",
    "wof:hierarchy": [
      {
        "building_id": 1159396321,
        "campus_id": 102527513,
        "concourse_id": -1,
        "continent_id": 102191575,
        "country_id": 85633793,
        "county_id": 102087579,
        "event_id": 1662153797,
        "locality_id": 85922583,
        "neighbourhood_id": -1,
        "region_id": 85688637,
        "venue_id": -1,
        "wing_id": -1
      }
    ],
    "wof:id": 1662153797,
    "wof:lastmodified": 1582923640,
    "wof:name": "UAL435 (PHL-SFO)",
    "wof:parent_id": -1,
    "wof:placetype": "event",
    "wof:repo": "sfomuseum-data-flights-2016",
    "wof:superseded_by": [],
    "wof:supersedes": []
  },
  "bbox": [
    -122.370943, 
    37.61799, 
    -75.247885, 
    39.880952
  ],
  "geometry": {"coordinates":[[-75.247885,39.880952],[-122.370943,37.61799]],"type":"MultiPoint"}
}
