{
  "id": 1662146909,
  "type": "Feature",
  "properties": {
    "edtf:cessation": "2016-03-09~",
    "edtf:inception": "2016-03-09T00:14:10",
    "flysfo:airline": "UA",
    "flysfo:date": "2016-03-09",
    "flysfo:event": "D",
    "flysfo:flight_number": "UA1899",
    "flysfo:journey": "SFO-BWI",
    "geom:area": 0,
    "geom:bbox": "-122.370943,37.617990,-76.671070,39.181319",
    "geom:latitude": 38.3996545,
    "geom:longitude": -99.5210065,
    "iata:airline": "UA",
    "icao:aircraft": "A320",
    "icao:airline": "UAL",
    "mz:is_current": -1,
    "sfomuseum:aircraft_id": 1159292085,
    "sfomuseum:airline_id": 1159285413,
    "sfomuseum:arrival_id": 102532047,
    "sfomuseum:departure_id": 102527513,
    "sfomuseum:flight_id": "20160309-D-UAL-1899",
    "sfomuseum:flight_number": [
      "UA1899", 
      "UAL1899"
    ],
    "sfomuseum:placetype": "flight",
    "src:geom": "sfonoise",
    "wof:belongsto": [
      1159396321, 
      1662146909, 
      85922583, 
      102527513, 
      102191575, 
      102087579, 
      85688637, 
      85633793
    ],
    "wof:country": "US",
    "wof:created": 1582923520,
    "wof:geomhash": "ff243e97b2d4ce40e0a4accb79115371",
    "wof:hierarchy": [
      {
        "building_id": 1159396321,
        "campus_id": 102527513,
        "concourse_id": -1,
        "continent_id": 102191575,
        "country_id": 85633793,
        "county_id": 102087579,
        "event_id": 1662146909,
        "locality_id": 85922583,
        "neighbourhood_id": -1,
        "region_id": 85688637,
        "venue_id": -1,
        "wing_id": -1
      }
    ],
    "wof:id": 1662146909,
    "wof:lastmodified": 1582923520,
    "wof:name": "UAL1899 (SFO-BWI)",
    "wof:parent_id": -1,
    "wof:placetype": "event",
    "wof:repo": "sfomuseum-data-flights-2016",
    "wof:superseded_by": [],
    "wof:supersedes": []
  },
  "bbox": [
    -122.370943, 
    37.61799, 
    -76.67107, 
    39.181319
  ],
  "geometry": {"coordinates":[[-122.370943,37.61799],[-76.67107,39.181319]],"type":"MultiPoint"}
}
