{
  "id": 1662140345,
  "type": "Feature",
  "properties": {
    "edtf:cessation": "2016-03-04~",
    "edtf:inception": "2016-03-04T16:38:02",
    "flysfo:airline": "UA",
    "flysfo:date": "2016-03-04",
    "flysfo:event": "D",
    "flysfo:flight_number": "UA1660",
    "flysfo:journey": "SFO-RDU",
    "geom:area": 0,
    "geom:bbox": "-122.370943,35.876323,-78.790399,37.617990",
    "geom:latitude": 36.7471565,
    "geom:longitude": -100.580671,
    "iata:airline": "UA",
    "icao:aircraft": "B739",
    "icao:airline": "UAL",
    "mz:is_current": -1,
    "sfomuseum:aircraft_id": 1377564285,
    "sfomuseum:airline_id": 1159285413,
    "sfomuseum:arrival_id": 102528779,
    "sfomuseum:departure_id": 102527513,
    "sfomuseum:flight_id": "20160304-D-UAL-1660",
    "sfomuseum:flight_number": [
      "UA1660", 
      "UAL1660"
    ],
    "sfomuseum:placetype": "flight",
    "src:geom": "sfonoise",
    "wof:belongsto": [
      85633793, 
      85922583, 
      85688637, 
      102191575, 
      102087579, 
      102527513, 
      1662140345, 
      1159396321
    ],
    "wof:country": "US",
    "wof:created": 1582923402,
    "wof:geomhash": "739cf7062aa24bbf1662c0bae366af8d",
    "wof:hierarchy": [
      {
        "building_id": 1159396321,
        "campus_id": 102527513,
        "concourse_id": -1,
        "continent_id": 102191575,
        "country_id": 85633793,
        "county_id": 102087579,
        "event_id": 1662140345,
        "locality_id": 85922583,
        "neighbourhood_id": -1,
        "region_id": 85688637,
        "venue_id": -1,
        "wing_id": -1
      }
    ],
    "wof:id": 1662140345,
    "wof:lastmodified": 1582923402,
    "wof:name": "UAL1660 (SFO-RDU)",
    "wof:parent_id": -1,
    "wof:placetype": "event",
    "wof:repo": "sfomuseum-data-flights-2016",
    "wof:superseded_by": [],
    "wof:supersedes": []
  },
  "bbox": [
    -122.370943, 
    35.876323, 
    -78.790399, 
    37.61799
  ],
  "geometry": {"coordinates":[[-122.370943,37.61799],[-78.790399,35.876323]],"type":"MultiPoint"}
}
