{
  "id": 1662107269,
  "type": "Feature",
  "properties": {
    "edtf:cessation": "2016-02-11T22:43:01",
    "edtf:inception": "2016-02-11~",
    "flysfo:airline": "SY",
    "flysfo:date": "2016-02-11",
    "flysfo:event": "A",
    "flysfo:flight_number": "SY8896",
    "flysfo:journey": "KSMF-SFO",
    "geom:area": 0,
    "geom:bbox": "-122.370943,37.617990,-121.589912,38.685533",
    "geom:latitude": 38.1517615,
    "geom:longitude": -121.98042749999999,
    "iata:airline": "SY",
    "icao:aircraft": "B738",
    "icao:airline": "SCX",
    "mz:is_current": -1,
    "sfomuseum:aircraft_id": 1159289871,
    "sfomuseum:airline_id": 1159285227,
    "sfomuseum:arrival_id": 102527513,
    "sfomuseum:departure_id": 102530559,
    "sfomuseum:flight_id": "20160211-A-SCX-8896",
    "sfomuseum:flight_number": [
      "SY8896", 
      "SCX8896"
    ],
    "sfomuseum:placetype": "flight",
    "src:geom": "sfonoise",
    "wof:belongsto": [
      102191575, 
      102527513, 
      85688637, 
      1159396321, 
      1662107269, 
      85633793, 
      102087579, 
      85922583
    ],
    "wof:country": "US",
    "wof:created": 1582922775,
    "wof:geomhash": "f5805f1be1c56ce2a2965880e252c65f",
    "wof:hierarchy": [
      {
        "building_id": 1159396321,
        "campus_id": 102527513,
        "concourse_id": -1,
        "continent_id": 102191575,
        "country_id": 85633793,
        "county_id": 102087579,
        "event_id": 1662107269,
        "locality_id": 85922583,
        "neighbourhood_id": -1,
        "region_id": 85688637,
        "venue_id": -1,
        "wing_id": -1
      }
    ],
    "wof:id": 1662107269,
    "wof:lastmodified": 1582922775,
    "wof:name": "SCX8896 (KSMF-SFO)",
    "wof:parent_id": -1,
    "wof:placetype": "event",
    "wof:repo": "sfomuseum-data-flights-2016",
    "wof:superseded_by": [],
    "wof:supersedes": []
  },
  "bbox": [
    -122.370943, 
    37.61799, 
    -121.589912, 
    38.685533
  ],
  "geometry": {"coordinates":[[-121.589912,38.685533],[-122.370943,37.61799]],"type":"MultiPoint"}
}
