{
  "id": 1679219391,
  "type": "Feature",
  "properties": {
    "edtf:cessation": "2016-11-27T05:11:28",
    "edtf:inception": "2016-11-27~",
    "flysfo:airline": "DL",
    "flysfo:date": "2016-11-27",
    "flysfo:event": "A",
    "flysfo:flight_number": "DL8843",
    "flysfo:journey": "KPTK-SFO",
    "geom:area": 0,
    "geom:bbox": "-122.370943,37.617990,-83.411950,42.662109",
    "geom:latitude": 40.1400495,
    "geom:longitude": -102.8914465,
    "iata:airline": "DL",
    "icao:aircraft": "B752",
    "icao:airline": "DAL",
    "mz:is_current": -1,
    "sfomuseum:aircraft_id": 1159289939,
    "sfomuseum:airline_id": 1159284261,
    "sfomuseum:arrival_id": 102527513,
    "sfomuseum:departure_id": 102529959,
    "sfomuseum:flight_id": "20161127-A-DAL-8843",
    "sfomuseum:flight_number": [
      "DL8843", 
      "DAL8843"
    ],
    "sfomuseum:placetype": "flight",
    "src:geom": "sfonoise",
    "wof:belongsto": [
      1159157271, 
      102191575, 
      85922583, 
      85688637, 
      102087579, 
      102527513, 
      85633793, 
      1679219391
    ],
    "wof:country": "US",
    "wof:created": 1582933562,
    "wof:geomhash": "b522aeed17ce415a9b238f56ee8ea46c",
    "wof:hierarchy": [
      {
        "building_id": 1159157271,
        "campus_id": 102527513,
        "concourse_id": -1,
        "continent_id": 102191575,
        "country_id": 85633793,
        "county_id": 102087579,
        "event_id": 1679219391,
        "locality_id": 85922583,
        "neighbourhood_id": -1,
        "region_id": 85688637,
        "venue_id": -1,
        "wing_id": -1
      }
    ],
    "wof:id": 1679219391,
    "wof:lastmodified": 1582933562,
    "wof:name": "DAL8843 (KPTK-SFO)",
    "wof:parent_id": -1,
    "wof:placetype": "event",
    "wof:repo": "sfomuseum-data-flights-2016",
    "wof:superseded_by": [],
    "wof:supersedes": []
  },
  "bbox": [
    -122.370943, 
    37.61799, 
    -83.41195, 
    42.662109
  ],
  "geometry": {"coordinates":[[-83.41195,42.662109],[-122.370943,37.61799]],"type":"MultiPoint"}
}
