{
  "id": 1662189359,
  "type": "Feature",
  "properties": {
    "edtf:cessation": "2016-04-03T00:36:55",
    "edtf:inception": "2016-04-03~",
    "flysfo:airline": "UA",
    "flysfo:date": "2016-04-03",
    "flysfo:event": "A",
    "flysfo:flight_number": "UA686",
    "flysfo:journey": "KDEN-SFO",
    "geom:area": 0,
    "geom:bbox": "-122.370943,37.617990,-104.672219,39.864939",
    "geom:latitude": 38.7414645,
    "geom:longitude": -113.521581,
    "iata:airline": "UA",
    "icao:aircraft": "B739",
    "icao:airline": "UAL",
    "mz:is_current": -1,
    "sfomuseum:aircraft_id": 1377564285,
    "sfomuseum:airline_id": 1159285413,
    "sfomuseum:arrival_id": 102527513,
    "sfomuseum:departure_id": 102531189,
    "sfomuseum:flight_id": "20160403-A-UAL-686",
    "sfomuseum:flight_number": [
      "UA686", 
      "UAL686"
    ],
    "sfomuseum:placetype": "flight",
    "src:geom": "sfonoise",
    "wof:belongsto": [
      1159396321, 
      1662189359, 
      102191575, 
      85633793, 
      85688637, 
      102087579, 
      85922583, 
      102527513
    ],
    "wof:country": "US",
    "wof:created": 1582923998,
    "wof:geomhash": "736fe0d2ebd38878be6950e82908a686",
    "wof:hierarchy": [
      {
        "building_id": 1159396321,
        "campus_id": 102527513,
        "concourse_id": -1,
        "continent_id": 102191575,
        "country_id": 85633793,
        "county_id": 102087579,
        "event_id": 1662189359,
        "locality_id": 85922583,
        "neighbourhood_id": -1,
        "region_id": 85688637,
        "venue_id": -1,
        "wing_id": -1
      }
    ],
    "wof:id": 1662189359,
    "wof:lastmodified": 1582923998,
    "wof:name": "UAL686 (KDEN-SFO)",
    "wof:parent_id": -1,
    "wof:placetype": "event",
    "wof:repo": "sfomuseum-data-flights-2016",
    "wof:superseded_by": [],
    "wof:supersedes": []
  },
  "bbox": [
    -122.370943, 
    37.61799, 
    -104.672219, 
    39.864939
  ],
  "geometry": {"coordinates":[[-104.672219,39.864939],[-122.370943,37.61799]],"type":"MultiPoint"}
}
