{
  "id": 1629241507,
  "type": "Feature",
  "properties": {
    "edtf:cessation": "2016-07-19T21:13:44",
    "edtf:inception": "2016-07-19~",
    "flysfo:airline": "SQ",
    "flysfo:date": "2016-07-19",
    "flysfo:event": "A",
    "flysfo:flight_number": "SQ2",
    "flysfo:journey": "VHHH-SFO",
    "geom:area": 0,
    "geom:bbox": "-122.370943,22.307471,113.927436,37.617990",
    "geom:latitude": 29.9627305,
    "geom:longitude": -4.221753499999998,
    "iata:airline": "SQ",
    "icao:aircraft": "B77W",
    "icao:airline": "SIA",
    "mz:is_current": -1,
    "sfomuseum:aircraft_id": 1159289993,
    "sfomuseum:airline_id": 1159286259,
    "sfomuseum:arrival_id": 102527513,
    "sfomuseum:departure_id": 102541737,
    "sfomuseum:flight_id": "20160719-A-SIA-2",
    "sfomuseum:flight_number": [
      "SQ2", 
      "SIA2"
    ],
    "sfomuseum:placetype": "flight",
    "src:geom": "sfonoise",
    "wof:belongsto": [
      102527513, 
      85688637, 
      1159157271, 
      102191575, 
      85633793, 
      85922583, 
      102087579, 
      1629241507
    ],
    "wof:country": "US",
    "wof:created": 1582927534,
    "wof:geomhash": "300aa0b6d6fd1fa7d09bf740f0e0c265",
    "wof:hierarchy": [
      {
        "building_id": 1159157271,
        "campus_id": 102527513,
        "concourse_id": -1,
        "continent_id": 102191575,
        "country_id": 85633793,
        "county_id": 102087579,
        "event_id": 1629241507,
        "locality_id": 85922583,
        "neighbourhood_id": -1,
        "region_id": 85688637,
        "venue_id": -1,
        "wing_id": -1
      }
    ],
    "wof:id": 1629241507,
    "wof:lastmodified": 1582927534,
    "wof:name": "SIA2 (VHHH-SFO)",
    "wof:parent_id": -1,
    "wof:placetype": "event",
    "wof:repo": "sfomuseum-data-flights-2016",
    "wof:superseded_by": [],
    "wof:supersedes": []
  },
  "bbox": [
    -122.370943, 
    22.307471, 
    113.927436, 
    37.61799
  ],
  "geometry": {"coordinates":[[113.927436,22.307471],[-122.370943,37.61799]],"type":"MultiPoint"}
}
