{
  "id": 1662257171,
  "type": "Feature",
  "properties": {
    "edtf:cessation": "2016-05-11T17:41:14",
    "edtf:inception": "2016-05-11~",
    "flysfo:airline": "FX",
    "flysfo:date": "2016-05-11",
    "flysfo:event": "A",
    "flysfo:flight_number": "FX1342",
    "flysfo:journey": "PHNL-SFO",
    "geom:area": 0,
    "geom:bbox": "-157.918416,21.332508,-122.370943,37.617990",
    "geom:latitude": 29.475248999999998,
    "geom:longitude": -140.1446795,
    "iata:airline": "FX",
    "icao:aircraft": "MD11",
    "icao:airline": "FDX",
    "mz:is_current": -1,
    "sfomuseum:aircraft_id": 1159291281,
    "sfomuseum:airline_id": 1159285989,
    "sfomuseum:arrival_id": 102527513,
    "sfomuseum:departure_id": 102533997,
    "sfomuseum:flight_id": "20160511-A-FDX-1342",
    "sfomuseum:flight_number": [
      "FX1342", 
      "FDX1342"
    ],
    "sfomuseum:placetype": "flight",
    "src:geom": "sfonoise",
    "wof:belongsto": [
      85633793, 
      85688637, 
      102527513, 
      102191575, 
      102087579, 
      1159396321, 
      85922583, 
      1662257171
    ],
    "wof:country": "US",
    "wof:created": 1582925453,
    "wof:geomhash": "1ad63fa22de9103ed4396c0ca683f63f",
    "wof:hierarchy": [
      {
        "building_id": 1159396321,
        "campus_id": 102527513,
        "concourse_id": -1,
        "continent_id": 102191575,
        "country_id": 85633793,
        "county_id": 102087579,
        "event_id": 1662257171,
        "locality_id": 85922583,
        "neighbourhood_id": -1,
        "region_id": 85688637,
        "venue_id": -1,
        "wing_id": -1
      }
    ],
    "wof:id": 1662257171,
    "wof:lastmodified": 1582925453,
    "wof:name": "FDX1342 (PHNL-SFO)",
    "wof:parent_id": -1,
    "wof:placetype": "event",
    "wof:repo": "sfomuseum-data-flights-2016",
    "wof:superseded_by": [],
    "wof:supersedes": []
  },
  "bbox": [
    -157.918416, 
    21.332508, 
    -122.370943, 
    37.61799
  ],
  "geometry": {"coordinates":[[-157.918416,21.332508],[-122.370943,37.61799]],"type":"MultiPoint"}
}
