{
  "id": 1662319513,
  "type": "Feature",
  "properties": {
    "edtf:cessation": "2016-06-14T13:46:30",
    "edtf:inception": "2016-06-14~",
    "flysfo:airline": "AA",
    "flysfo:date": "2016-06-14",
    "flysfo:event": "A",
    "flysfo:flight_number": "AA656",
    "flysfo:journey": "KPHL-SFO",
    "geom:area": 0,
    "geom:bbox": "-122.370943,37.617990,-75.247885,39.880952",
    "geom:latitude": 38.749471,
    "geom:longitude": -98.809414,
    "iata:airline": "AA",
    "icao:aircraft": "A321",
    "icao:airline": "AAL",
    "mz:is_current": -1,
    "sfomuseum:aircraft_id": 1159289411,
    "sfomuseum:airline_id": 1159283851,
    "sfomuseum:arrival_id": 102527513,
    "sfomuseum:departure_id": 102529403,
    "sfomuseum:flight_id": "20160614-A-AAL-656",
    "sfomuseum:flight_number": [
      "AA656", 
      "AAL656"
    ],
    "sfomuseum:placetype": "flight",
    "src:geom": "sfonoise",
    "wof:belongsto": [
      85633793, 
      102087579, 
      85688637, 
      102527513, 
      1662319513, 
      102191575, 
      85922583, 
      1159396321
    ],
    "wof:country": "US",
    "wof:created": 1582926439,
    "wof:geomhash": "70ecaf1bff2da3af9ba52c9bde5534af",
    "wof:hierarchy": [
      {
        "building_id": 1159396321,
        "campus_id": 102527513,
        "concourse_id": -1,
        "continent_id": 102191575,
        "country_id": 85633793,
        "county_id": 102087579,
        "event_id": 1662319513,
        "locality_id": 85922583,
        "neighbourhood_id": -1,
        "region_id": 85688637,
        "venue_id": -1,
        "wing_id": -1
      }
    ],
    "wof:id": 1662319513,
    "wof:lastmodified": 1582926439,
    "wof:name": "AAL656 (KPHL-SFO)",
    "wof:parent_id": -1,
    "wof:placetype": "event",
    "wof:repo": "sfomuseum-data-flights-2016",
    "wof:superseded_by": [],
    "wof:supersedes": []
  },
  "bbox": [
    -122.370943, 
    37.61799, 
    -75.247885, 
    39.880952
  ],
  "geometry": {"coordinates":[[-75.247885,39.880952],[-122.370943,37.61799]],"type":"MultiPoint"}
}
