{
  "id": 1662047531,
  "type": "Feature",
  "properties": {
    "edtf:cessation": "2016-01-03T10:10:21",
    "edtf:inception": "2016-01-03~",
    "flysfo:airline": "WN",
    "flysfo:date": "2016-01-03",
    "flysfo:event": "A",
    "flysfo:flight_number": "WN1891",
    "flysfo:journey": "MDW-SFO",
    "geom:area": 0,
    "geom:bbox": "-122.370943,37.617990,-87.745903,41.787532",
    "geom:latitude": 39.702760999999995,
    "geom:longitude": -105.058423,
    "iata:airline": "WN",
    "icao:aircraft": "B738",
    "icao:airline": "SWA",
    "mz:is_current": -1,
    "sfomuseum:aircraft_id": 1159289871,
    "sfomuseum:airline_id": 1159285591,
    "sfomuseum:arrival_id": 102527513,
    "sfomuseum:departure_id": 102531205,
    "sfomuseum:flight_id": "20160103-A-SWA-1891",
    "sfomuseum:flight_number": [
      "WN1891", 
      "SWA1891"
    ],
    "sfomuseum:placetype": "flight",
    "src:geom": "sfonoise",
    "wof:belongsto": [
      102191575, 
      85633793, 
      85688637, 
      102527513, 
      1662047531, 
      85922583, 
      102087579, 
      1159396321
    ],
    "wof:country": "US",
    "wof:created": 1582921950,
    "wof:geomhash": "bbd014edfd8455b7d9e062bec23e52e6",
    "wof:hierarchy": [
      {
        "building_id": 1159396321,
        "campus_id": 102527513,
        "concourse_id": -1,
        "continent_id": 102191575,
        "country_id": 85633793,
        "county_id": 102087579,
        "event_id": 1662047531,
        "locality_id": 85922583,
        "neighbourhood_id": -1,
        "region_id": 85688637,
        "venue_id": -1,
        "wing_id": -1
      }
    ],
    "wof:id": 1662047531,
    "wof:lastmodified": 1582921950,
    "wof:name": "SWA1891 (MDW-SFO)",
    "wof:parent_id": -1,
    "wof:placetype": "event",
    "wof:repo": "sfomuseum-data-flights-2016",
    "wof:superseded_by": [],
    "wof:supersedes": []
  },
  "bbox": [
    -122.370943, 
    37.61799, 
    -87.745903, 
    41.787532
  ],
  "geometry": {"coordinates":[[-87.745903,41.787532],[-122.370943,37.61799]],"type":"MultiPoint"}
}
