{
  "id": 1679035721,
  "type": "Feature",
  "properties": {
    "edtf:cessation": "2016-10-09~",
    "edtf:inception": "2016-10-09T01:32:10",
    "flysfo:airline": "AS",
    "flysfo:date": "2016-10-09",
    "flysfo:event": "D",
    "flysfo:flight_number": "AS9675",
    "flysfo:journey": "SFO-KPUW",
    "geom:area": 0,
    "geom:bbox": "-122.370943,37.617990,-117.109340,46.743780",
    "geom:latitude": 42.180885,
    "geom:longitude": -119.7401415,
    "iata:airline": "AS",
    "icao:aircraft": "B738",
    "icao:airline": "ASA",
    "mz:is_current": -1,
    "sfomuseum:aircraft_id": 1159289871,
    "sfomuseum:airline_id": 1159283813,
    "sfomuseum:arrival_id": 102532299,
    "sfomuseum:departure_id": 102527513,
    "sfomuseum:flight_id": "20161009-D-ASA-9675",
    "sfomuseum:flight_number": [
      "AS9675", 
      "ASA9675"
    ],
    "sfomuseum:placetype": "flight",
    "src:geom": "sfonoise",
    "wof:belongsto": [
      1679035721, 
      102191575, 
      85633793, 
      102087579, 
      85688637, 
      102527513, 
      85922583, 
      1159157271
    ],
    "wof:country": "US",
    "wof:created": 1582931559,
    "wof:geomhash": "a40cfbcd4657e03abf04ffb0cab92de2",
    "wof:hierarchy": [
      {
        "building_id": 1159157271,
        "campus_id": 102527513,
        "concourse_id": -1,
        "continent_id": 102191575,
        "country_id": 85633793,
        "county_id": 102087579,
        "event_id": 1679035721,
        "locality_id": 85922583,
        "neighbourhood_id": -1,
        "region_id": 85688637,
        "venue_id": -1,
        "wing_id": -1
      }
    ],
    "wof:id": 1679035721,
    "wof:lastmodified": 1582931559,
    "wof:name": "ASA9675 (SFO-KPUW)",
    "wof:parent_id": -1,
    "wof:placetype": "event",
    "wof:repo": "sfomuseum-data-flights-2016",
    "wof:superseded_by": [],
    "wof:supersedes": []
  },
  "bbox": [
    -122.370943, 
    37.61799, 
    -117.10934, 
    46.74378
  ],
  "geometry": {"coordinates":[[-122.370943,37.61799],[-117.10934,46.74378]],"type":"MultiPoint"}
}
