{
  "id": 1662136021,
  "type": "Feature",
  "properties": {
    "edtf:cessation": "2016-03-02T07:18:51",
    "edtf:inception": "2016-03-02~",
    "flysfo:airline": "WN",
    "flysfo:date": "2016-03-02",
    "flysfo:event": "A",
    "flysfo:flight_number": "WN8500",
    "flysfo:journey": "KSMF-SFO",
    "geom:area": 0,
    "geom:bbox": "-122.370943,37.617990,-121.589912,38.685533",
    "geom:latitude": 38.1517615,
    "geom:longitude": -121.98042749999999,
    "iata:airline": "WN",
    "icao:aircraft": "B737",
    "icao:airline": "SWA",
    "mz:is_current": -1,
    "sfomuseum:aircraft_id": 1159289869,
    "sfomuseum:airline_id": 1159285591,
    "sfomuseum:arrival_id": 102527513,
    "sfomuseum:departure_id": 102530559,
    "sfomuseum:flight_id": "20160302-A-SWA-8500",
    "sfomuseum:flight_number": [
      "WN8500", 
      "SWA8500"
    ],
    "sfomuseum:placetype": "flight",
    "src:geom": "sfonoise",
    "wof:belongsto": [
      102087579, 
      85633793, 
      1662136021, 
      85688637, 
      1159396321, 
      102191575, 
      85922583, 
      102527513
    ],
    "wof:country": "US",
    "wof:created": 1582923325,
    "wof:geomhash": "f5805f1be1c56ce2a2965880e252c65f",
    "wof:hierarchy": [
      {
        "building_id": 1159396321,
        "campus_id": 102527513,
        "concourse_id": -1,
        "continent_id": 102191575,
        "country_id": 85633793,
        "county_id": 102087579,
        "event_id": 1662136021,
        "locality_id": 85922583,
        "neighbourhood_id": -1,
        "region_id": 85688637,
        "venue_id": -1,
        "wing_id": -1
      }
    ],
    "wof:id": 1662136021,
    "wof:lastmodified": 1582923325,
    "wof:name": "SWA8500 (KSMF-SFO)",
    "wof:parent_id": -1,
    "wof:placetype": "event",
    "wof:repo": "sfomuseum-data-flights-2016",
    "wof:superseded_by": [],
    "wof:supersedes": []
  },
  "bbox": [
    -122.370943, 
    37.61799, 
    -121.589912, 
    38.685533
  ],
  "geometry": {"coordinates":[[-121.589912,38.685533],[-122.370943,37.61799]],"type":"MultiPoint"}
}
