{
  "id": 1629143737,
  "type": "Feature",
  "properties": {
    "edtf:cessation": "2016-06-24~",
    "edtf:inception": "2016-06-24T23:02:03",
    "flysfo:airline": "UA",
    "flysfo:date": "2016-06-24",
    "flysfo:event": "D",
    "flysfo:flight_number": "UA1477",
    "flysfo:journey": "SFO-KCLE",
    "geom:area": 0,
    "geom:bbox": "-122.370943,37.617990,-81.835629,41.406844",
    "geom:latitude": 39.512417,
    "geom:longitude": -102.103286,
    "iata:airline": "UA",
    "icao:aircraft": "A320",
    "icao:airline": "UAL",
    "mz:is_current": -1,
    "sfomuseum:aircraft_id": 1159292085,
    "sfomuseum:airline_id": 1159285413,
    "sfomuseum:arrival_id": 102534019,
    "sfomuseum:departure_id": 102527513,
    "sfomuseum:flight_id": "20160624-D-UAL-1477",
    "sfomuseum:flight_number": [
      "UA1477", 
      "UAL1477"
    ],
    "sfomuseum:placetype": "flight",
    "src:geom": "sfonoise",
    "wof:belongsto": [
      102087579, 
      85688637, 
      1159396321, 
      102191575, 
      1629143737, 
      85922583, 
      102527513, 
      85633793
    ],
    "wof:country": "US",
    "wof:created": 1582926783,
    "wof:geomhash": "f65caf98d316e6ee4a43fdc3ee688d07",
    "wof:hierarchy": [
      {
        "building_id": 1159396321,
        "campus_id": 102527513,
        "concourse_id": -1,
        "continent_id": 102191575,
        "country_id": 85633793,
        "county_id": 102087579,
        "event_id": 1629143737,
        "locality_id": 85922583,
        "neighbourhood_id": -1,
        "region_id": 85688637,
        "venue_id": -1,
        "wing_id": -1
      }
    ],
    "wof:id": 1629143737,
    "wof:lastmodified": 1582926783,
    "wof:name": "UAL1477 (SFO-KCLE)",
    "wof:parent_id": -1,
    "wof:placetype": "event",
    "wof:repo": "sfomuseum-data-flights-2016",
    "wof:superseded_by": [],
    "wof:supersedes": []
  },
  "bbox": [
    -122.370943, 
    37.61799, 
    -81.835629, 
    41.406844
  ],
  "geometry": {"coordinates":[[-122.370943,37.61799],[-81.835629,41.406844]],"type":"MultiPoint"}
}
