{
  "id": 1662315931,
  "type": "Feature",
  "properties": {
    "edtf:cessation": "2016-06-12~",
    "edtf:inception": "2016-06-12T17:38:46",
    "flysfo:airline": "UA",
    "flysfo:date": "2016-06-12",
    "flysfo:event": "D",
    "flysfo:flight_number": "UA1647",
    "flysfo:journey": "SFO-KORD",
    "geom:area": 0,
    "geom:bbox": "-122.370943,37.617990,-87.894364,41.983038",
    "geom:latitude": 39.800514,
    "geom:longitude": -105.1326535,
    "iata:airline": "UA",
    "icao:aircraft": "A320",
    "icao:airline": "UAL",
    "mz:is_current": -1,
    "sfomuseum:aircraft_id": 1159292085,
    "sfomuseum:airline_id": 1159285413,
    "sfomuseum:arrival_id": 102533631,
    "sfomuseum:departure_id": 102527513,
    "sfomuseum:flight_id": "20160612-D-UAL-1647",
    "sfomuseum:flight_number": [
      "UA1647", 
      "UAL1647"
    ],
    "sfomuseum:placetype": "flight",
    "src:geom": "sfonoise",
    "wof:belongsto": [
      102527513, 
      102191575, 
      1662315931, 
      85922583, 
      85688637, 
      1159396321, 
      85633793, 
      102087579
    ],
    "wof:country": "US",
    "wof:created": 1582926394,
    "wof:geomhash": "7a75cc81bf790964b92a4927d3978f50",
    "wof:hierarchy": [
      {
        "building_id": 1159396321,
        "campus_id": 102527513,
        "concourse_id": -1,
        "continent_id": 102191575,
        "country_id": 85633793,
        "county_id": 102087579,
        "event_id": 1662315931,
        "locality_id": 85922583,
        "neighbourhood_id": -1,
        "region_id": 85688637,
        "venue_id": -1,
        "wing_id": -1
      }
    ],
    "wof:id": 1662315931,
    "wof:lastmodified": 1582926394,
    "wof:name": "UAL1647 (SFO-KORD)",
    "wof:parent_id": -1,
    "wof:placetype": "event",
    "wof:repo": "sfomuseum-data-flights-2016",
    "wof:superseded_by": [],
    "wof:supersedes": []
  },
  "bbox": [
    -122.370943, 
    37.61799, 
    -87.894364, 
    41.983038
  ],
  "geometry": {"coordinates":[[-122.370943,37.61799],[-87.894364,41.983038]],"type":"MultiPoint"}
}
