{
  "id": 1678963165,
  "type": "Feature",
  "properties": {
    "edtf:cessation": "2016-09-21T06:55:02",
    "edtf:inception": "2016-09-21~",
    "flysfo:airline": "UA",
    "flysfo:date": "2016-09-21",
    "flysfo:event": "A",
    "flysfo:flight_number": "UA8",
    "flysfo:journey": "ZUUU-SFO",
    "geom:area": 0,
    "geom:bbox": "-122.370943,30.579342,103.956661,37.617990",
    "geom:latitude": 34.098666,
    "geom:longitude": -9.207141,
    "iata:airline": "UA",
    "icao:aircraft": "B788",
    "icao:airline": "UAL",
    "mz:is_current": -1,
    "sfomuseum:aircraft_id": 1159289995,
    "sfomuseum:airline_id": 1159285413,
    "sfomuseum:arrival_id": 102527513,
    "sfomuseum:departure_id": 102551065,
    "sfomuseum:flight_id": "20160921-A-UAL-8",
    "sfomuseum:flight_number": [
      "UA8", 
      "UAL8"
    ],
    "sfomuseum:placetype": "flight",
    "src:geom": "sfonoise",
    "wof:belongsto": [
      1159157271, 
      102191575, 
      102087579, 
      85922583, 
      1678963165, 
      102527513, 
      85633793, 
      85688637
    ],
    "wof:country": "US",
    "wof:created": 1582930750,
    "wof:geomhash": "79fa80c38cee3f9a1cadedd473680b07",
    "wof:hierarchy": [
      {
        "building_id": 1159157271,
        "campus_id": 102527513,
        "concourse_id": -1,
        "continent_id": 102191575,
        "country_id": 85633793,
        "county_id": 102087579,
        "event_id": 1678963165,
        "locality_id": 85922583,
        "neighbourhood_id": -1,
        "region_id": 85688637,
        "venue_id": -1,
        "wing_id": -1
      }
    ],
    "wof:id": 1678963165,
    "wof:lastmodified": 1582930750,
    "wof:name": "UAL8 (ZUUU-SFO)",
    "wof:parent_id": -1,
    "wof:placetype": "event",
    "wof:repo": "sfomuseum-data-flights-2016",
    "wof:superseded_by": [],
    "wof:supersedes": []
  },
  "bbox": [
    -122.370943, 
    30.579342, 
    103.956661, 
    37.61799
  ],
  "geometry": {"coordinates":[[103.956661,30.579342],[-122.370943,37.61799]],"type":"MultiPoint"}
}
