{
  "id": 1662176207,
  "type": "Feature",
  "properties": {
    "edtf:cessation": "2016-03-26T09:59:29",
    "edtf:inception": "2016-03-26~",
    "flysfo:airline": "WN",
    "flysfo:date": "2016-03-26",
    "flysfo:event": "A",
    "flysfo:flight_number": "WN470",
    "flysfo:journey": "KDAL-SFO",
    "geom:area": 0,
    "geom:bbox": "-122.370943,32.845849,-96.850523,37.617990",
    "geom:latitude": 35.231919500000004,
    "geom:longitude": -109.610733,
    "iata:airline": "WN",
    "icao:aircraft": "B737",
    "icao:airline": "SWA",
    "mz:is_current": -1,
    "sfomuseum:aircraft_id": 1159289869,
    "sfomuseum:airline_id": 1159285591,
    "sfomuseum:arrival_id": 102527513,
    "sfomuseum:departure_id": 102525799,
    "sfomuseum:flight_id": "20160326-A-SWA-470",
    "sfomuseum:flight_number": [
      "WN470", 
      "SWA470"
    ],
    "sfomuseum:placetype": "flight",
    "src:geom": "sfonoise",
    "wof:belongsto": [
      102087579, 
      1159396321, 
      85922583, 
      85633793, 
      1662176207, 
      85688637, 
      102191575, 
      102527513
    ],
    "wof:country": "US",
    "wof:created": 1582923868,
    "wof:geomhash": "ecfc64ce72b903780fc129f985c12eef",
    "wof:hierarchy": [
      {
        "building_id": 1159396321,
        "campus_id": 102527513,
        "concourse_id": -1,
        "continent_id": 102191575,
        "country_id": 85633793,
        "county_id": 102087579,
        "event_id": 1662176207,
        "locality_id": 85922583,
        "neighbourhood_id": -1,
        "region_id": 85688637,
        "venue_id": -1,
        "wing_id": -1
      }
    ],
    "wof:id": 1662176207,
    "wof:lastmodified": 1582923868,
    "wof:name": "SWA470 (KDAL-SFO)",
    "wof:parent_id": -1,
    "wof:placetype": "event",
    "wof:repo": "sfomuseum-data-flights-2016",
    "wof:superseded_by": [],
    "wof:supersedes": []
  },
  "bbox": [
    -122.370943, 
    32.845849, 
    -96.850523, 
    37.61799
  ],
  "geometry": {"coordinates":[[-96.850523,32.845849],[-122.370943,37.61799]],"type":"MultiPoint"}
}
