{
  "id": 1678922309,
  "type": "Feature",
  "properties": {
    "edtf:cessation": "2016-09-12~",
    "edtf:inception": "2016-09-12T21:04:20",
    "flysfo:airline": "AS",
    "flysfo:date": "2016-09-12",
    "flysfo:event": "D",
    "flysfo:flight_number": "AS223",
    "flysfo:journey": "SFO-KSEA",
    "geom:area": 0,
    "geom:bbox": "-122.370943,37.617990,-122.304268,47.441823",
    "geom:latitude": 42.529906499999996,
    "geom:longitude": -122.3376055,
    "iata:airline": "AS",
    "icao:aircraft": "B738",
    "icao:airline": "ASA",
    "mz:is_current": -1,
    "sfomuseum:aircraft_id": 1159289871,
    "sfomuseum:airline_id": 1159283813,
    "sfomuseum:arrival_id": 102533269,
    "sfomuseum:departure_id": 102527513,
    "sfomuseum:flight_id": "20160912-D-ASA-223",
    "sfomuseum:flight_number": [
      "AS223", 
      "ASA223"
    ],
    "sfomuseum:placetype": "flight",
    "src:geom": "sfonoise",
    "wof:belongsto": [
      1678922309, 
      102527513, 
      102191575, 
      85633793, 
      85922583, 
      1159157271, 
      102087579, 
      85688637
    ],
    "wof:country": "US",
    "wof:created": 1582930221,
    "wof:geomhash": "4036ee3c983703867dbe0486453848b1",
    "wof:hierarchy": [
      {
        "building_id": 1159157271,
        "campus_id": 102527513,
        "concourse_id": -1,
        "continent_id": 102191575,
        "country_id": 85633793,
        "county_id": 102087579,
        "event_id": 1678922309,
        "locality_id": 85922583,
        "neighbourhood_id": -1,
        "region_id": 85688637,
        "venue_id": -1,
        "wing_id": -1
      }
    ],
    "wof:id": 1678922309,
    "wof:lastmodified": 1582930221,
    "wof:name": "ASA223 (SFO-KSEA)",
    "wof:parent_id": -1,
    "wof:placetype": "event",
    "wof:repo": "sfomuseum-data-flights-2016",
    "wof:superseded_by": [],
    "wof:supersedes": []
  },
  "bbox": [
    -122.370943, 
    37.61799, 
    -122.304268, 
    47.441823
  ],
  "geometry": {"coordinates":[[-122.370943,37.61799],[-122.304268,47.441823]],"type":"MultiPoint"}
}
