{
  "id": 1679192983,
  "type": "Feature",
  "properties": {
    "edtf:cessation": "2016-11-18T16:42:10",
    "edtf:inception": "2016-11-18~",
    "flysfo:airline": "UA",
    "flysfo:date": "2016-11-18",
    "flysfo:event": "A",
    "flysfo:flight_number": "UA2121",
    "flysfo:journey": "KBOI-SFO",
    "geom:area": 0,
    "geom:bbox": "-122.370943,37.617990,-116.224634,43.564048",
    "geom:latitude": 40.591019,
    "geom:longitude": -119.2977885,
    "iata:airline": "UA",
    "icao:aircraft": "A320",
    "icao:airline": "UAL",
    "mz:is_current": -1,
    "sfomuseum:aircraft_id": 1159292085,
    "sfomuseum:airline_id": 1159285413,
    "sfomuseum:arrival_id": 102527513,
    "sfomuseum:departure_id": 102527733,
    "sfomuseum:flight_id": "20161118-A-UAL-2121",
    "sfomuseum:flight_number": [
      "UA2121", 
      "UAL2121"
    ],
    "sfomuseum:placetype": "flight",
    "src:geom": "sfonoise",
    "wof:belongsto": [
      85633793, 
      102087579, 
      1679192983, 
      85688637, 
      102527513, 
      102191575, 
      1159157271, 
      85922583
    ],
    "wof:country": "US",
    "wof:created": 1582933310,
    "wof:geomhash": "e506e1cc6e68aaf992ce3bac53e4e4fa",
    "wof:hierarchy": [
      {
        "building_id": 1159157271,
        "campus_id": 102527513,
        "concourse_id": -1,
        "continent_id": 102191575,
        "country_id": 85633793,
        "county_id": 102087579,
        "event_id": 1679192983,
        "locality_id": 85922583,
        "neighbourhood_id": -1,
        "region_id": 85688637,
        "venue_id": -1,
        "wing_id": -1
      }
    ],
    "wof:id": 1679192983,
    "wof:lastmodified": 1582933310,
    "wof:name": "UAL2121 (KBOI-SFO)",
    "wof:parent_id": -1,
    "wof:placetype": "event",
    "wof:repo": "sfomuseum-data-flights-2016",
    "wof:superseded_by": [],
    "wof:supersedes": []
  },
  "bbox": [
    -122.370943, 
    37.61799, 
    -116.224634, 
    43.564048
  ],
  "geometry": {"coordinates":[[-116.224634,43.564048],[-122.370943,37.61799]],"type":"MultiPoint"}
}
