{
  "id": 1678982275,
  "type": "Feature",
  "properties": {
    "edtf:cessation": "2016-09-25~",
    "edtf:inception": "2016-09-25T21:44:24",
    "flysfo:airline": "AF",
    "flysfo:date": "2016-09-25",
    "flysfo:event": "D",
    "flysfo:flight_number": "AF085",
    "flysfo:journey": "SFO-LFPG",
    "geom:area": 0,
    "geom:bbox": "-122.370943,37.617990,2.542809,49.007854",
    "geom:latitude": 43.312922,
    "geom:longitude": -59.914066999999996,
    "iata:airline": "AF",
    "icao:aircraft": "B772",
    "icao:airline": "AFR",
    "mz:is_current": -1,
    "sfomuseum:aircraft_id": 1159289985,
    "sfomuseum:airline_id": 1159283627,
    "sfomuseum:arrival_id": 102544459,
    "sfomuseum:departure_id": 102527513,
    "sfomuseum:flight_id": "20160925-D-AFR-085",
    "sfomuseum:flight_number": [
      "AF085", 
      "AFR085"
    ],
    "sfomuseum:placetype": "flight",
    "src:geom": "sfonoise",
    "wof:belongsto": [
      85922583, 
      85688637, 
      102527513, 
      1678982275, 
      102087579, 
      1159157271, 
      102191575, 
      85633793
    ],
    "wof:country": "US",
    "wof:created": 1582930963,
    "wof:geomhash": "ad7dd7ece479a882a3440fb19be6ff4c",
    "wof:hierarchy": [
      {
        "building_id": 1159157271,
        "campus_id": 102527513,
        "concourse_id": -1,
        "continent_id": 102191575,
        "country_id": 85633793,
        "county_id": 102087579,
        "event_id": 1678982275,
        "locality_id": 85922583,
        "neighbourhood_id": -1,
        "region_id": 85688637,
        "venue_id": -1,
        "wing_id": -1
      }
    ],
    "wof:id": 1678982275,
    "wof:lastmodified": 1582930963,
    "wof:name": "AFR085 (SFO-LFPG)",
    "wof:parent_id": -1,
    "wof:placetype": "event",
    "wof:repo": "sfomuseum-data-flights-2016",
    "wof:superseded_by": [],
    "wof:supersedes": []
  },
  "bbox": [
    -122.370943, 
    37.61799, 
    2.542809, 
    49.007854
  ],
  "geometry": {"coordinates":[[-122.370943,37.61799],[2.542809,49.007854]],"type":"MultiPoint"}
}
