{
  "id": 1662211843,
  "type": "Feature",
  "properties": {
    "edtf:cessation": "2016-04-15T23:35:03",
    "edtf:inception": "2016-04-15~",
    "flysfo:airline": "UA",
    "flysfo:date": "2016-04-15",
    "flysfo:event": "A",
    "flysfo:flight_number": "UA2191",
    "flysfo:journey": "KINT-SFO",
    "geom:area": 0,
    "geom:bbox": "-122.370943,36.136350,-80.228170,37.617990",
    "geom:latitude": 36.87717,
    "geom:longitude": -101.2995565,
    "iata:airline": "UA",
    "icao:aircraft": "B737",
    "icao:airline": "UAL",
    "mz:is_current": -1,
    "sfomuseum:aircraft_id": 1159289869,
    "sfomuseum:airline_id": 1159285413,
    "sfomuseum:arrival_id": 102527513,
    "sfomuseum:departure_id": 102526635,
    "sfomuseum:flight_id": "20160415-A-UAL-2191",
    "sfomuseum:flight_number": [
      "UA2191", 
      "UAL2191"
    ],
    "sfomuseum:placetype": "flight",
    "src:geom": "sfonoise",
    "wof:belongsto": [
      85688637, 
      102087579, 
      102527513, 
      85922583, 
      1159396321, 
      1662211843, 
      102191575, 
      85633793
    ],
    "wof:country": "US",
    "wof:created": 1582924495,
    "wof:geomhash": "d8a620bfced4fc00d304fd0c89110f2d",
    "wof:hierarchy": [
      {
        "building_id": 1159396321,
        "campus_id": 102527513,
        "concourse_id": -1,
        "continent_id": 102191575,
        "country_id": 85633793,
        "county_id": 102087579,
        "event_id": 1662211843,
        "locality_id": 85922583,
        "neighbourhood_id": -1,
        "region_id": 85688637,
        "venue_id": -1,
        "wing_id": -1
      }
    ],
    "wof:id": 1662211843,
    "wof:lastmodified": 1582924495,
    "wof:name": "UAL2191 (KINT-SFO)",
    "wof:parent_id": -1,
    "wof:placetype": "event",
    "wof:repo": "sfomuseum-data-flights-2016",
    "wof:superseded_by": [],
    "wof:supersedes": []
  },
  "bbox": [
    -122.370943, 
    36.13635, 
    -80.22817, 
    37.61799
  ],
  "geometry": {"coordinates":[[-80.22817,36.13635],[-122.370943,37.61799]],"type":"MultiPoint"}
}
