{
  "id": 1629116385,
  "type": "Feature",
  "properties": {
    "edtf:cessation": "2016-05-13T17:21:55",
    "edtf:inception": "2016-05-13~",
    "flysfo:airline": "UA",
    "flysfo:date": "2016-05-13",
    "flysfo:event": "A",
    "flysfo:flight_number": "UA1732",
    "flysfo:journey": "YVR-SFO",
    "geom:area": 0,
    "geom:bbox": "-123.179200,37.617990,-122.370943,49.193330",
    "geom:latitude": 43.40566,
    "geom:longitude": -122.7750715,
    "iata:airline": "UA",
    "icao:aircraft": "A319",
    "icao:airline": "UAL",
    "mz:is_current": -1,
    "sfomuseum:aircraft_id": 1159289407,
    "sfomuseum:airline_id": 1159285413,
    "sfomuseum:arrival_id": 102527513,
    "sfomuseum:departure_id": 102555307,
    "sfomuseum:flight_id": "20160513-A-UAL-1732",
    "sfomuseum:flight_number": [
      "UA1732", 
      "UAL1732"
    ],
    "sfomuseum:placetype": "flight",
    "src:geom": "sfonoise",
    "wof:belongsto": [
      1629116385, 
      102527513, 
      102191575, 
      85633793, 
      102087579, 
      1159396321, 
      85922583, 
      85688637
    ],
    "wof:country": "US",
    "wof:created": 1582925515,
    "wof:geomhash": "e68490b7b9257816408c117e0e15f8ec",
    "wof:hierarchy": [
      {
        "building_id": 1159396321,
        "campus_id": 102527513,
        "concourse_id": -1,
        "continent_id": 102191575,
        "country_id": 85633793,
        "county_id": 102087579,
        "event_id": 1629116385,
        "locality_id": 85922583,
        "neighbourhood_id": -1,
        "region_id": 85688637,
        "venue_id": -1,
        "wing_id": -1
      }
    ],
    "wof:id": 1629116385,
    "wof:lastmodified": 1582925515,
    "wof:name": "UAL1732 (YVR-SFO)",
    "wof:parent_id": -1,
    "wof:placetype": "event",
    "wof:repo": "sfomuseum-data-flights-2016",
    "wof:superseded_by": [],
    "wof:supersedes": []
  },
  "bbox": [
    -123.1792, 
    37.61799, 
    -122.370943, 
    49.19333
  ],
  "geometry": {"coordinates":[[-123.1792,49.19333],[-122.370943,37.61799]],"type":"MultiPoint"}
}
