{
  "id": 1629155175,
  "type": "Feature",
  "properties": {
    "edtf:cessation": "2016-06-27~",
    "edtf:inception": "2016-06-27T23:29:36",
    "flysfo:airline": "DL",
    "flysfo:date": "2016-06-27",
    "flysfo:event": "D",
    "flysfo:flight_number": "DL936",
    "flysfo:journey": "SFO-KDTW",
    "geom:area": 0,
    "geom:bbox": "-122.370943,37.617990,-83.351709,42.218860",
    "geom:latitude": 39.918425,
    "geom:longitude": -102.86132599999999,
    "iata:airline": "DL",
    "icao:aircraft": "B763",
    "icao:airline": "DAL",
    "mz:is_current": -1,
    "sfomuseum:aircraft_id": 1159289965,
    "sfomuseum:airline_id": 1159284261,
    "sfomuseum:arrival_id": 102525635,
    "sfomuseum:departure_id": 102527513,
    "sfomuseum:flight_id": "20160627-D-DAL-936",
    "sfomuseum:flight_number": [
      "DL936", 
      "DAL936"
    ],
    "sfomuseum:placetype": "flight",
    "src:geom": "sfonoise",
    "wof:belongsto": [
      85688637, 
      1159396321, 
      102527513, 
      102191575, 
      85633793, 
      102087579, 
      1629155175, 
      85922583
    ],
    "wof:country": "US",
    "wof:created": 1582926872,
    "wof:geomhash": "9151bfe07cf224e1ff61a7f7b8c30671",
    "wof:hierarchy": [
      {
        "building_id": 1159396321,
        "campus_id": 102527513,
        "concourse_id": -1,
        "continent_id": 102191575,
        "country_id": 85633793,
        "county_id": 102087579,
        "event_id": 1629155175,
        "locality_id": 85922583,
        "neighbourhood_id": -1,
        "region_id": 85688637,
        "venue_id": -1,
        "wing_id": -1
      }
    ],
    "wof:id": 1629155175,
    "wof:lastmodified": 1582926872,
    "wof:name": "DAL936 (SFO-KDTW)",
    "wof:parent_id": -1,
    "wof:placetype": "event",
    "wof:repo": "sfomuseum-data-flights-2016",
    "wof:superseded_by": [],
    "wof:supersedes": []
  },
  "bbox": [
    -122.370943, 
    37.61799, 
    -83.351709, 
    42.21886
  ],
  "geometry": {"coordinates":[[-122.370943,37.61799],[-83.351709,42.21886]],"type":"MultiPoint"}
}
