{
  "id": 1679242251,
  "type": "Feature",
  "properties": {
    "edtf:cessation": "2016-12-03T15:36:30",
    "edtf:inception": "2016-12-03~",
    "flysfo:airline": "UA",
    "flysfo:date": "2016-12-03",
    "flysfo:event": "A",
    "flysfo:flight_number": "UA2234",
    "flysfo:journey": "KBUF-SFO",
    "geom:area": 0,
    "geom:bbox": "-122.370943,37.617990,-78.734837,42.936220",
    "geom:latitude": 40.277105,
    "geom:longitude": -100.55288999999999,
    "iata:airline": "UA",
    "icao:aircraft": "B764",
    "icao:airline": "UAL",
    "mz:is_current": -1,
    "sfomuseum:aircraft_id": 1394298249,
    "sfomuseum:airline_id": 1159285413,
    "sfomuseum:arrival_id": 102527513,
    "sfomuseum:departure_id": 102528321,
    "sfomuseum:flight_id": "20161203-A-UAL-2234",
    "sfomuseum:flight_number": [
      "UA2234", 
      "UAL2234"
    ],
    "sfomuseum:placetype": "flight",
    "src:geom": "sfonoise",
    "wof:belongsto": [
      102191575, 
      102527513, 
      102087579, 
      85922583, 
      1159157271, 
      85633793, 
      1679242251, 
      85688637
    ],
    "wof:country": "US",
    "wof:created": 1582933780,
    "wof:geomhash": "c1f45600b045f262f77ed808d9cc069e",
    "wof:hierarchy": [
      {
        "building_id": 1159157271,
        "campus_id": 102527513,
        "concourse_id": -1,
        "continent_id": 102191575,
        "country_id": 85633793,
        "county_id": 102087579,
        "event_id": 1679242251,
        "locality_id": 85922583,
        "neighbourhood_id": -1,
        "region_id": 85688637,
        "venue_id": -1,
        "wing_id": -1
      }
    ],
    "wof:id": 1679242251,
    "wof:lastmodified": 1582933780,
    "wof:name": "UAL2234 (KBUF-SFO)",
    "wof:parent_id": -1,
    "wof:placetype": "event",
    "wof:repo": "sfomuseum-data-flights-2016",
    "wof:superseded_by": [],
    "wof:supersedes": []
  },
  "bbox": [
    -122.370943, 
    37.61799, 
    -78.734837, 
    42.93622
  ],
  "geometry": {"coordinates":[[-78.734837,42.93622],[-122.370943,37.61799]],"type":"MultiPoint"}
}
