{
  "id": 1679262797,
  "type": "Feature",
  "properties": {
    "edtf:cessation": "2016-12-10T01:02:20",
    "edtf:inception": "2016-12-10~",
    "flysfo:airline": "VX",
    "flysfo:date": "2016-12-10",
    "flysfo:event": "A",
    "flysfo:flight_number": "VX349",
    "flysfo:journey": "KFAT-SFO",
    "geom:area": 0,
    "geom:bbox": "-122.370943,36.768728,-119.721272,37.617990",
    "geom:latitude": 37.193359,
    "geom:longitude": -121.0461075,
    "iata:airline": "VX",
    "icao:aircraft": "A320",
    "icao:airline": "VRD",
    "mz:is_current": -1,
    "sfomuseum:aircraft_id": 1159292085,
    "sfomuseum:airline_id": 1159285481,
    "sfomuseum:arrival_id": 102527513,
    "sfomuseum:departure_id": 102530717,
    "sfomuseum:flight_id": "20161210-A-VRD-349",
    "sfomuseum:flight_number": [
      "VX349", 
      "VRD349"
    ],
    "sfomuseum:placetype": "flight",
    "src:geom": "sfonoise",
    "wof:belongsto": [
      85633793, 
      102527513, 
      102087579, 
      1679262797, 
      1159157271, 
      102191575, 
      85922583, 
      85688637
    ],
    "wof:country": "US",
    "wof:created": 1582933977,
    "wof:geomhash": "b157be63e9453882f41d2e530854b6a2",
    "wof:hierarchy": [
      {
        "building_id": 1159157271,
        "campus_id": 102527513,
        "concourse_id": -1,
        "continent_id": 102191575,
        "country_id": 85633793,
        "county_id": 102087579,
        "event_id": 1679262797,
        "locality_id": 85922583,
        "neighbourhood_id": -1,
        "region_id": 85688637,
        "venue_id": -1,
        "wing_id": -1
      }
    ],
    "wof:id": 1679262797,
    "wof:lastmodified": 1582933977,
    "wof:name": "VRD349 (KFAT-SFO)",
    "wof:parent_id": -1,
    "wof:placetype": "event",
    "wof:repo": "sfomuseum-data-flights-2016",
    "wof:superseded_by": [],
    "wof:supersedes": []
  },
  "bbox": [
    -122.370943, 
    36.768728, 
    -119.721272, 
    37.61799
  ],
  "geometry": {"coordinates":[[-119.721272,36.768728],[-122.370943,37.61799]],"type":"MultiPoint"}
}
