{
  "id": 1679324133,
  "type": "Feature",
  "properties": {
    "edtf:cessation": "2016-12-28~",
    "edtf:inception": "2016-12-28T13:15:31",
    "flysfo:airline": "SQ",
    "flysfo:date": "2016-12-28",
    "flysfo:event": "D",
    "flysfo:flight_number": "SQ7971",
    "flysfo:journey": "SFO-EBBR",
    "geom:area": 0,
    "geom:bbox": "-122.370943,37.617990,4.485874,50.898393",
    "geom:latitude": 44.258191499999995,
    "geom:longitude": -58.9425345,
    "iata:airline": "SQ",
    "icao:aircraft": "B744",
    "icao:airline": "SQC",
    "mz:is_current": -1,
    "sfomuseum:aircraft_id": 1159289915,
    "sfomuseum:airline_id": 1159285165,
    "sfomuseum:arrival_id": 102546425,
    "sfomuseum:departure_id": 102527513,
    "sfomuseum:flight_id": "20161228-D-SQC-7971",
    "sfomuseum:flight_number": [
      "SQ7971", 
      "SQC7971"
    ],
    "sfomuseum:placetype": "flight",
    "src:geom": "sfonoise",
    "wof:belongsto": [
      1159157271, 
      102087579, 
      1679324133, 
      102527513, 
      102191575, 
      85633793, 
      85922583, 
      85688637
    ],
    "wof:country": "US",
    "wof:created": 1582934578,
    "wof:geomhash": "4e4277037fac3a48b51edb7753019049",
    "wof:hierarchy": [
      {
        "building_id": 1159157271,
        "campus_id": 102527513,
        "concourse_id": -1,
        "continent_id": 102191575,
        "country_id": 85633793,
        "county_id": 102087579,
        "event_id": 1679324133,
        "locality_id": 85922583,
        "neighbourhood_id": -1,
        "region_id": 85688637,
        "venue_id": -1,
        "wing_id": -1
      }
    ],
    "wof:id": 1679324133,
    "wof:lastmodified": 1582934578,
    "wof:name": "SQC7971 (SFO-EBBR)",
    "wof:parent_id": -1,
    "wof:placetype": "event",
    "wof:repo": "sfomuseum-data-flights-2016",
    "wof:superseded_by": [],
    "wof:supersedes": []
  },
  "bbox": [
    -122.370943, 
    37.61799, 
    4.485874, 
    50.898393
  ],
  "geometry": {"coordinates":[[-122.370943,37.61799],[4.485874,50.898393]],"type":"MultiPoint"}
}
