{
  "id": 1662065637,
  "type": "Feature",
  "properties": {
    "edtf:cessation": "2016-01-14T17:58:53",
    "edtf:inception": "2016-01-14~",
    "flysfo:airline": "VX",
    "flysfo:date": "2016-01-14",
    "flysfo:event": "A",
    "flysfo:flight_number": "VX1943",
    "flysfo:journey": "KOAK-SFO",
    "geom:area": 0,
    "geom:bbox": "-122.370943,37.617990,-122.212464,37.721310",
    "geom:latitude": 37.669650000000004,
    "geom:longitude": -122.2917035,
    "iata:airline": "VX",
    "icao:aircraft": "A320",
    "icao:airline": "VRD",
    "mz:is_current": -1,
    "sfomuseum:aircraft_id": 1159292085,
    "sfomuseum:airline_id": 1159285481,
    "sfomuseum:arrival_id": 102527513,
    "sfomuseum:departure_id": 102531041,
    "sfomuseum:flight_id": "20160114-A-VRD-1943",
    "sfomuseum:flight_number": [
      "VX1943", 
      "VRD1943"
    ],
    "sfomuseum:placetype": "flight",
    "src:geom": "sfonoise",
    "wof:belongsto": [
      1662065637, 
      85688637, 
      102087579, 
      85633793, 
      85922583, 
      1159396321, 
      102191575, 
      102527513
    ],
    "wof:country": "US",
    "wof:created": 1582922177,
    "wof:geomhash": "ef262e0da13c3e8dd354e2b42ae8d539",
    "wof:hierarchy": [
      {
        "building_id": 1159396321,
        "campus_id": 102527513,
        "concourse_id": -1,
        "continent_id": 102191575,
        "country_id": 85633793,
        "county_id": 102087579,
        "event_id": 1662065637,
        "locality_id": 85922583,
        "neighbourhood_id": -1,
        "region_id": 85688637,
        "venue_id": -1,
        "wing_id": -1
      }
    ],
    "wof:id": 1662065637,
    "wof:lastmodified": 1582922177,
    "wof:name": "VRD1943 (KOAK-SFO)",
    "wof:parent_id": -1,
    "wof:placetype": "event",
    "wof:repo": "sfomuseum-data-flights-2016",
    "wof:superseded_by": [],
    "wof:supersedes": []
  },
  "bbox": [
    -122.370943, 
    37.61799, 
    -122.212464, 
    37.72131
  ],
  "geometry": {"coordinates":[[-122.212464,37.72131],[-122.370943,37.61799]],"type":"MultiPoint"}
}
