{
  "id": 1662140887,
  "type": "Feature",
  "properties": {
    "edtf:cessation": "2016-03-04~",
    "edtf:inception": "2016-03-04T23:00:40",
    "flysfo:airline": "UA",
    "flysfo:date": "2016-03-04",
    "flysfo:event": "D",
    "flysfo:flight_number": "UA384T",
    "flysfo:journey": "SFO-KPHL",
    "geom:area": 0,
    "geom:bbox": "-122.370943,37.617990,-75.247885,39.880952",
    "geom:latitude": 38.749471,
    "geom:longitude": -98.809414,
    "iata:airline": "UA",
    "icao:aircraft": "B738",
    "icao:airline": "UAL",
    "mz:is_current": -1,
    "sfomuseum:aircraft_id": 1159289871,
    "sfomuseum:airline_id": 1159285413,
    "sfomuseum:arrival_id": 102529403,
    "sfomuseum:departure_id": 102527513,
    "sfomuseum:flight_id": "20160304-D-UAL-384T",
    "sfomuseum:flight_number": [
      "UA384T", 
      "UAL384T"
    ],
    "sfomuseum:placetype": "flight",
    "src:geom": "sfonoise",
    "wof:belongsto": [
      102191575, 
      1159396321, 
      85922583, 
      85633793, 
      102087579, 
      1662140887, 
      85688637, 
      102527513
    ],
    "wof:country": "US",
    "wof:created": 1582923412,
    "wof:geomhash": "262283982e32a09ea653beb1776c6fc7",
    "wof:hierarchy": [
      {
        "building_id": 1159396321,
        "campus_id": 102527513,
        "concourse_id": -1,
        "continent_id": 102191575,
        "country_id": 85633793,
        "county_id": 102087579,
        "event_id": 1662140887,
        "locality_id": 85922583,
        "neighbourhood_id": -1,
        "region_id": 85688637,
        "venue_id": -1,
        "wing_id": -1
      }
    ],
    "wof:id": 1662140887,
    "wof:lastmodified": 1582923412,
    "wof:name": "UAL384T (SFO-KPHL)",
    "wof:parent_id": -1,
    "wof:placetype": "event",
    "wof:repo": "sfomuseum-data-flights-2016",
    "wof:superseded_by": [],
    "wof:supersedes": []
  },
  "bbox": [
    -122.370943, 
    37.61799, 
    -75.247885, 
    39.880952
  ],
  "geometry": {"coordinates":[[-122.370943,37.61799],[-75.247885,39.880952]],"type":"MultiPoint"}
}
