{
  "id": 1679177707,
  "type": "Feature",
  "properties": {
    "edtf:cessation": "2016-11-14T01:51:53",
    "edtf:inception": "2016-11-14~",
    "flysfo:airline": "B6",
    "flysfo:date": "2016-11-14",
    "flysfo:event": "A",
    "flysfo:flight_number": "B6277",
    "flysfo:journey": "KMCO-SFO",
    "geom:area": 0,
    "geom:bbox": "-122.370943,28.431495,-81.307537,37.617990",
    "geom:latitude": 33.0247425,
    "geom:longitude": -101.83923999999999,
    "iata:airline": "B6",
    "icao:aircraft": "A320",
    "icao:airline": "JBU",
    "mz:is_current": -1,
    "sfomuseum:aircraft_id": 1159292085,
    "sfomuseum:airline_id": 1360700745,
    "sfomuseum:arrival_id": 102527513,
    "sfomuseum:departure_id": 102533657,
    "sfomuseum:flight_id": "20161114-A-JBU-277",
    "sfomuseum:flight_number": [
      "B6277", 
      "JBU277"
    ],
    "sfomuseum:placetype": "flight",
    "src:geom": "sfonoise",
    "wof:belongsto": [
      85688637, 
      102527513, 
      102191575, 
      85633793, 
      85922583, 
      102087579, 
      1679177707, 
      1159157271
    ],
    "wof:country": "US",
    "wof:created": 1582933168,
    "wof:geomhash": "5fe9a4073f558f5d433cae4f846ab71e",
    "wof:hierarchy": [
      {
        "building_id": 1159157271,
        "campus_id": 102527513,
        "concourse_id": -1,
        "continent_id": 102191575,
        "country_id": 85633793,
        "county_id": 102087579,
        "event_id": 1679177707,
        "locality_id": 85922583,
        "neighbourhood_id": -1,
        "region_id": 85688637,
        "venue_id": -1,
        "wing_id": -1
      }
    ],
    "wof:id": 1679177707,
    "wof:lastmodified": 1582933168,
    "wof:name": "JBU277 (KMCO-SFO)",
    "wof:parent_id": -1,
    "wof:placetype": "event",
    "wof:repo": "sfomuseum-data-flights-2016",
    "wof:superseded_by": [],
    "wof:supersedes": []
  },
  "bbox": [
    -122.370943, 
    28.431495, 
    -81.307537, 
    37.61799
  ],
  "geometry": {"coordinates":[[-81.307537,28.431495],[-122.370943,37.61799]],"type":"MultiPoint"}
}
