{
  "id": 1679314993,
  "type": "Feature",
  "properties": {
    "edtf:cessation": "2016-12-25T19:26:39",
    "edtf:inception": "2016-12-25~",
    "flysfo:airline": "VX",
    "flysfo:date": "2016-12-25",
    "flysfo:event": "A",
    "flysfo:flight_number": "VX6283",
    "flysfo:journey": "MMMD-SFO",
    "geom:area": 0,
    "geom:bbox": "-122.370943,20.937000,-89.657700,37.617990",
    "geom:latitude": 29.277495000000002,
    "geom:longitude": -106.0143215,
    "iata:airline": "VX",
    "icao:aircraft": "A320",
    "icao:airline": "VRD",
    "mz:is_current": -1,
    "sfomuseum:aircraft_id": 1159292085,
    "sfomuseum:airline_id": 1159285481,
    "sfomuseum:arrival_id": 102527513,
    "sfomuseum:departure_id": 102536449,
    "sfomuseum:flight_id": "20161225-A-VRD-6283",
    "sfomuseum:flight_number": [
      "VX6283", 
      "VRD6283"
    ],
    "sfomuseum:placetype": "flight",
    "src:geom": "sfonoise",
    "wof:belongsto": [
      102191575, 
      102527513, 
      102087579, 
      1679314993, 
      85922583, 
      1159157271, 
      85688637, 
      85633793
    ],
    "wof:country": "US",
    "wof:created": 1582934485,
    "wof:geomhash": "1af5d0e59041aa40e2ccb1d4cf0da67a",
    "wof:hierarchy": [
      {
        "building_id": 1159157271,
        "campus_id": 102527513,
        "concourse_id": -1,
        "continent_id": 102191575,
        "country_id": 85633793,
        "county_id": 102087579,
        "event_id": 1679314993,
        "locality_id": 85922583,
        "neighbourhood_id": -1,
        "region_id": 85688637,
        "venue_id": -1,
        "wing_id": -1
      }
    ],
    "wof:id": 1679314993,
    "wof:lastmodified": 1582934485,
    "wof:name": "VRD6283 (MMMD-SFO)",
    "wof:parent_id": -1,
    "wof:placetype": "event",
    "wof:repo": "sfomuseum-data-flights-2016",
    "wof:superseded_by": [],
    "wof:supersedes": []
  },
  "bbox": [
    -122.370943, 
    20.937, 
    -89.6577, 
    37.61799
  ],
  "geometry": {"coordinates":[[-89.6577,20.937],[-122.370943,37.61799]],"type":"MultiPoint"}
}
