{
  "id": 1662060745,
  "type": "Feature",
  "properties": {
    "edtf:cessation": "2016-01-11T14:35:50",
    "edtf:inception": "2016-01-11~",
    "flysfo:airline": "UA",
    "flysfo:date": "2016-01-11",
    "flysfo:event": "A",
    "flysfo:flight_number": "UA732",
    "flysfo:journey": "PSP-SFO",
    "geom:area": 0,
    "geom:bbox": "-122.370943,33.824619,-116.506042,37.617990",
    "geom:latitude": 35.7213045,
    "geom:longitude": -119.4384925,
    "iata:airline": "UA",
    "icao:aircraft": "A319",
    "icao:airline": "UAL",
    "mz:is_current": -1,
    "sfomuseum:aircraft_id": 1159289407,
    "sfomuseum:airline_id": 1159285413,
    "sfomuseum:arrival_id": 102527513,
    "sfomuseum:departure_id": 102533591,
    "sfomuseum:flight_id": "20160111-A-UAL-732",
    "sfomuseum:flight_number": [
      "UA732", 
      "UAL732"
    ],
    "sfomuseum:placetype": "flight",
    "src:geom": "sfonoise",
    "wof:belongsto": [
      1159396321, 
      102087579, 
      1662060745, 
      85922583, 
      85688637, 
      102191575, 
      85633793, 
      102527513
    ],
    "wof:country": "US",
    "wof:created": 1582922116,
    "wof:geomhash": "a35a6e87f0ae0f1f716f88067ee31aa3",
    "wof:hierarchy": [
      {
        "building_id": 1159396321,
        "campus_id": 102527513,
        "concourse_id": -1,
        "continent_id": 102191575,
        "country_id": 85633793,
        "county_id": 102087579,
        "event_id": 1662060745,
        "locality_id": 85922583,
        "neighbourhood_id": -1,
        "region_id": 85688637,
        "venue_id": -1,
        "wing_id": -1
      }
    ],
    "wof:id": 1662060745,
    "wof:lastmodified": 1582922116,
    "wof:name": "UAL732 (PSP-SFO)",
    "wof:parent_id": -1,
    "wof:placetype": "event",
    "wof:repo": "sfomuseum-data-flights-2016",
    "wof:superseded_by": [],
    "wof:supersedes": []
  },
  "bbox": [
    -122.370943, 
    33.824619, 
    -116.506042, 
    37.61799
  ],
  "geometry": {"coordinates":[[-116.506042,33.824619],[-122.370943,37.61799]],"type":"MultiPoint"}
}
