{
  "id": 1662305821,
  "type": "Feature",
  "properties": {
    "edtf:cessation": "2016-06-07T12:01:08",
    "edtf:inception": "2016-06-07~",
    "flysfo:airline": "UA",
    "flysfo:date": "2016-06-07",
    "flysfo:event": "A",
    "flysfo:flight_number": "UA587",
    "flysfo:journey": "KFLL-SFO",
    "geom:area": 0,
    "geom:bbox": "-122.370943,26.074860,-80.138518,37.617990",
    "geom:latitude": 31.846425,
    "geom:longitude": -101.2547305,
    "iata:airline": "UA",
    "icao:aircraft": "B738",
    "icao:airline": "UAL",
    "mz:is_current": -1,
    "sfomuseum:aircraft_id": 1159289871,
    "sfomuseum:airline_id": 1159285413,
    "sfomuseum:arrival_id": 102527513,
    "sfomuseum:departure_id": 102530841,
    "sfomuseum:flight_id": "20160607-A-UAL-587",
    "sfomuseum:flight_number": [
      "UA587", 
      "UAL587"
    ],
    "sfomuseum:placetype": "flight",
    "src:geom": "sfonoise",
    "wof:belongsto": [
      85633793, 
      1662305821, 
      102527513, 
      1159396321, 
      102191575, 
      102087579, 
      85688637, 
      85922583
    ],
    "wof:country": "US",
    "wof:created": 1582926252,
    "wof:geomhash": "d17d7e3187ba5afa3de1a7310fca2526",
    "wof:hierarchy": [
      {
        "building_id": 1159396321,
        "campus_id": 102527513,
        "concourse_id": -1,
        "continent_id": 102191575,
        "country_id": 85633793,
        "county_id": 102087579,
        "event_id": 1662305821,
        "locality_id": 85922583,
        "neighbourhood_id": -1,
        "region_id": 85688637,
        "venue_id": -1,
        "wing_id": -1
      }
    ],
    "wof:id": 1662305821,
    "wof:lastmodified": 1582926252,
    "wof:name": "UAL587 (KFLL-SFO)",
    "wof:parent_id": -1,
    "wof:placetype": "event",
    "wof:repo": "sfomuseum-data-flights-2016",
    "wof:superseded_by": [],
    "wof:supersedes": []
  },
  "bbox": [
    -122.370943, 
    26.07486, 
    -80.138518, 
    37.61799
  ],
  "geometry": {"coordinates":[[-80.138518,26.07486],[-122.370943,37.61799]],"type":"MultiPoint"}
}
