{
  "id": 1678835281,
  "type": "Feature",
  "properties": {
    "edtf:cessation": "2016-08-27~",
    "edtf:inception": "2016-08-27T00:45:03",
    "flysfo:airline": "DL",
    "flysfo:date": "2016-08-27",
    "flysfo:event": "D",
    "flysfo:flight_number": "DL8866",
    "flysfo:journey": "SFO-KGRB",
    "geom:area": 0,
    "geom:bbox": "-122.370943,37.617990,-88.107889,44.493219",
    "geom:latitude": 41.0556045,
    "geom:longitude": -105.239416,
    "iata:airline": "DL",
    "icao:aircraft": "B753",
    "icao:airline": "DAL",
    "mz:is_current": -1,
    "sfomuseum:aircraft_id": 1159289945,
    "sfomuseum:airline_id": 1159284261,
    "sfomuseum:arrival_id": 102529587,
    "sfomuseum:departure_id": 102527513,
    "sfomuseum:flight_id": "20160827-D-DAL-8866",
    "sfomuseum:flight_number": [
      "DL8866", 
      "DAL8866"
    ],
    "sfomuseum:placetype": "flight",
    "src:geom": "sfonoise",
    "wof:belongsto": [
      1678835281, 
      85633793, 
      85922583, 
      102527513, 
      102191575, 
      102087579, 
      85688637, 
      1159157271
    ],
    "wof:country": "US",
    "wof:created": 1582929058,
    "wof:geomhash": "bb15f1c69c231d54020a8d62df197846",
    "wof:hierarchy": [
      {
        "building_id": 1159157271,
        "campus_id": 102527513,
        "concourse_id": -1,
        "continent_id": 102191575,
        "country_id": 85633793,
        "county_id": 102087579,
        "event_id": 1678835281,
        "locality_id": 85922583,
        "neighbourhood_id": -1,
        "region_id": 85688637,
        "venue_id": -1,
        "wing_id": -1
      }
    ],
    "wof:id": 1678835281,
    "wof:lastmodified": 1582929058,
    "wof:name": "DAL8866 (SFO-KGRB)",
    "wof:parent_id": -1,
    "wof:placetype": "event",
    "wof:repo": "sfomuseum-data-flights-2016",
    "wof:superseded_by": [],
    "wof:supersedes": []
  },
  "bbox": [
    -122.370943, 
    37.61799, 
    -88.107889, 
    44.493219
  ],
  "geometry": {"coordinates":[[-122.370943,37.61799],[-88.107889,44.493219]],"type":"MultiPoint"}
}
