{
  "id": 1629074517,
  "type": "Feature",
  "properties": {
    "edtf:cessation": "2016-01-05~",
    "edtf:inception": "2016-01-05T14:44:37",
    "flysfo:airline": "UA",
    "flysfo:date": "2016-01-05",
    "flysfo:event": "D",
    "flysfo:flight_number": "UA2136",
    "flysfo:journey": "SFO-KAMA",
    "geom:area": 0,
    "geom:bbox": "-122.370943,35.220180,-101.708962,37.617990",
    "geom:latitude": 36.419084999999995,
    "geom:longitude": -112.0399525,
    "iata:airline": "UA",
    "icao:aircraft": "B753",
    "icao:airline": "UAL",
    "mz:is_current": -1,
    "sfomuseum:aircraft_id": 1159289945,
    "sfomuseum:airline_id": 1159285413,
    "sfomuseum:arrival_id": 102529249,
    "sfomuseum:departure_id": 102527513,
    "sfomuseum:flight_id": "20160105-D-UAL-2136",
    "sfomuseum:flight_number": [
      "UA2136", 
      "UAL2136"
    ],
    "sfomuseum:placetype": "flight",
    "src:geom": "sfonoise",
    "wof:belongsto": [
      1159396321, 
      102191575, 
      1629074517, 
      85688637, 
      102087579, 
      102527513, 
      85633793, 
      85922583
    ],
    "wof:country": "US",
    "wof:created": 1582921994,
    "wof:geomhash": "749696abda6afece8bfb20d9b4325da6",
    "wof:hierarchy": [
      {
        "building_id": 1159396321,
        "campus_id": 102527513,
        "concourse_id": -1,
        "continent_id": 102191575,
        "country_id": 85633793,
        "county_id": 102087579,
        "event_id": 1629074517,
        "locality_id": 85922583,
        "neighbourhood_id": -1,
        "region_id": 85688637,
        "venue_id": -1,
        "wing_id": -1
      }
    ],
    "wof:id": 1629074517,
    "wof:lastmodified": 1582921994,
    "wof:name": "UAL2136 (SFO-KAMA)",
    "wof:parent_id": -1,
    "wof:placetype": "event",
    "wof:repo": "sfomuseum-data-flights-2016",
    "wof:superseded_by": [],
    "wof:supersedes": []
  },
  "bbox": [
    -122.370943, 
    35.22018, 
    -101.708962, 
    37.61799
  ],
  "geometry": {"coordinates":[[-122.370943,37.61799],[-101.708962,35.22018]],"type":"MultiPoint"}
}
