{
  "id": 1679071863,
  "type": "Feature",
  "properties": {
    "edtf:cessation": "2016-10-17~",
    "edtf:inception": "2016-10-17T11:18:27",
    "flysfo:airline": "VX",
    "flysfo:date": "2016-10-17",
    "flysfo:event": "D",
    "flysfo:flight_number": "VX218",
    "flysfo:journey": "SFO-KCLT",
    "geom:area": 0,
    "geom:bbox": "-122.370943,35.220744,-80.942777,37.617990",
    "geom:latitude": 36.419367,
    "geom:longitude": -101.65686,
    "iata:airline": "VX",
    "icao:aircraft": "A321",
    "icao:airline": "VRD",
    "mz:is_current": -1,
    "sfomuseum:aircraft_id": 1159289411,
    "sfomuseum:airline_id": 1159285481,
    "sfomuseum:arrival_id": 102528659,
    "sfomuseum:departure_id": 102527513,
    "sfomuseum:flight_id": "20161017-D-VRD-218",
    "sfomuseum:flight_number": [
      "VX218", 
      "VRD218"
    ],
    "sfomuseum:placetype": "flight",
    "src:geom": "sfonoise",
    "wof:belongsto": [
      102527513, 
      85633793, 
      102191575, 
      102087579, 
      1679071863, 
      85922583, 
      85688637, 
      1159157271
    ],
    "wof:country": "US",
    "wof:created": 1582931988,
    "wof:geomhash": "6d7202e034534315a50103622977ef57",
    "wof:hierarchy": [
      {
        "building_id": 1159157271,
        "campus_id": 102527513,
        "concourse_id": -1,
        "continent_id": 102191575,
        "country_id": 85633793,
        "county_id": 102087579,
        "event_id": 1679071863,
        "locality_id": 85922583,
        "neighbourhood_id": -1,
        "region_id": 85688637,
        "venue_id": -1,
        "wing_id": -1
      }
    ],
    "wof:id": 1679071863,
    "wof:lastmodified": 1582931988,
    "wof:name": "VRD218 (SFO-KCLT)",
    "wof:parent_id": -1,
    "wof:placetype": "event",
    "wof:repo": "sfomuseum-data-flights-2016",
    "wof:superseded_by": [],
    "wof:supersedes": []
  },
  "bbox": [
    -122.370943, 
    35.220744, 
    -80.942777, 
    37.61799
  ],
  "geometry": {"coordinates":[[-122.370943,37.61799],[-80.942777,35.220744]],"type":"MultiPoint"}
}
