{
  "id": 1662280307,
  "type": "Feature",
  "properties": {
    "edtf:cessation": "2016-05-24T12:00:00",
    "edtf:inception": "2016-05-24~",
    "flysfo:airline": "CZ",
    "flysfo:date": "2016-05-24",
    "flysfo:event": "A",
    "flysfo:flight_number": "CZ659",
    "flysfo:journey": "WUH-SFO",
    "geom:area": 0,
    "geom:bbox": "-122.370943,30.783800,114.208000,37.617990",
    "geom:latitude": 34.200895,
    "geom:longitude": -4.081471499999999,
    "iata:airline": "CZ",
    "icao:aircraft": "B788",
    "icao:airline": "CSN",
    "mz:is_current": -1,
    "sfomuseum:aircraft_id": 1159289995,
    "sfomuseum:airline_id": 1159284165,
    "sfomuseum:arrival_id": 102527513,
    "sfomuseum:departure_id": 102550529,
    "sfomuseum:flight_id": "20160524-A-CSN-659",
    "sfomuseum:flight_number": [
      "CZ659", 
      "CSN659"
    ],
    "sfomuseum:placetype": "flight",
    "src:geom": "sfonoise",
    "wof:belongsto": [
      85688637, 
      102191575, 
      102527513, 
      102087579, 
      85633793, 
      1662280307, 
      1159396321, 
      85922583
    ],
    "wof:country": "US",
    "wof:created": 1582925796,
    "wof:geomhash": "6386ce57872e6dba88d8ed617654347d",
    "wof:hierarchy": [
      {
        "building_id": 1159396321,
        "campus_id": 102527513,
        "concourse_id": -1,
        "continent_id": 102191575,
        "country_id": 85633793,
        "county_id": 102087579,
        "event_id": 1662280307,
        "locality_id": 85922583,
        "neighbourhood_id": -1,
        "region_id": 85688637,
        "venue_id": -1,
        "wing_id": -1
      }
    ],
    "wof:id": 1662280307,
    "wof:lastmodified": 1582925796,
    "wof:name": "CSN659 (WUH-SFO)",
    "wof:parent_id": -1,
    "wof:placetype": "event",
    "wof:repo": "sfomuseum-data-flights-2016",
    "wof:superseded_by": [],
    "wof:supersedes": []
  },
  "bbox": [
    -122.370943, 
    30.7838, 
    114.208, 
    37.61799
  ],
  "geometry": {"coordinates":[[114.208,30.7838],[-122.370943,37.61799]],"type":"MultiPoint"}
}
