{
  "id": 1662270263,
  "type": "Feature",
  "properties": {
    "edtf:cessation": "2016-05-18T20:05:48",
    "edtf:inception": "2016-05-18~",
    "flysfo:airline": "DL",
    "flysfo:date": "2016-05-18",
    "flysfo:event": "A",
    "flysfo:flight_number": "DL440",
    "flysfo:journey": "KJFK-SFO",
    "geom:area": 0,
    "geom:bbox": "-122.370943,37.617990,-73.787845,40.643286",
    "geom:latitude": 39.130638000000005,
    "geom:longitude": -98.07939400000001,
    "iata:airline": "DL",
    "icao:aircraft": "B752",
    "icao:airline": "DAL",
    "mz:is_current": -1,
    "sfomuseum:aircraft_id": 1159289939,
    "sfomuseum:airline_id": 1159284261,
    "sfomuseum:arrival_id": 102527513,
    "sfomuseum:departure_id": 102534365,
    "sfomuseum:flight_id": "20160518-A-DAL-440",
    "sfomuseum:flight_number": [
      "DL440", 
      "DAL440"
    ],
    "sfomuseum:placetype": "flight",
    "src:geom": "sfonoise",
    "wof:belongsto": [
      85922583, 
      1662270263, 
      102191575, 
      102087579, 
      85688637, 
      1159396321, 
      102527513, 
      85633793
    ],
    "wof:country": "US",
    "wof:created": 1582925653,
    "wof:geomhash": "ba4d31d1826c6198b5ffa8fdb1249c5d",
    "wof:hierarchy": [
      {
        "building_id": 1159396321,
        "campus_id": 102527513,
        "concourse_id": -1,
        "continent_id": 102191575,
        "country_id": 85633793,
        "county_id": 102087579,
        "event_id": 1662270263,
        "locality_id": 85922583,
        "neighbourhood_id": -1,
        "region_id": 85688637,
        "venue_id": -1,
        "wing_id": -1
      }
    ],
    "wof:id": 1662270263,
    "wof:lastmodified": 1582925653,
    "wof:name": "DAL440 (KJFK-SFO)",
    "wof:parent_id": -1,
    "wof:placetype": "event",
    "wof:repo": "sfomuseum-data-flights-2016",
    "wof:superseded_by": [],
    "wof:supersedes": []
  },
  "bbox": [
    -122.370943, 
    37.61799, 
    -73.787845, 
    40.643286
  ],
  "geometry": {"coordinates":[[-73.787845,40.643286],[-122.370943,37.61799]],"type":"MultiPoint"}
}
