{
  "id": 1662251577,
  "type": "Feature",
  "properties": {
    "edtf:cessation": "2016-05-08~",
    "edtf:inception": "2016-05-08T17:29:44",
    "flysfo:airline": "UA",
    "flysfo:date": "2016-05-08",
    "flysfo:event": "D",
    "flysfo:flight_number": "UA408",
    "flysfo:journey": "SFO-ORD",
    "geom:area": 0,
    "geom:bbox": "-122.370943,37.617990,-87.894364,41.983038",
    "geom:latitude": 39.800514,
    "geom:longitude": -105.1326535,
    "iata:airline": "UA",
    "icao:aircraft": "B753",
    "icao:airline": "UAL",
    "mz:is_current": -1,
    "sfomuseum:aircraft_id": 1159289945,
    "sfomuseum:airline_id": 1159285413,
    "sfomuseum:arrival_id": 102533631,
    "sfomuseum:departure_id": 102527513,
    "sfomuseum:flight_id": "20160508-D-UAL-408",
    "sfomuseum:flight_number": [
      "UA408", 
      "UAL408"
    ],
    "sfomuseum:placetype": "flight",
    "src:geom": "sfonoise",
    "wof:belongsto": [
      1159396321, 
      102527513, 
      1662251577, 
      85633793, 
      102191575, 
      102087579, 
      85922583, 
      85688637
    ],
    "wof:country": "US",
    "wof:created": 1582925373,
    "wof:geomhash": "7a75cc81bf790964b92a4927d3978f50",
    "wof:hierarchy": [
      {
        "building_id": 1159396321,
        "campus_id": 102527513,
        "concourse_id": -1,
        "continent_id": 102191575,
        "country_id": 85633793,
        "county_id": 102087579,
        "event_id": 1662251577,
        "locality_id": 85922583,
        "neighbourhood_id": -1,
        "region_id": 85688637,
        "venue_id": -1,
        "wing_id": -1
      }
    ],
    "wof:id": 1662251577,
    "wof:lastmodified": 1582925373,
    "wof:name": "UAL408 (SFO-ORD)",
    "wof:parent_id": -1,
    "wof:placetype": "event",
    "wof:repo": "sfomuseum-data-flights-2016",
    "wof:superseded_by": [],
    "wof:supersedes": []
  },
  "bbox": [
    -122.370943, 
    37.61799, 
    -87.894364, 
    41.983038
  ],
  "geometry": {"coordinates":[[-122.370943,37.61799],[-87.894364,41.983038]],"type":"MultiPoint"}
}
