{
  "id": 1679168621,
  "type": "Feature",
  "properties": {
    "edtf:cessation": "2016-11-11T11:04:34",
    "edtf:inception": "2016-11-11~",
    "flysfo:airline": "CI",
    "flysfo:date": "2016-11-11",
    "flysfo:event": "A",
    "flysfo:flight_number": "CI5395",
    "flysfo:journey": "KMIA-SFO",
    "geom:area": 0,
    "geom:bbox": "-122.370943,25.790470,-80.296006,37.617990",
    "geom:latitude": 31.70423,
    "geom:longitude": -101.3334745,
    "iata:airline": "CI",
    "icao:aircraft": "B744",
    "icao:airline": "CAL",
    "mz:is_current": -1,
    "sfomuseum:aircraft_id": 1159289915,
    "sfomuseum:airline_id": 1159284153,
    "sfomuseum:arrival_id": 102527513,
    "sfomuseum:departure_id": 102531023,
    "sfomuseum:flight_id": "20161111-A-CAL-5395",
    "sfomuseum:flight_number": [
      "CI5395", 
      "CAL5395"
    ],
    "sfomuseum:placetype": "flight",
    "src:geom": "sfonoise",
    "wof:belongsto": [
      102527513, 
      102087579, 
      85633793, 
      1679168621, 
      1159157271, 
      85922583, 
      85688637, 
      102191575
    ],
    "wof:country": "US",
    "wof:created": 1582933080,
    "wof:geomhash": "38f88108bbae8bb050c3144d37bdc384",
    "wof:hierarchy": [
      {
        "building_id": 1159157271,
        "campus_id": 102527513,
        "concourse_id": -1,
        "continent_id": 102191575,
        "country_id": 85633793,
        "county_id": 102087579,
        "event_id": 1679168621,
        "locality_id": 85922583,
        "neighbourhood_id": -1,
        "region_id": 85688637,
        "venue_id": -1,
        "wing_id": -1
      }
    ],
    "wof:id": 1679168621,
    "wof:lastmodified": 1582933080,
    "wof:name": "CAL5395 (KMIA-SFO)",
    "wof:parent_id": -1,
    "wof:placetype": "event",
    "wof:repo": "sfomuseum-data-flights-2016",
    "wof:superseded_by": [],
    "wof:supersedes": []
  },
  "bbox": [
    -122.370943, 
    25.79047, 
    -80.296006, 
    37.61799
  ],
  "geometry": {"coordinates":[[-80.296006,25.79047],[-122.370943,37.61799]],"type":"MultiPoint"}
}
