{
  "id": 1662141277,
  "type": "Feature",
  "properties": {
    "edtf:cessation": "2016-03-05T08:24:59",
    "edtf:inception": "2016-03-05~",
    "flysfo:airline": "VX",
    "flysfo:date": "2016-03-05",
    "flysfo:event": "A",
    "flysfo:flight_number": "VX352",
    "flysfo:journey": "KPDX-SFO",
    "geom:area": 0,
    "geom:bbox": "-122.597389,37.617990,-122.370943,45.586144",
    "geom:latitude": 41.602067,
    "geom:longitude": -122.484166,
    "iata:airline": "VX",
    "icao:aircraft": "A320",
    "icao:airline": "VRD",
    "mz:is_current": -1,
    "sfomuseum:aircraft_id": 1159292085,
    "sfomuseum:airline_id": 1159285481,
    "sfomuseum:arrival_id": 102527513,
    "sfomuseum:departure_id": 102532251,
    "sfomuseum:flight_id": "20160305-A-VRD-352",
    "sfomuseum:flight_number": [
      "VX352", 
      "VRD352"
    ],
    "sfomuseum:placetype": "flight",
    "src:geom": "sfonoise",
    "wof:belongsto": [
      1159396321, 
      102527513, 
      102191575, 
      85633793, 
      85688637, 
      1662141277, 
      85922583, 
      102087579
    ],
    "wof:country": "US",
    "wof:created": 1582923419,
    "wof:geomhash": "3af422147b92e6fa9912d38a57ea404a",
    "wof:hierarchy": [
      {
        "building_id": 1159396321,
        "campus_id": 102527513,
        "concourse_id": -1,
        "continent_id": 102191575,
        "country_id": 85633793,
        "county_id": 102087579,
        "event_id": 1662141277,
        "locality_id": 85922583,
        "neighbourhood_id": -1,
        "region_id": 85688637,
        "venue_id": -1,
        "wing_id": -1
      }
    ],
    "wof:id": 1662141277,
    "wof:lastmodified": 1582923419,
    "wof:name": "VRD352 (KPDX-SFO)",
    "wof:parent_id": -1,
    "wof:placetype": "event",
    "wof:repo": "sfomuseum-data-flights-2016",
    "wof:superseded_by": [],
    "wof:supersedes": []
  },
  "bbox": [
    -122.597389, 
    37.61799, 
    -122.370943, 
    45.586144
  ],
  "geometry": {"coordinates":[[-122.597389,45.586144],[-122.370943,37.61799]],"type":"MultiPoint"}
}
