{
  "id": 1629209783,
  "type": "Feature",
  "properties": {
    "edtf:cessation": "2016-07-12T01:51:29",
    "edtf:inception": "2016-07-12~",
    "flysfo:airline": "UA",
    "flysfo:date": "2016-07-12",
    "flysfo:event": "A",
    "flysfo:flight_number": "UA1608",
    "flysfo:journey": "KATL-SFO",
    "geom:area": 0,
    "geom:bbox": "-122.370943,33.636518,-84.430686,37.617990",
    "geom:latitude": 35.627254,
    "geom:longitude": -103.4008145,
    "iata:airline": "UA",
    "icao:aircraft": "A320",
    "icao:airline": "UAL",
    "mz:is_current": -1,
    "sfomuseum:aircraft_id": 1159292085,
    "sfomuseum:airline_id": 1159285413,
    "sfomuseum:arrival_id": 102527513,
    "sfomuseum:departure_id": 102526927,
    "sfomuseum:flight_id": "20160712-A-UAL-1608",
    "sfomuseum:flight_number": [
      "UA1608", 
      "UAL1608"
    ],
    "sfomuseum:placetype": "flight",
    "src:geom": "sfonoise",
    "wof:belongsto": [
      85688637, 
      1629209783, 
      1159157271, 
      102527513, 
      85633793, 
      102087579, 
      85922583, 
      102191575
    ],
    "wof:country": "US",
    "wof:created": 1582927291,
    "wof:geomhash": "ae92617dd2aca2afdb0c9096232ff0bb",
    "wof:hierarchy": [
      {
        "building_id": 1159157271,
        "campus_id": 102527513,
        "concourse_id": -1,
        "continent_id": 102191575,
        "country_id": 85633793,
        "county_id": 102087579,
        "event_id": 1629209783,
        "locality_id": 85922583,
        "neighbourhood_id": -1,
        "region_id": 85688637,
        "venue_id": -1,
        "wing_id": -1
      }
    ],
    "wof:id": 1629209783,
    "wof:lastmodified": 1582927291,
    "wof:name": "UAL1608 (KATL-SFO)",
    "wof:parent_id": -1,
    "wof:placetype": "event",
    "wof:repo": "sfomuseum-data-flights-2016",
    "wof:superseded_by": [],
    "wof:supersedes": []
  },
  "bbox": [
    -122.370943, 
    33.636518, 
    -84.430686, 
    37.61799
  ],
  "geometry": {"coordinates":[[-84.430686,33.636518],[-122.370943,37.61799]],"type":"MultiPoint"}
}
