{
  "id": 1678955235,
  "type": "Feature",
  "properties": {
    "edtf:cessation": "2016-09-19~",
    "edtf:inception": "2016-09-19T17:10:52",
    "flysfo:airline": "UA",
    "flysfo:date": "2016-09-19",
    "flysfo:event": "D",
    "flysfo:flight_number": "UA441",
    "flysfo:journey": "SFO-KEWR",
    "geom:area": 0,
    "geom:bbox": "-122.370943,37.617990,-74.177526,40.691243",
    "geom:latitude": 39.1546165,
    "geom:longitude": -98.2742345,
    "iata:airline": "UA",
    "icao:aircraft": "B752",
    "icao:airline": "UAL",
    "mz:is_current": -1,
    "sfomuseum:aircraft_id": 1159289939,
    "sfomuseum:airline_id": 1159285413,
    "sfomuseum:arrival_id": 102530049,
    "sfomuseum:departure_id": 102527513,
    "sfomuseum:flight_id": "20160919-D-UAL-441",
    "sfomuseum:flight_number": [
      "UA441", 
      "UAL441"
    ],
    "sfomuseum:placetype": "flight",
    "src:geom": "sfonoise",
    "wof:belongsto": [
      1678955235, 
      85688637, 
      1159157271, 
      102527513, 
      102191575, 
      102087579, 
      85633793, 
      85922583
    ],
    "wof:country": "US",
    "wof:created": 1582930661,
    "wof:geomhash": "5f8ba203e186fe379420b736bcf5de4f",
    "wof:hierarchy": [
      {
        "building_id": 1159157271,
        "campus_id": 102527513,
        "concourse_id": -1,
        "continent_id": 102191575,
        "country_id": 85633793,
        "county_id": 102087579,
        "event_id": 1678955235,
        "locality_id": 85922583,
        "neighbourhood_id": -1,
        "region_id": 85688637,
        "venue_id": -1,
        "wing_id": -1
      }
    ],
    "wof:id": 1678955235,
    "wof:lastmodified": 1582930661,
    "wof:name": "UAL441 (SFO-KEWR)",
    "wof:parent_id": -1,
    "wof:placetype": "event",
    "wof:repo": "sfomuseum-data-flights-2016",
    "wof:superseded_by": [],
    "wof:supersedes": []
  },
  "bbox": [
    -122.370943, 
    37.61799, 
    -74.177526, 
    40.691243
  ],
  "geometry": {"coordinates":[[-122.370943,37.61799],[-74.177526,40.691243]],"type":"MultiPoint"}
}
