{
  "id": 1629090709,
  "type": "Feature",
  "properties": {
    "edtf:cessation": "2016-02-28~",
    "edtf:inception": "2016-02-28T22:26:28",
    "flysfo:airline": "DL",
    "flysfo:date": "2016-02-28",
    "flysfo:event": "D",
    "flysfo:flight_number": "DL8850",
    "flysfo:journey": "SFO-KPHX",
    "geom:area": 0,
    "geom:bbox": "-122.370943,33.432684,-112.017392,37.617990",
    "geom:latitude": 35.525337,
    "geom:longitude": -117.19416749999999,
    "iata:airline": "DL",
    "icao:aircraft": "A319",
    "icao:airline": "DAL",
    "mz:is_current": -1,
    "sfomuseum:aircraft_id": 1159289407,
    "sfomuseum:airline_id": 1159284261,
    "sfomuseum:arrival_id": 102526751,
    "sfomuseum:departure_id": 102527513,
    "sfomuseum:flight_id": "20160228-D-DAL-8850",
    "sfomuseum:flight_number": [
      "DL8850", 
      "DAL8850"
    ],
    "sfomuseum:placetype": "flight",
    "src:geom": "sfonoise",
    "wof:belongsto": [
      102191575, 
      85922583, 
      1159396321, 
      102087579, 
      85688637, 
      1629090709, 
      102527513, 
      85633793
    ],
    "wof:country": "US",
    "wof:created": 1582923261,
    "wof:geomhash": "2a19f056fd5d16c52f22f1bf5dc85c9c",
    "wof:hierarchy": [
      {
        "building_id": 1159396321,
        "campus_id": 102527513,
        "concourse_id": -1,
        "continent_id": 102191575,
        "country_id": 85633793,
        "county_id": 102087579,
        "event_id": 1629090709,
        "locality_id": 85922583,
        "neighbourhood_id": -1,
        "region_id": 85688637,
        "venue_id": -1,
        "wing_id": -1
      }
    ],
    "wof:id": 1629090709,
    "wof:lastmodified": 1582923261,
    "wof:name": "DAL8850 (SFO-KPHX)",
    "wof:parent_id": -1,
    "wof:placetype": "event",
    "wof:repo": "sfomuseum-data-flights-2016",
    "wof:superseded_by": [],
    "wof:supersedes": []
  },
  "bbox": [
    -122.370943, 
    33.432684, 
    -112.017392, 
    37.61799
  ],
  "geometry": {"coordinates":[[-122.370943,37.61799],[-112.017392,33.432684]],"type":"MultiPoint"}
}
