{
  "id": 1679268711,
  "type": "Feature",
  "properties": {
    "edtf:cessation": "2016-12-12T07:54:30",
    "edtf:inception": "2016-12-12~",
    "flysfo:airline": "5Y",
    "flysfo:date": "2016-12-12",
    "flysfo:event": "A",
    "flysfo:flight_number": "5Y805A",
    "flysfo:journey": "KDEN-SFO",
    "geom:area": 0,
    "geom:bbox": "-122.370943,37.617990,-104.672219,39.864939",
    "geom:latitude": 38.7414645,
    "geom:longitude": -113.521581,
    "iata:airline": "5Y",
    "icao:aircraft": "B762",
    "icao:airline": "GTI",
    "mz:is_current": -1,
    "sfomuseum:aircraft_id": 1159289953,
    "sfomuseum:airline_id": 1159283935,
    "sfomuseum:arrival_id": 102527513,
    "sfomuseum:departure_id": 102531189,
    "sfomuseum:flight_id": "20161212-A-GTI-805A",
    "sfomuseum:flight_number": [
      "5Y805A", 
      "GTI805A"
    ],
    "sfomuseum:placetype": "flight",
    "src:geom": "sfonoise",
    "wof:belongsto": [
      85688637, 
      102191575, 
      85633793, 
      85922583, 
      102087579, 
      1679268711, 
      1159157271, 
      102527513
    ],
    "wof:country": "US",
    "wof:created": 1582934036,
    "wof:geomhash": "736fe0d2ebd38878be6950e82908a686",
    "wof:hierarchy": [
      {
        "building_id": 1159157271,
        "campus_id": 102527513,
        "concourse_id": -1,
        "continent_id": 102191575,
        "country_id": 85633793,
        "county_id": 102087579,
        "event_id": 1679268711,
        "locality_id": 85922583,
        "neighbourhood_id": -1,
        "region_id": 85688637,
        "venue_id": -1,
        "wing_id": -1
      }
    ],
    "wof:id": 1679268711,
    "wof:lastmodified": 1582934036,
    "wof:name": "GTI805A (KDEN-SFO)",
    "wof:parent_id": -1,
    "wof:placetype": "event",
    "wof:repo": "sfomuseum-data-flights-2016",
    "wof:superseded_by": [],
    "wof:supersedes": []
  },
  "bbox": [
    -122.370943, 
    37.61799, 
    -104.672219, 
    39.864939
  ],
  "geometry": {"coordinates":[[-104.672219,39.864939],[-122.370943,37.61799]],"type":"MultiPoint"}
}
