{
  "id": 1662251995,
  "type": "Feature",
  "properties": {
    "edtf:cessation": "2016-05-08~",
    "edtf:inception": "2016-05-08T21:35:11",
    "flysfo:airline": "UA",
    "flysfo:date": "2016-05-08",
    "flysfo:event": "D",
    "flysfo:flight_number": "UA1134",
    "flysfo:journey": "SFO-YVR",
    "geom:area": 0,
    "geom:bbox": "-123.179200,37.617990,-122.370943,49.193330",
    "geom:latitude": 43.40566,
    "geom:longitude": -122.7750715,
    "iata:airline": "UA",
    "icao:aircraft": "A320",
    "icao:airline": "UAL",
    "mz:is_current": -1,
    "sfomuseum:aircraft_id": 1159292085,
    "sfomuseum:airline_id": 1159285413,
    "sfomuseum:arrival_id": 102555307,
    "sfomuseum:departure_id": 102527513,
    "sfomuseum:flight_id": "20160508-D-UAL-1134",
    "sfomuseum:flight_number": [
      "UA1134", 
      "UAL1134"
    ],
    "sfomuseum:placetype": "flight",
    "src:geom": "sfonoise",
    "wof:belongsto": [
      1662251995, 
      85688637, 
      1159396321, 
      102087579, 
      102527513, 
      85922583, 
      85633793, 
      102191575
    ],
    "wof:country": "US",
    "wof:created": 1582925379,
    "wof:geomhash": "af4ccf784d832b160f78d13fe8b8589a",
    "wof:hierarchy": [
      {
        "building_id": 1159396321,
        "campus_id": 102527513,
        "concourse_id": -1,
        "continent_id": 102191575,
        "country_id": 85633793,
        "county_id": 102087579,
        "event_id": 1662251995,
        "locality_id": 85922583,
        "neighbourhood_id": -1,
        "region_id": 85688637,
        "venue_id": -1,
        "wing_id": -1
      }
    ],
    "wof:id": 1662251995,
    "wof:lastmodified": 1582925379,
    "wof:name": "UAL1134 (SFO-YVR)",
    "wof:parent_id": -1,
    "wof:placetype": "event",
    "wof:repo": "sfomuseum-data-flights-2016",
    "wof:superseded_by": [],
    "wof:supersedes": []
  },
  "bbox": [
    -123.1792, 
    37.61799, 
    -122.370943, 
    49.19333
  ],
  "geometry": {"coordinates":[[-122.370943,37.61799],[-123.1792,49.19333]],"type":"MultiPoint"}
}
