{
  "id": 1662208809,
  "type": "Feature",
  "properties": {
    "edtf:cessation": "2016-04-14~",
    "edtf:inception": "2016-04-14T11:05:04",
    "flysfo:airline": "UA",
    "flysfo:date": "2016-04-14",
    "flysfo:event": "D",
    "flysfo:flight_number": "UA1826",
    "flysfo:journey": "SFO-KSNA",
    "geom:area": 0,
    "geom:bbox": "-122.370943,33.677724,-117.866280,37.617990",
    "geom:latitude": 35.647857,
    "geom:longitude": -120.1186115,
    "iata:airline": "UA",
    "icao:aircraft": "A319",
    "icao:airline": "UAL",
    "mz:is_current": -1,
    "sfomuseum:aircraft_id": 1159289407,
    "sfomuseum:airline_id": 1159285413,
    "sfomuseum:arrival_id": 102534161,
    "sfomuseum:departure_id": 102527513,
    "sfomuseum:flight_id": "20160414-D-UAL-1826",
    "sfomuseum:flight_number": [
      "UA1826", 
      "UAL1826"
    ],
    "sfomuseum:placetype": "flight",
    "src:geom": "sfonoise",
    "wof:belongsto": [
      102191575, 
      1662208809, 
      85922583, 
      85688637, 
      102527513, 
      1159396321, 
      102087579, 
      85633793
    ],
    "wof:country": "US",
    "wof:created": 1582924415,
    "wof:geomhash": "b700d5ae3794da4176af6b85f6cd6669",
    "wof:hierarchy": [
      {
        "building_id": 1159396321,
        "campus_id": 102527513,
        "concourse_id": -1,
        "continent_id": 102191575,
        "country_id": 85633793,
        "county_id": 102087579,
        "event_id": 1662208809,
        "locality_id": 85922583,
        "neighbourhood_id": -1,
        "region_id": 85688637,
        "venue_id": -1,
        "wing_id": -1
      }
    ],
    "wof:id": 1662208809,
    "wof:lastmodified": 1582924415,
    "wof:name": "UAL1826 (SFO-KSNA)",
    "wof:parent_id": -1,
    "wof:placetype": "event",
    "wof:repo": "sfomuseum-data-flights-2016",
    "wof:superseded_by": [],
    "wof:supersedes": []
  },
  "bbox": [
    -122.370943, 
    33.677724, 
    -117.86628, 
    37.61799
  ],
  "geometry": {"coordinates":[[-122.370943,37.61799],[-117.86628,33.677724]],"type":"MultiPoint"}
}
