{
  "id": 1628911453,
  "type": "Feature",
  "properties": {
    "edtf:cessation": "2016-02-13~",
    "edtf:inception": "2016-02-13T08:49:32",
    "flysfo:airline": "UA",
    "flysfo:date": "2016-02-13",
    "flysfo:event": "D",
    "flysfo:flight_number": "UA400",
    "flysfo:journey": "SFO-IAD",
    "geom:area": 0,
    "geom:bbox": "-122.370943,37.617990,-77.453702,38.949246",
    "geom:latitude": 38.283618000000004,
    "geom:longitude": -99.9123225,
    "iata:airline": "UA",
    "icao:aircraft": "B739",
    "icao:airline": "UAL",
    "mz:is_current": -1,
    "sfomuseum:aircraft_id": 1377564285,
    "sfomuseum:airline_id": 1159285413,
    "sfomuseum:arrival_id": 102528817,
    "sfomuseum:departure_id": 102527513,
    "sfomuseum:flight_id": "20160213-D-UAL-400",
    "sfomuseum:flight_number": [
      "UA400", 
      "UAL400"
    ],
    "sfomuseum:placetype": "flight",
    "src:geom": "sfonoise",
    "wof:belongsto": [
      102191575, 
      1159396321, 
      1628911453, 
      85922583, 
      102527513, 
      102087579, 
      85688637, 
      85633793
    ],
    "wof:country": "US",
    "wof:created": 1582922808,
    "wof:geomhash": "1c4ce661f6692034a082b31062a17f5e",
    "wof:hierarchy": [
      {
        "building_id": 1159396321,
        "campus_id": 102527513,
        "concourse_id": -1,
        "continent_id": 102191575,
        "country_id": 85633793,
        "county_id": 102087579,
        "event_id": 1628911453,
        "locality_id": 85922583,
        "neighbourhood_id": -1,
        "region_id": 85688637,
        "venue_id": -1,
        "wing_id": -1
      }
    ],
    "wof:id": 1628911453,
    "wof:lastmodified": 1582922808,
    "wof:name": "UAL400 (SFO-IAD)",
    "wof:parent_id": -1,
    "wof:placetype": "event",
    "wof:repo": "sfomuseum-data-flights-2016",
    "wof:superseded_by": [],
    "wof:supersedes": []
  },
  "bbox": [
    -122.370943, 
    37.61799, 
    -77.453702, 
    38.949246
  ],
  "geometry": {"coordinates":[[-122.370943,37.61799],[-77.453702,38.949246]],"type":"MultiPoint"}
}
