{
  "id": 1662261635,
  "type": "Feature",
  "properties": {
    "edtf:cessation": "2016-05-13~",
    "edtf:inception": "2016-05-13T23:56:09",
    "flysfo:airline": "AM",
    "flysfo:date": "2016-05-13",
    "flysfo:event": "D",
    "flysfo:flight_number": "AM665",
    "flysfo:journey": "SFO-MEX",
    "geom:area": 0,
    "geom:bbox": "-122.370943,19.431302,-99.080804,37.617990",
    "geom:latitude": 28.524645999999997,
    "geom:longitude": -110.7258735,
    "iata:airline": "AM",
    "icao:aircraft": "B738",
    "icao:airline": "AMX",
    "mz:is_current": -1,
    "sfomuseum:aircraft_id": 1159289871,
    "sfomuseum:airline_id": 1159283539,
    "sfomuseum:arrival_id": 102536579,
    "sfomuseum:departure_id": 102527513,
    "sfomuseum:flight_id": "20160513-D-AMX-665",
    "sfomuseum:flight_number": [
      "AM665", 
      "AMX665"
    ],
    "sfomuseum:placetype": "flight",
    "src:geom": "sfonoise",
    "wof:belongsto": [
      85688637, 
      102087579, 
      1662261635, 
      85922583, 
      102191575, 
      85633793, 
      1159396321, 
      102527513
    ],
    "wof:country": "US",
    "wof:created": 1582925526,
    "wof:geomhash": "01999c4327be8e36df88ffd5cda77111",
    "wof:hierarchy": [
      {
        "building_id": 1159396321,
        "campus_id": 102527513,
        "concourse_id": -1,
        "continent_id": 102191575,
        "country_id": 85633793,
        "county_id": 102087579,
        "event_id": 1662261635,
        "locality_id": 85922583,
        "neighbourhood_id": -1,
        "region_id": 85688637,
        "venue_id": -1,
        "wing_id": -1
      }
    ],
    "wof:id": 1662261635,
    "wof:lastmodified": 1582925526,
    "wof:name": "AMX665 (SFO-MEX)",
    "wof:parent_id": -1,
    "wof:placetype": "event",
    "wof:repo": "sfomuseum-data-flights-2016",
    "wof:superseded_by": [],
    "wof:supersedes": []
  },
  "bbox": [
    -122.370943, 
    19.431302, 
    -99.080804, 
    37.61799
  ],
  "geometry": {"coordinates":[[-122.370943,37.61799],[-99.080804,19.431302]],"type":"MultiPoint"}
}
