{
  "id": 1679194927,
  "type": "Feature",
  "properties": {
    "edtf:cessation": "2016-11-19~",
    "edtf:inception": "2016-11-19T11:15:04",
    "flysfo:airline": "SY",
    "flysfo:date": "2016-11-19",
    "flysfo:event": "D",
    "flysfo:flight_number": "SY8616",
    "flysfo:journey": "SFO-KFOE",
    "geom:area": 0,
    "geom:bbox": "-122.370943,37.617990,-95.682634,38.948196",
    "geom:latitude": 38.283093,
    "geom:longitude": -109.0267885,
    "iata:airline": "SY",
    "icao:aircraft": "B738",
    "icao:airline": "SCX",
    "mz:is_current": -1,
    "sfomuseum:aircraft_id": 1159289871,
    "sfomuseum:airline_id": 1159285227,
    "sfomuseum:arrival_id": 102528461,
    "sfomuseum:departure_id": 102527513,
    "sfomuseum:flight_id": "20161119-D-SCX-8616",
    "sfomuseum:flight_number": [
      "SY8616", 
      "SCX8616"
    ],
    "sfomuseum:placetype": "flight",
    "src:geom": "sfonoise",
    "wof:belongsto": [
      102191575, 
      102087579, 
      1679194927, 
      1159157271, 
      85633793, 
      85922583, 
      85688637, 
      102527513
    ],
    "wof:country": "US",
    "wof:created": 1582933327,
    "wof:geomhash": "8a19a28df962bc7b9f145afa46933163",
    "wof:hierarchy": [
      {
        "building_id": 1159157271,
        "campus_id": 102527513,
        "concourse_id": -1,
        "continent_id": 102191575,
        "country_id": 85633793,
        "county_id": 102087579,
        "event_id": 1679194927,
        "locality_id": 85922583,
        "neighbourhood_id": -1,
        "region_id": 85688637,
        "venue_id": -1,
        "wing_id": -1
      }
    ],
    "wof:id": 1679194927,
    "wof:lastmodified": 1582933327,
    "wof:name": "SCX8616 (SFO-KFOE)",
    "wof:parent_id": -1,
    "wof:placetype": "event",
    "wof:repo": "sfomuseum-data-flights-2016",
    "wof:superseded_by": [],
    "wof:supersedes": []
  },
  "bbox": [
    -122.370943, 
    37.61799, 
    -95.682634, 
    38.948196
  ],
  "geometry": {"coordinates":[[-122.370943,37.61799],[-95.682634,38.948196]],"type":"MultiPoint"}
}
