{
  "id": 1679194151,
  "type": "Feature",
  "properties": {
    "edtf:cessation": "2016-11-18~",
    "edtf:inception": "2016-11-18T20:48:22",
    "flysfo:airline": "DL",
    "flysfo:date": "2016-11-18",
    "flysfo:event": "D",
    "flysfo:flight_number": "DL8860",
    "flysfo:journey": "SFO-KSJC",
    "geom:area": 0,
    "geom:bbox": "-122.370943,37.363728,-121.928755,37.617990",
    "geom:latitude": 37.490859,
    "geom:longitude": -122.14984899999999,
    "iata:airline": "DL",
    "icao:aircraft": "A333",
    "icao:airline": "DAL",
    "mz:is_current": -1,
    "sfomuseum:aircraft_id": 1159289423,
    "sfomuseum:airline_id": 1159284261,
    "sfomuseum:arrival_id": 102527529,
    "sfomuseum:departure_id": 102527513,
    "sfomuseum:flight_id": "20161118-D-DAL-8860",
    "sfomuseum:flight_number": [
      "DL8860", 
      "DAL8860"
    ],
    "sfomuseum:placetype": "flight",
    "src:geom": "sfonoise",
    "wof:belongsto": [
      102191575, 
      85633793, 
      85922583, 
      102527513, 
      1159157271, 
      102087579, 
      1679194151, 
      85688637
    ],
    "wof:country": "US",
    "wof:created": 1582933320,
    "wof:geomhash": "9e57705c73bd73668d4b0d529a043646",
    "wof:hierarchy": [
      {
        "building_id": 1159157271,
        "campus_id": 102527513,
        "concourse_id": -1,
        "continent_id": 102191575,
        "country_id": 85633793,
        "county_id": 102087579,
        "event_id": 1679194151,
        "locality_id": 85922583,
        "neighbourhood_id": -1,
        "region_id": 85688637,
        "venue_id": -1,
        "wing_id": -1
      }
    ],
    "wof:id": 1679194151,
    "wof:lastmodified": 1582933320,
    "wof:name": "DAL8860 (SFO-KSJC)",
    "wof:parent_id": -1,
    "wof:placetype": "event",
    "wof:repo": "sfomuseum-data-flights-2016",
    "wof:superseded_by": [],
    "wof:supersedes": []
  },
  "bbox": [
    -122.370943, 
    37.363728, 
    -121.928755, 
    37.61799
  ],
  "geometry": {"coordinates":[[-122.370943,37.61799],[-121.928755,37.363728]],"type":"MultiPoint"}
}
