{
  "id": 1678970163,
  "type": "Feature",
  "properties": {
    "edtf:cessation": "2016-09-22T20:38:06",
    "edtf:inception": "2016-09-22~",
    "flysfo:airline": "UA",
    "flysfo:date": "2016-09-22",
    "flysfo:event": "A",
    "flysfo:flight_number": "UA1133",
    "flysfo:journey": "KMSN-SFO",
    "geom:area": 0,
    "geom:bbox": "-122.370943,37.617990,-89.338240,43.133477",
    "geom:latitude": 40.375733499999996,
    "geom:longitude": -105.8545915,
    "iata:airline": "UA",
    "icao:aircraft": "A320",
    "icao:airline": "UAL",
    "mz:is_current": -1,
    "sfomuseum:aircraft_id": 1159292085,
    "sfomuseum:airline_id": 1159285413,
    "sfomuseum:arrival_id": 102527513,
    "sfomuseum:departure_id": 102525659,
    "sfomuseum:flight_id": "20160922-A-UAL-1133",
    "sfomuseum:flight_number": [
      "UA1133", 
      "UAL1133"
    ],
    "sfomuseum:placetype": "flight",
    "src:geom": "sfonoise",
    "wof:belongsto": [
      85688637, 
      102527513, 
      102191575, 
      1678970163, 
      1159157271, 
      102087579, 
      85922583, 
      85633793
    ],
    "wof:country": "US",
    "wof:created": 1582930828,
    "wof:geomhash": "d3e907c10ce5b4e644ffb36af3990e8c",
    "wof:hierarchy": [
      {
        "building_id": 1159157271,
        "campus_id": 102527513,
        "concourse_id": -1,
        "continent_id": 102191575,
        "country_id": 85633793,
        "county_id": 102087579,
        "event_id": 1678970163,
        "locality_id": 85922583,
        "neighbourhood_id": -1,
        "region_id": 85688637,
        "venue_id": -1,
        "wing_id": -1
      }
    ],
    "wof:id": 1678970163,
    "wof:lastmodified": 1582930828,
    "wof:name": "UAL1133 (KMSN-SFO)",
    "wof:parent_id": -1,
    "wof:placetype": "event",
    "wof:repo": "sfomuseum-data-flights-2016",
    "wof:superseded_by": [],
    "wof:supersedes": []
  },
  "bbox": [
    -122.370943, 
    37.61799, 
    -89.33824, 
    43.133477
  ],
  "geometry": {"coordinates":[[-89.33824,43.133477],[-122.370943,37.61799]],"type":"MultiPoint"}
}
