{
  "id": 1662274445,
  "type": "Feature",
  "properties": {
    "edtf:cessation": "2016-05-21~",
    "edtf:inception": "2016-05-21T01:36:39",
    "flysfo:airline": "DL",
    "flysfo:date": "2016-05-21",
    "flysfo:event": "D",
    "flysfo:flight_number": "DL806",
    "flysfo:journey": "SFO-MSP",
    "geom:area": 0,
    "geom:bbox": "-122.370943,37.617990,-93.200317,44.883321",
    "geom:latitude": 41.2506555,
    "geom:longitude": -107.78563,
    "iata:airline": "DL",
    "icao:aircraft": "B763",
    "icao:airline": "DAL",
    "mz:is_current": -1,
    "sfomuseum:aircraft_id": 1159289965,
    "sfomuseum:airline_id": 1159284261,
    "sfomuseum:arrival_id": 102531131,
    "sfomuseum:departure_id": 102527513,
    "sfomuseum:flight_id": "20160521-D-DAL-806",
    "sfomuseum:flight_number": [
      "DL806", 
      "DAL806"
    ],
    "sfomuseum:placetype": "flight",
    "src:geom": "sfonoise",
    "wof:belongsto": [
      1159396321, 
      102191575, 
      85633793, 
      1662274445, 
      85688637, 
      85922583, 
      102087579, 
      102527513
    ],
    "wof:country": "US",
    "wof:created": 1582925711,
    "wof:geomhash": "bbdc3c5edf2b2678c807f6144214d82c",
    "wof:hierarchy": [
      {
        "building_id": 1159396321,
        "campus_id": 102527513,
        "concourse_id": -1,
        "continent_id": 102191575,
        "country_id": 85633793,
        "county_id": 102087579,
        "event_id": 1662274445,
        "locality_id": 85922583,
        "neighbourhood_id": -1,
        "region_id": 85688637,
        "venue_id": -1,
        "wing_id": -1
      }
    ],
    "wof:id": 1662274445,
    "wof:lastmodified": 1582925711,
    "wof:name": "DAL806 (SFO-MSP)",
    "wof:parent_id": -1,
    "wof:placetype": "event",
    "wof:repo": "sfomuseum-data-flights-2016",
    "wof:superseded_by": [],
    "wof:supersedes": []
  },
  "bbox": [
    -122.370943, 
    37.61799, 
    -93.200317, 
    44.883321
  ],
  "geometry": {"coordinates":[[-122.370943,37.61799],[-93.200317,44.883321]],"type":"MultiPoint"}
}
