{
  "id": 1629144521,
  "type": "Feature",
  "properties": {
    "edtf:cessation": "2016-06-25~",
    "edtf:inception": "2016-06-25T08:22:38",
    "flysfo:airline": "UA",
    "flysfo:date": "2016-06-25",
    "flysfo:event": "D",
    "flysfo:flight_number": "UA1107",
    "flysfo:journey": "SFO-KSAN",
    "geom:area": 0,
    "geom:bbox": "-122.370943,32.733534,-117.185927,37.617990",
    "geom:latitude": 35.175762,
    "geom:longitude": -119.778435,
    "iata:airline": "UA",
    "icao:aircraft": "A320",
    "icao:airline": "UAL",
    "mz:is_current": -1,
    "sfomuseum:aircraft_id": 1159292085,
    "sfomuseum:airline_id": 1159285413,
    "sfomuseum:arrival_id": 102528997,
    "sfomuseum:departure_id": 102527513,
    "sfomuseum:flight_id": "20160625-D-UAL-1107",
    "sfomuseum:flight_number": [
      "UA1107", 
      "UAL1107"
    ],
    "sfomuseum:placetype": "flight",
    "src:geom": "sfonoise",
    "wof:belongsto": [
      85633793, 
      85688637, 
      102087579, 
      1629144521, 
      85922583, 
      1159396321, 
      102527513, 
      102191575
    ],
    "wof:country": "US",
    "wof:created": 1582926788,
    "wof:geomhash": "25f5345529d944df781e36098260a435",
    "wof:hierarchy": [
      {
        "building_id": 1159396321,
        "campus_id": 102527513,
        "concourse_id": -1,
        "continent_id": 102191575,
        "country_id": 85633793,
        "county_id": 102087579,
        "event_id": 1629144521,
        "locality_id": 85922583,
        "neighbourhood_id": -1,
        "region_id": 85688637,
        "venue_id": -1,
        "wing_id": -1
      }
    ],
    "wof:id": 1629144521,
    "wof:lastmodified": 1582926788,
    "wof:name": "UAL1107 (SFO-KSAN)",
    "wof:parent_id": -1,
    "wof:placetype": "event",
    "wof:repo": "sfomuseum-data-flights-2016",
    "wof:superseded_by": [],
    "wof:supersedes": []
  },
  "bbox": [
    -122.370943, 
    32.733534, 
    -117.185927, 
    37.61799
  ],
  "geometry": {"coordinates":[[-122.370943,37.61799],[-117.185927,32.733534]],"type":"MultiPoint"}
}
