{
  "id": 1662141289,
  "type": "Feature",
  "properties": {
    "edtf:cessation": "2016-03-05~",
    "edtf:inception": "2016-03-05T08:31:30",
    "flysfo:airline": "UA",
    "flysfo:date": "2016-03-05",
    "flysfo:event": "D",
    "flysfo:flight_number": "UA768",
    "flysfo:journey": "SFO-BOS",
    "geom:area": 0,
    "geom:bbox": "-122.370943,37.617990,-71.014750,42.362322",
    "geom:latitude": 39.990156,
    "geom:longitude": -96.6928465,
    "iata:airline": "UA",
    "icao:aircraft": "B753",
    "icao:airline": "UAL",
    "mz:is_current": -1,
    "sfomuseum:aircraft_id": 1159289945,
    "sfomuseum:airline_id": 1159285413,
    "sfomuseum:arrival_id": 102530741,
    "sfomuseum:departure_id": 102527513,
    "sfomuseum:flight_id": "20160305-D-UAL-768",
    "sfomuseum:flight_number": [
      "UA768", 
      "UAL768"
    ],
    "sfomuseum:placetype": "flight",
    "src:geom": "sfonoise",
    "wof:belongsto": [
      85633793, 
      102087579, 
      1159396321, 
      102527513, 
      85922583, 
      85688637, 
      102191575, 
      1662141289
    ],
    "wof:country": "US",
    "wof:created": 1582923420,
    "wof:geomhash": "92fb504f17f3373e6b03bb6769f65d8a",
    "wof:hierarchy": [
      {
        "building_id": 1159396321,
        "campus_id": 102527513,
        "concourse_id": -1,
        "continent_id": 102191575,
        "country_id": 85633793,
        "county_id": 102087579,
        "event_id": 1662141289,
        "locality_id": 85922583,
        "neighbourhood_id": -1,
        "region_id": 85688637,
        "venue_id": -1,
        "wing_id": -1
      }
    ],
    "wof:id": 1662141289,
    "wof:lastmodified": 1582923420,
    "wof:name": "UAL768 (SFO-BOS)",
    "wof:parent_id": -1,
    "wof:placetype": "event",
    "wof:repo": "sfomuseum-data-flights-2016",
    "wof:superseded_by": [],
    "wof:supersedes": []
  },
  "bbox": [
    -122.370943, 
    37.61799, 
    -71.01475, 
    42.362322
  ],
  "geometry": {"coordinates":[[-122.370943,37.61799],[-71.01475,42.362322]],"type":"MultiPoint"}
}
