{
  "id": 1678943229,
  "type": "Feature",
  "properties": {
    "edtf:cessation": "2016-09-17~",
    "edtf:inception": "2016-09-17T07:21:24",
    "flysfo:airline": "UA",
    "flysfo:date": "2016-09-17",
    "flysfo:event": "D",
    "flysfo:flight_number": "UA871A",
    "flysfo:journey": "SFO-RCTP",
    "geom:area": 0,
    "geom:bbox": "-122.370943,25.078566,121.233152,37.617990",
    "geom:latitude": 31.348278,
    "geom:longitude": -0.5688954999999964,
    "iata:airline": "UA",
    "icao:aircraft": "B789",
    "icao:airline": "UAL",
    "mz:is_current": -1,
    "sfomuseum:aircraft_id": 1159293215,
    "sfomuseum:airline_id": 1159285413,
    "sfomuseum:arrival_id": 102551487,
    "sfomuseum:departure_id": 102527513,
    "sfomuseum:flight_id": "20160917-D-UAL-871A",
    "sfomuseum:flight_number": [
      "UA871A", 
      "UAL871A"
    ],
    "sfomuseum:placetype": "flight",
    "src:geom": "sfonoise",
    "wof:belongsto": [
      102527513, 
      102191575, 
      85922583, 
      1159157271, 
      85633793, 
      1678943229, 
      102087579, 
      85688637
    ],
    "wof:country": "US",
    "wof:created": 1582930479,
    "wof:geomhash": "ec4a8fe4d0e09d37ae50bf109072b003",
    "wof:hierarchy": [
      {
        "building_id": 1159157271,
        "campus_id": 102527513,
        "concourse_id": -1,
        "continent_id": 102191575,
        "country_id": 85633793,
        "county_id": 102087579,
        "event_id": 1678943229,
        "locality_id": 85922583,
        "neighbourhood_id": -1,
        "region_id": 85688637,
        "venue_id": -1,
        "wing_id": -1
      }
    ],
    "wof:id": 1678943229,
    "wof:lastmodified": 1582930479,
    "wof:name": "UAL871A (SFO-RCTP)",
    "wof:parent_id": -1,
    "wof:placetype": "event",
    "wof:repo": "sfomuseum-data-flights-2016",
    "wof:superseded_by": [],
    "wof:supersedes": []
  },
  "bbox": [
    -122.370943, 
    25.078566, 
    121.233152, 
    37.61799
  ],
  "geometry": {"coordinates":[[-122.370943,37.61799],[121.233152,25.078566]],"type":"MultiPoint"}
}
