{
  "id": 1662065961,
  "type": "Feature",
  "properties": {
    "edtf:cessation": "2016-01-14T22:50:09",
    "edtf:inception": "2016-01-14~",
    "flysfo:airline": "SY",
    "flysfo:date": "2016-01-14",
    "flysfo:event": "A",
    "flysfo:flight_number": "SY8896",
    "flysfo:journey": "KFAT-SFO",
    "geom:area": 0,
    "geom:bbox": "-122.370943,36.768728,-119.721272,37.617990",
    "geom:latitude": 37.193359,
    "geom:longitude": -121.0461075,
    "iata:airline": "SY",
    "icao:aircraft": "B738",
    "icao:airline": "SCX",
    "mz:is_current": -1,
    "sfomuseum:aircraft_id": 1159289871,
    "sfomuseum:airline_id": 1159285227,
    "sfomuseum:arrival_id": 102527513,
    "sfomuseum:departure_id": 102530717,
    "sfomuseum:flight_id": "20160114-A-SCX-8896",
    "sfomuseum:flight_number": [
      "SY8896", 
      "SCX8896"
    ],
    "sfomuseum:placetype": "flight",
    "src:geom": "sfonoise",
    "wof:belongsto": [
      102527513, 
      102191575, 
      1662065961, 
      85922583, 
      85688637, 
      1159396321, 
      85633793, 
      102087579
    ],
    "wof:country": "US",
    "wof:created": 1582922182,
    "wof:geomhash": "b157be63e9453882f41d2e530854b6a2",
    "wof:hierarchy": [
      {
        "building_id": 1159396321,
        "campus_id": 102527513,
        "concourse_id": -1,
        "continent_id": 102191575,
        "country_id": 85633793,
        "county_id": 102087579,
        "event_id": 1662065961,
        "locality_id": 85922583,
        "neighbourhood_id": -1,
        "region_id": 85688637,
        "venue_id": -1,
        "wing_id": -1
      }
    ],
    "wof:id": 1662065961,
    "wof:lastmodified": 1582922182,
    "wof:name": "SCX8896 (KFAT-SFO)",
    "wof:parent_id": -1,
    "wof:placetype": "event",
    "wof:repo": "sfomuseum-data-flights-2016",
    "wof:superseded_by": [],
    "wof:supersedes": []
  },
  "bbox": [
    -122.370943, 
    36.768728, 
    -119.721272, 
    37.61799
  ],
  "geometry": {"coordinates":[[-119.721272,36.768728],[-122.370943,37.61799]],"type":"MultiPoint"}
}
