{
  "id": 1662215199,
  "type": "Feature",
  "properties": {
    "edtf:cessation": "2016-04-18~",
    "edtf:inception": "2016-04-18T06:31:19",
    "flysfo:airline": "WN",
    "flysfo:date": "2016-04-18",
    "flysfo:event": "D",
    "flysfo:flight_number": "WN2903",
    "flysfo:journey": "SFO-KMDW",
    "geom:area": 0,
    "geom:bbox": "-122.370943,37.617990,-87.745903,41.787532",
    "geom:latitude": 39.702760999999995,
    "geom:longitude": -105.058423,
    "iata:airline": "WN",
    "icao:aircraft": "B738",
    "icao:airline": "SWA",
    "mz:is_current": -1,
    "sfomuseum:aircraft_id": 1159289871,
    "sfomuseum:airline_id": 1159285591,
    "sfomuseum:arrival_id": 102531205,
    "sfomuseum:departure_id": 102527513,
    "sfomuseum:flight_id": "20160418-D-SWA-2903",
    "sfomuseum:flight_number": [
      "WN2903", 
      "SWA2903"
    ],
    "sfomuseum:placetype": "flight",
    "src:geom": "sfonoise",
    "wof:belongsto": [
      102527513, 
      85633793, 
      85922583, 
      1159396321, 
      85688637, 
      102191575, 
      102087579, 
      1662215199
    ],
    "wof:country": "US",
    "wof:created": 1582924578,
    "wof:geomhash": "b0d868dab19a217943f06d97e1bf7ce6",
    "wof:hierarchy": [
      {
        "building_id": 1159396321,
        "campus_id": 102527513,
        "concourse_id": -1,
        "continent_id": 102191575,
        "country_id": 85633793,
        "county_id": 102087579,
        "event_id": 1662215199,
        "locality_id": 85922583,
        "neighbourhood_id": -1,
        "region_id": 85688637,
        "venue_id": -1,
        "wing_id": -1
      }
    ],
    "wof:id": 1662215199,
    "wof:lastmodified": 1582924578,
    "wof:name": "SWA2903 (SFO-KMDW)",
    "wof:parent_id": -1,
    "wof:placetype": "event",
    "wof:repo": "sfomuseum-data-flights-2016",
    "wof:superseded_by": [],
    "wof:supersedes": []
  },
  "bbox": [
    -122.370943, 
    37.61799, 
    -87.745903, 
    41.787532
  ],
  "geometry": {"coordinates":[[-122.370943,37.61799],[-87.745903,41.787532]],"type":"MultiPoint"}
}
