{
  "id": 1662256299,
  "type": "Feature",
  "properties": {
    "edtf:cessation": "2016-05-11~",
    "edtf:inception": "2016-05-11T09:34:12",
    "flysfo:airline": "UA",
    "flysfo:date": "2016-05-11",
    "flysfo:event": "D",
    "flysfo:flight_number": "UA2292",
    "flysfo:journey": "SFO-KRIV",
    "geom:area": 0,
    "geom:bbox": "-122.370943,33.896471,-117.254857,37.617990",
    "geom:latitude": 35.7572305,
    "geom:longitude": -119.8129,
    "iata:airline": "UA",
    "icao:aircraft": "B744",
    "icao:airline": "UAL",
    "mz:is_current": -1,
    "sfomuseum:aircraft_id": 1159289915,
    "sfomuseum:airline_id": 1159285413,
    "sfomuseum:arrival_id": 102533771,
    "sfomuseum:departure_id": 102527513,
    "sfomuseum:flight_id": "20160511-D-UAL-2292",
    "sfomuseum:flight_number": [
      "UA2292", 
      "UAL2292"
    ],
    "sfomuseum:placetype": "flight",
    "src:geom": "sfonoise",
    "wof:belongsto": [
      102191575, 
      1159396321, 
      102087579, 
      85922583, 
      85688637, 
      1662256299, 
      102527513, 
      85633793
    ],
    "wof:country": "US",
    "wof:created": 1582925439,
    "wof:geomhash": "ab1c262cdcde68b15133eea54c0f464a",
    "wof:hierarchy": [
      {
        "building_id": 1159396321,
        "campus_id": 102527513,
        "concourse_id": -1,
        "continent_id": 102191575,
        "country_id": 85633793,
        "county_id": 102087579,
        "event_id": 1662256299,
        "locality_id": 85922583,
        "neighbourhood_id": -1,
        "region_id": 85688637,
        "venue_id": -1,
        "wing_id": -1
      }
    ],
    "wof:id": 1662256299,
    "wof:lastmodified": 1582925439,
    "wof:name": "UAL2292 (SFO-KRIV)",
    "wof:parent_id": -1,
    "wof:placetype": "event",
    "wof:repo": "sfomuseum-data-flights-2016",
    "wof:superseded_by": [],
    "wof:supersedes": []
  },
  "bbox": [
    -122.370943, 
    33.896471, 
    -117.254857, 
    37.61799
  ],
  "geometry": {"coordinates":[[-122.370943,37.61799],[-117.254857,33.896471]],"type":"MultiPoint"}
}
