{
  "id": 1662308557,
  "type": "Feature",
  "properties": {
    "edtf:cessation": "2016-06-08~",
    "edtf:inception": "2016-06-08T20:43:32",
    "flysfo:airline": "WN",
    "flysfo:date": "2016-06-08",
    "flysfo:event": "D",
    "flysfo:flight_number": "WN2729",
    "flysfo:journey": "SFO-KPDX",
    "geom:area": 0,
    "geom:bbox": "-122.597389,37.617990,-122.370943,45.586144",
    "geom:latitude": 41.602067,
    "geom:longitude": -122.484166,
    "iata:airline": "WN",
    "icao:aircraft": "B737",
    "icao:airline": "SWA",
    "mz:is_current": -1,
    "sfomuseum:aircraft_id": 1159289869,
    "sfomuseum:airline_id": 1159285591,
    "sfomuseum:arrival_id": 102532251,
    "sfomuseum:departure_id": 102527513,
    "sfomuseum:flight_id": "20160608-D-SWA-2729",
    "sfomuseum:flight_number": [
      "WN2729", 
      "SWA2729"
    ],
    "sfomuseum:placetype": "flight",
    "src:geom": "sfonoise",
    "wof:belongsto": [
      102527513, 
      102191575, 
      85688637, 
      85922583, 
      1159396321, 
      102087579, 
      1662308557, 
      85633793
    ],
    "wof:country": "US",
    "wof:created": 1582926291,
    "wof:geomhash": "a0e250e9237d15725a2a6f51d6b7a6b6",
    "wof:hierarchy": [
      {
        "building_id": 1159396321,
        "campus_id": 102527513,
        "concourse_id": -1,
        "continent_id": 102191575,
        "country_id": 85633793,
        "county_id": 102087579,
        "event_id": 1662308557,
        "locality_id": 85922583,
        "neighbourhood_id": -1,
        "region_id": 85688637,
        "venue_id": -1,
        "wing_id": -1
      }
    ],
    "wof:id": 1662308557,
    "wof:lastmodified": 1582926291,
    "wof:name": "SWA2729 (SFO-KPDX)",
    "wof:parent_id": -1,
    "wof:placetype": "event",
    "wof:repo": "sfomuseum-data-flights-2016",
    "wof:superseded_by": [],
    "wof:supersedes": []
  },
  "bbox": [
    -122.597389, 
    37.61799, 
    -122.370943, 
    45.586144
  ],
  "geometry": {"coordinates":[[-122.370943,37.61799],[-122.597389,45.586144]],"type":"MultiPoint"}
}
