{
  "id": 1662307617,
  "type": "Feature",
  "properties": {
    "edtf:cessation": "2016-06-08~",
    "edtf:inception": "2016-06-08T11:40:13",
    "flysfo:airline": "AS",
    "flysfo:date": "2016-06-08",
    "flysfo:event": "D",
    "flysfo:flight_number": "AS264",
    "flysfo:journey": "SFO-MMSD",
    "geom:area": 0,
    "geom:bbox": "-122.370943,23.160962,-109.717461,37.617990",
    "geom:latitude": 30.389476000000002,
    "geom:longitude": -116.044202,
    "iata:airline": "AS",
    "icao:aircraft": "B737",
    "icao:airline": "ASA",
    "mz:is_current": -1,
    "sfomuseum:aircraft_id": 1159289869,
    "sfomuseum:airline_id": 1159283813,
    "sfomuseum:arrival_id": 102536441,
    "sfomuseum:departure_id": 102527513,
    "sfomuseum:flight_id": "20160608-D-ASA-264",
    "sfomuseum:flight_number": [
      "AS264", 
      "ASA264"
    ],
    "sfomuseum:placetype": "flight",
    "src:geom": "sfonoise",
    "wof:belongsto": [
      85633793, 
      102527513, 
      102087579, 
      85922583, 
      102191575, 
      1662307617, 
      85688637, 
      1159396321
    ],
    "wof:country": "US",
    "wof:created": 1582926277,
    "wof:geomhash": "7babf6b9ba279da48525185e0724d212",
    "wof:hierarchy": [
      {
        "building_id": 1159396321,
        "campus_id": 102527513,
        "concourse_id": -1,
        "continent_id": 102191575,
        "country_id": 85633793,
        "county_id": 102087579,
        "event_id": 1662307617,
        "locality_id": 85922583,
        "neighbourhood_id": -1,
        "region_id": 85688637,
        "venue_id": -1,
        "wing_id": -1
      }
    ],
    "wof:id": 1662307617,
    "wof:lastmodified": 1582926277,
    "wof:name": "ASA264 (SFO-MMSD)",
    "wof:parent_id": -1,
    "wof:placetype": "event",
    "wof:repo": "sfomuseum-data-flights-2016",
    "wof:superseded_by": [],
    "wof:supersedes": []
  },
  "bbox": [
    -122.370943, 
    23.160962, 
    -109.717461, 
    37.61799
  ],
  "geometry": {"coordinates":[[-122.370943,37.61799],[-109.717461,23.160962]],"type":"MultiPoint"}
}
