{
  "id": 1662235329,
  "type": "Feature",
  "properties": {
    "edtf:cessation": "2016-04-29~",
    "edtf:inception": "2016-04-29T10:52:22",
    "flysfo:airline": "UA",
    "flysfo:date": "2016-04-29",
    "flysfo:event": "D",
    "flysfo:flight_number": "UA1804",
    "flysfo:journey": "SFO-KOMA",
    "geom:area": 0,
    "geom:bbox": "-122.370943,37.617990,-95.897601,41.301438",
    "geom:latitude": 39.459714,
    "geom:longitude": -109.134272,
    "iata:airline": "UA",
    "icao:aircraft": "A320",
    "icao:airline": "UAL",
    "mz:is_current": -1,
    "sfomuseum:aircraft_id": 1159292085,
    "sfomuseum:airline_id": 1159285413,
    "sfomuseum:arrival_id": 102524739,
    "sfomuseum:departure_id": 102527513,
    "sfomuseum:flight_id": "20160429-D-UAL-1804",
    "sfomuseum:flight_number": [
      "UA1804", 
      "UAL1804"
    ],
    "sfomuseum:placetype": "flight",
    "src:geom": "sfonoise",
    "wof:belongsto": [
      85633793, 
      85922583, 
      102527513, 
      102191575, 
      85688637, 
      102087579, 
      1662235329, 
      1159396321
    ],
    "wof:country": "US",
    "wof:created": 1582925032,
    "wof:geomhash": "b2b4de685cac2a2e83e7d43e9bbb14d9",
    "wof:hierarchy": [
      {
        "building_id": 1159396321,
        "campus_id": 102527513,
        "concourse_id": -1,
        "continent_id": 102191575,
        "country_id": 85633793,
        "county_id": 102087579,
        "event_id": 1662235329,
        "locality_id": 85922583,
        "neighbourhood_id": -1,
        "region_id": 85688637,
        "venue_id": -1,
        "wing_id": -1
      }
    ],
    "wof:id": 1662235329,
    "wof:lastmodified": 1582925032,
    "wof:name": "UAL1804 (SFO-KOMA)",
    "wof:parent_id": -1,
    "wof:placetype": "event",
    "wof:repo": "sfomuseum-data-flights-2016",
    "wof:superseded_by": [],
    "wof:supersedes": []
  },
  "bbox": [
    -122.370943, 
    37.61799, 
    -95.897601, 
    41.301438
  ],
  "geometry": {"coordinates":[[-122.370943,37.61799],[-95.897601,41.301438]],"type":"MultiPoint"}
}
