{
  "id": 1662291649,
  "type": "Feature",
  "properties": {
    "edtf:cessation": "2016-05-30T19:11:21",
    "edtf:inception": "2016-05-30~",
    "flysfo:airline": "UA",
    "flysfo:date": "2016-05-30",
    "flysfo:event": "A",
    "flysfo:flight_number": "UA2137",
    "flysfo:journey": "ZSAM-SFO",
    "geom:area": 0,
    "geom:bbox": "-122.370943,24.540839,118.135698,37.617990",
    "geom:latitude": 31.0794145,
    "geom:longitude": -2.117622499999996,
    "iata:airline": "UA",
    "icao:aircraft": "B744",
    "icao:airline": "UAL",
    "mz:is_current": -1,
    "sfomuseum:aircraft_id": 1159289915,
    "sfomuseum:airline_id": 1159285413,
    "sfomuseum:arrival_id": 102527513,
    "sfomuseum:departure_id": 102550865,
    "sfomuseum:flight_id": "20160530-A-UAL-2137",
    "sfomuseum:flight_number": [
      "UA2137", 
      "UAL2137"
    ],
    "sfomuseum:placetype": "flight",
    "src:geom": "sfonoise",
    "wof:belongsto": [
      1159396321, 
      102527513, 
      102087579, 
      1662291649, 
      85633793, 
      102191575, 
      85922583, 
      85688637
    ],
    "wof:country": "US",
    "wof:created": 1582925953,
    "wof:geomhash": "9b7a8ac18e2e6d9aa22af32dfdd43b07",
    "wof:hierarchy": [
      {
        "building_id": 1159396321,
        "campus_id": 102527513,
        "concourse_id": -1,
        "continent_id": 102191575,
        "country_id": 85633793,
        "county_id": 102087579,
        "event_id": 1662291649,
        "locality_id": 85922583,
        "neighbourhood_id": -1,
        "region_id": 85688637,
        "venue_id": -1,
        "wing_id": -1
      }
    ],
    "wof:id": 1662291649,
    "wof:lastmodified": 1582925953,
    "wof:name": "UAL2137 (ZSAM-SFO)",
    "wof:parent_id": -1,
    "wof:placetype": "event",
    "wof:repo": "sfomuseum-data-flights-2016",
    "wof:superseded_by": [],
    "wof:supersedes": []
  },
  "bbox": [
    -122.370943, 
    24.540839, 
    118.135698, 
    37.61799
  ],
  "geometry": {"coordinates":[[118.135698,24.540839],[-122.370943,37.61799]],"type":"MultiPoint"}
}
