{
  "id": 1662327059,
  "type": "Feature",
  "properties": {
    "edtf:cessation": "2016-06-18~",
    "edtf:inception": "2016-06-18T09:53:58",
    "flysfo:airline": "UA",
    "flysfo:date": "2016-06-18",
    "flysfo:event": "D",
    "flysfo:flight_number": "UA467",
    "flysfo:journey": "SFO-CYYC",
    "geom:area": 0,
    "geom:bbox": "-122.370943,37.617990,-114.020920,51.119526",
    "geom:latitude": 44.368758,
    "geom:longitude": -118.1959315,
    "iata:airline": "UA",
    "icao:aircraft": "A319",
    "icao:airline": "UAL",
    "mz:is_current": -1,
    "sfomuseum:aircraft_id": 1159289407,
    "sfomuseum:airline_id": 1159285413,
    "sfomuseum:arrival_id": 102554947,
    "sfomuseum:departure_id": 102527513,
    "sfomuseum:flight_id": "20160618-D-UAL-467",
    "sfomuseum:flight_number": [
      "UA467", 
      "UAL467"
    ],
    "sfomuseum:placetype": "flight",
    "src:geom": "sfonoise",
    "wof:belongsto": [
      85922583, 
      102087579, 
      1159396321, 
      85633793, 
      1662327059, 
      85688637, 
      102527513, 
      102191575
    ],
    "wof:country": "US",
    "wof:created": 1582926597,
    "wof:geomhash": "a7dd599440af55c5534b52449c3164ed",
    "wof:hierarchy": [
      {
        "building_id": 1159396321,
        "campus_id": 102527513,
        "concourse_id": -1,
        "continent_id": 102191575,
        "country_id": 85633793,
        "county_id": 102087579,
        "event_id": 1662327059,
        "locality_id": 85922583,
        "neighbourhood_id": -1,
        "region_id": 85688637,
        "venue_id": -1,
        "wing_id": -1
      }
    ],
    "wof:id": 1662327059,
    "wof:lastmodified": 1582926597,
    "wof:name": "UAL467 (SFO-CYYC)",
    "wof:parent_id": -1,
    "wof:placetype": "event",
    "wof:repo": "sfomuseum-data-flights-2016",
    "wof:superseded_by": [],
    "wof:supersedes": []
  },
  "bbox": [
    -122.370943, 
    37.61799, 
    -114.02092, 
    51.119526
  ],
  "geometry": {"coordinates":[[-122.370943,37.61799],[-114.02092,51.119526]],"type":"MultiPoint"}
}
