{
  "id": 1662086387,
  "type": "Feature",
  "properties": {
    "edtf:cessation": "2016-01-28T13:50:49",
    "edtf:inception": "2016-01-28~",
    "flysfo:airline": "UA",
    "flysfo:date": "2016-01-28",
    "flysfo:event": "A",
    "flysfo:flight_number": "UA1719",
    "flysfo:journey": "IAH-SFO",
    "geom:area": 0,
    "geom:bbox": "-122.370943,29.977186,-95.338444,37.617990",
    "geom:latitude": 33.797588,
    "geom:longitude": -108.8546935,
    "iata:airline": "UA",
    "icao:aircraft": "B753",
    "icao:airline": "UAL",
    "mz:is_current": -1,
    "sfomuseum:aircraft_id": 1159289945,
    "sfomuseum:airline_id": 1159285413,
    "sfomuseum:arrival_id": 102527513,
    "sfomuseum:departure_id": 102534097,
    "sfomuseum:flight_id": "20160128-A-UAL-1719",
    "sfomuseum:flight_number": [
      "UA1719", 
      "UAL1719"
    ],
    "sfomuseum:placetype": "flight",
    "src:geom": "sfonoise",
    "wof:belongsto": [
      1662086387, 
      85922583, 
      85688637, 
      102527513, 
      102191575, 
      1159396321, 
      85633793, 
      102087579
    ],
    "wof:country": "US",
    "wof:created": 1582922454,
    "wof:geomhash": "25dc9d98eae1cd54f40654c6c4fb6929",
    "wof:hierarchy": [
      {
        "building_id": 1159396321,
        "campus_id": 102527513,
        "concourse_id": -1,
        "continent_id": 102191575,
        "country_id": 85633793,
        "county_id": 102087579,
        "event_id": 1662086387,
        "locality_id": 85922583,
        "neighbourhood_id": -1,
        "region_id": 85688637,
        "venue_id": -1,
        "wing_id": -1
      }
    ],
    "wof:id": 1662086387,
    "wof:lastmodified": 1582922454,
    "wof:name": "UAL1719 (IAH-SFO)",
    "wof:parent_id": -1,
    "wof:placetype": "event",
    "wof:repo": "sfomuseum-data-flights-2016",
    "wof:superseded_by": [],
    "wof:supersedes": []
  },
  "bbox": [
    -122.370943, 
    29.977186, 
    -95.338444, 
    37.61799
  ],
  "geometry": {"coordinates":[[-95.338444,29.977186],[-122.370943,37.61799]],"type":"MultiPoint"}
}
