{
  "id": 1629149039,
  "type": "Feature",
  "properties": {
    "edtf:cessation": "2016-06-26T13:28:49",
    "edtf:inception": "2016-06-26~",
    "flysfo:airline": "FJ",
    "flysfo:date": "2016-06-26",
    "flysfo:event": "A",
    "flysfo:flight_number": "FJ870",
    "flysfo:journey": "NFFN-SFO",
    "geom:area": 0,
    "geom:bbox": "-122.370943,-17.806865,177.376360,37.617990",
    "geom:latitude": 9.9055625,
    "geom:longitude": 27.502708500000004,
    "iata:airline": "FJ",
    "icao:aircraft": "A332",
    "icao:airline": "FJI",
    "mz:is_current": -1,
    "sfomuseum:aircraft_id": 1159289421,
    "sfomuseum:airline_id": 1159283717,
    "sfomuseum:arrival_id": 102527513,
    "sfomuseum:departure_id": 102555575,
    "sfomuseum:flight_id": "20160626-A-FJI-870",
    "sfomuseum:flight_number": [
      "FJ870", 
      "FJI870"
    ],
    "sfomuseum:placetype": "flight",
    "src:geom": "sfonoise",
    "wof:belongsto": [
      1629149039, 
      102191575, 
      102087579, 
      85922583, 
      85633793, 
      85688637, 
      1159396321, 
      102527513
    ],
    "wof:country": "US",
    "wof:created": 1582926826,
    "wof:geomhash": "b214b79a783c652f01bac93c835ba981",
    "wof:hierarchy": [
      {
        "building_id": 1159396321,
        "campus_id": 102527513,
        "concourse_id": -1,
        "continent_id": 102191575,
        "country_id": 85633793,
        "county_id": 102087579,
        "event_id": 1629149039,
        "locality_id": 85922583,
        "neighbourhood_id": -1,
        "region_id": 85688637,
        "venue_id": -1,
        "wing_id": -1
      }
    ],
    "wof:id": 1629149039,
    "wof:lastmodified": 1582926826,
    "wof:name": "FJI870 (NFFN-SFO)",
    "wof:parent_id": -1,
    "wof:placetype": "event",
    "wof:repo": "sfomuseum-data-flights-2016",
    "wof:superseded_by": [],
    "wof:supersedes": []
  },
  "bbox": [
    -122.370943, 
    -17.806865, 
    177.37636, 
    37.61799
  ],
  "geometry": {"coordinates":[[177.37636,-17.806865],[-122.370943,37.61799]],"type":"MultiPoint"}
}
