{
  "id": 1662263403,
  "type": "Feature",
  "properties": {
    "edtf:cessation": "2016-05-15~",
    "edtf:inception": "2016-05-15T08:41:20",
    "flysfo:airline": "UA",
    "flysfo:date": "2016-05-15",
    "flysfo:event": "D",
    "flysfo:flight_number": "UA2297",
    "flysfo:journey": "SFO-KHRT",
    "geom:area": 0,
    "geom:bbox": "-122.370943,30.412693,-86.702027,37.617990",
    "geom:latitude": 34.0153415,
    "geom:longitude": -104.536485,
    "iata:airline": "UA",
    "icao:aircraft": "B744",
    "icao:airline": "UAL",
    "mz:is_current": -1,
    "sfomuseum:aircraft_id": 1159289915,
    "sfomuseum:airline_id": 1159285413,
    "sfomuseum:arrival_id": 102534041,
    "sfomuseum:departure_id": 102527513,
    "sfomuseum:flight_id": "20160515-D-UAL-2297",
    "sfomuseum:flight_number": [
      "UA2297", 
      "UAL2297"
    ],
    "sfomuseum:placetype": "flight",
    "src:geom": "sfonoise",
    "wof:belongsto": [
      85688637, 
      1159396321, 
      1662263403, 
      85922583, 
      102527513, 
      102191575, 
      85633793, 
      102087579
    ],
    "wof:country": "US",
    "wof:created": 1582925552,
    "wof:geomhash": "508347902811390f6c6fa25268d9f915",
    "wof:hierarchy": [
      {
        "building_id": 1159396321,
        "campus_id": 102527513,
        "concourse_id": -1,
        "continent_id": 102191575,
        "country_id": 85633793,
        "county_id": 102087579,
        "event_id": 1662263403,
        "locality_id": 85922583,
        "neighbourhood_id": -1,
        "region_id": 85688637,
        "venue_id": -1,
        "wing_id": -1
      }
    ],
    "wof:id": 1662263403,
    "wof:lastmodified": 1582925552,
    "wof:name": "UAL2297 (SFO-KHRT)",
    "wof:parent_id": -1,
    "wof:placetype": "event",
    "wof:repo": "sfomuseum-data-flights-2016",
    "wof:superseded_by": [],
    "wof:supersedes": []
  },
  "bbox": [
    -122.370943, 
    30.412693, 
    -86.702027, 
    37.61799
  ],
  "geometry": {"coordinates":[[-122.370943,37.61799],[-86.702027,30.412693]],"type":"MultiPoint"}
}
