{
  "id": 1662330263,
  "type": "Feature",
  "properties": {
    "edtf:cessation": "2016-06-19~",
    "edtf:inception": "2016-06-19T23:57:46",
    "flysfo:airline": "AC",
    "flysfo:date": "2016-06-19",
    "flysfo:event": "D",
    "flysfo:flight_number": "AC750",
    "flysfo:journey": "SFO-CYUL",
    "geom:area": 0,
    "geom:bbox": "-122.370943,37.617990,-73.744749,45.462004",
    "geom:latitude": 41.539997,
    "geom:longitude": -98.057846,
    "iata:airline": "AC",
    "icao:aircraft": "A320",
    "icao:airline": "ACA",
    "mz:is_current": -1,
    "sfomuseum:aircraft_id": 1159292085,
    "sfomuseum:airline_id": 1159283597,
    "sfomuseum:arrival_id": 102554351,
    "sfomuseum:departure_id": 102527513,
    "sfomuseum:flight_id": "20160619-D-ACA-750",
    "sfomuseum:flight_number": [
      "AC750", 
      "ACA750"
    ],
    "sfomuseum:placetype": "flight",
    "src:geom": "sfonoise",
    "wof:belongsto": [
      102191575, 
      85633793, 
      85688637, 
      1159396321, 
      102087579, 
      1662330263, 
      102527513, 
      85922583
    ],
    "wof:country": "US",
    "wof:created": 1582926641,
    "wof:geomhash": "60b8ec845b4af47518c8aaafc3d98633",
    "wof:hierarchy": [
      {
        "building_id": 1159396321,
        "campus_id": 102527513,
        "concourse_id": -1,
        "continent_id": 102191575,
        "country_id": 85633793,
        "county_id": 102087579,
        "event_id": 1662330263,
        "locality_id": 85922583,
        "neighbourhood_id": -1,
        "region_id": 85688637,
        "venue_id": -1,
        "wing_id": -1
      }
    ],
    "wof:id": 1662330263,
    "wof:lastmodified": 1582926641,
    "wof:name": "ACA750 (SFO-CYUL)",
    "wof:parent_id": -1,
    "wof:placetype": "event",
    "wof:repo": "sfomuseum-data-flights-2016",
    "wof:superseded_by": [],
    "wof:supersedes": []
  },
  "bbox": [
    -122.370943, 
    37.61799, 
    -73.744749, 
    45.462004
  ],
  "geometry": {"coordinates":[[-122.370943,37.61799],[-73.744749,45.462004]],"type":"MultiPoint"}
}
