{
  "id": 1662307231,
  "type": "Feature",
  "properties": {
    "edtf:cessation": "2016-06-08~",
    "edtf:inception": "2016-06-08T07:54:32",
    "flysfo:airline": "DL",
    "flysfo:date": "2016-06-08",
    "flysfo:event": "D",
    "flysfo:flight_number": "DL1781",
    "flysfo:journey": "SFO-KATL",
    "geom:area": 0,
    "geom:bbox": "-122.370943,33.636518,-84.430686,37.617990",
    "geom:latitude": 35.627254,
    "geom:longitude": -103.4008145,
    "iata:airline": "DL",
    "icao:aircraft": "B763",
    "icao:airline": "DAL",
    "mz:is_current": -1,
    "sfomuseum:aircraft_id": 1159289965,
    "sfomuseum:airline_id": 1159284261,
    "sfomuseum:arrival_id": 102526927,
    "sfomuseum:departure_id": 102527513,
    "sfomuseum:flight_id": "20160608-D-DAL-1781",
    "sfomuseum:flight_number": [
      "DL1781", 
      "DAL1781"
    ],
    "sfomuseum:placetype": "flight",
    "src:geom": "sfonoise",
    "wof:belongsto": [
      1159396321, 
      1662307231, 
      102191575, 
      102087579, 
      102527513, 
      85922583, 
      85688637, 
      85633793
    ],
    "wof:country": "US",
    "wof:created": 1582926272,
    "wof:geomhash": "8306f5516cededf93440c49d2c7be198",
    "wof:hierarchy": [
      {
        "building_id": 1159396321,
        "campus_id": 102527513,
        "concourse_id": -1,
        "continent_id": 102191575,
        "country_id": 85633793,
        "county_id": 102087579,
        "event_id": 1662307231,
        "locality_id": 85922583,
        "neighbourhood_id": -1,
        "region_id": 85688637,
        "venue_id": -1,
        "wing_id": -1
      }
    ],
    "wof:id": 1662307231,
    "wof:lastmodified": 1582926272,
    "wof:name": "DAL1781 (SFO-KATL)",
    "wof:parent_id": -1,
    "wof:placetype": "event",
    "wof:repo": "sfomuseum-data-flights-2016",
    "wof:superseded_by": [],
    "wof:supersedes": []
  },
  "bbox": [
    -122.370943, 
    33.636518, 
    -84.430686, 
    37.61799
  ],
  "geometry": {"coordinates":[[-122.370943,37.61799],[-84.430686,33.636518]],"type":"MultiPoint"}
}
