{
  "id": 1662059477,
  "type": "Feature",
  "properties": {
    "edtf:cessation": "2016-01-10T18:56:34",
    "edtf:inception": "2016-01-10~",
    "flysfo:airline": "UA",
    "flysfo:date": "2016-01-10",
    "flysfo:event": "A",
    "flysfo:flight_number": "UA391",
    "flysfo:journey": "LAX-SFO",
    "geom:area": 0,
    "geom:bbox": "-122.370943,33.942593,-118.389510,37.617990",
    "geom:latitude": 35.780291500000004,
    "geom:longitude": -120.38022649999999,
    "iata:airline": "UA",
    "icao:aircraft": "A319",
    "icao:airline": "UAL",
    "mz:is_current": -1,
    "sfomuseum:aircraft_id": 1159289407,
    "sfomuseum:airline_id": 1159285413,
    "sfomuseum:arrival_id": 102527513,
    "sfomuseum:departure_id": 102533795,
    "sfomuseum:flight_id": "20160110-A-UAL-391",
    "sfomuseum:flight_number": [
      "UA391", 
      "UAL391"
    ],
    "sfomuseum:placetype": "flight",
    "src:geom": "sfonoise",
    "wof:belongsto": [
      102087579, 
      1662059477, 
      85922583, 
      102527513, 
      85633793, 
      102191575, 
      1159396321, 
      85688637
    ],
    "wof:country": "US",
    "wof:created": 1582922100,
    "wof:geomhash": "f16008bc2ad68c6d1bc593247c6c74a9",
    "wof:hierarchy": [
      {
        "building_id": 1159396321,
        "campus_id": 102527513,
        "concourse_id": -1,
        "continent_id": 102191575,
        "country_id": 85633793,
        "county_id": 102087579,
        "event_id": 1662059477,
        "locality_id": 85922583,
        "neighbourhood_id": -1,
        "region_id": 85688637,
        "venue_id": -1,
        "wing_id": -1
      }
    ],
    "wof:id": 1662059477,
    "wof:lastmodified": 1582922100,
    "wof:name": "UAL391 (LAX-SFO)",
    "wof:parent_id": -1,
    "wof:placetype": "event",
    "wof:repo": "sfomuseum-data-flights-2016",
    "wof:superseded_by": [],
    "wof:supersedes": []
  },
  "bbox": [
    -122.370943, 
    33.942593, 
    -118.38951, 
    37.61799
  ],
  "geometry": {"coordinates":[[-118.38951,33.942593],[-122.370943,37.61799]],"type":"MultiPoint"}
}
