{
  "id": 1662246317,
  "type": "Feature",
  "properties": {
    "edtf:cessation": "2016-05-05T16:44:35",
    "edtf:inception": "2016-05-05~",
    "flysfo:airline": "TK",
    "flysfo:date": "2016-05-05",
    "flysfo:event": "A",
    "flysfo:flight_number": "TK79K",
    "flysfo:journey": "LTBA-SFO",
    "geom:area": 0,
    "geom:bbox": "-122.370943,37.617990,28.818113,40.981491",
    "geom:latitude": 39.2997405,
    "geom:longitude": -46.776415,
    "iata:airline": "TK",
    "icao:aircraft": "B77W",
    "icao:airline": "THY",
    "mz:is_current": -1,
    "sfomuseum:aircraft_id": 1159289993,
    "sfomuseum:airline_id": 1159285391,
    "sfomuseum:arrival_id": 102527513,
    "sfomuseum:departure_id": 102535819,
    "sfomuseum:flight_id": "20160505-A-THY-79K",
    "sfomuseum:flight_number": [
      "TK79K", 
      "THY79K"
    ],
    "sfomuseum:placetype": "flight",
    "src:geom": "sfonoise",
    "wof:belongsto": [
      102191575, 
      85633793, 
      85922583, 
      102087579, 
      1159396321, 
      85688637, 
      1662246317, 
      102527513
    ],
    "wof:country": "US",
    "wof:created": 1582925269,
    "wof:geomhash": "5dd5bc508b9b8f359c9c05d0fd4aaecc",
    "wof:hierarchy": [
      {
        "building_id": 1159396321,
        "campus_id": 102527513,
        "concourse_id": -1,
        "continent_id": 102191575,
        "country_id": 85633793,
        "county_id": 102087579,
        "event_id": 1662246317,
        "locality_id": 85922583,
        "neighbourhood_id": -1,
        "region_id": 85688637,
        "venue_id": -1,
        "wing_id": -1
      }
    ],
    "wof:id": 1662246317,
    "wof:lastmodified": 1582925269,
    "wof:name": "THY79K (LTBA-SFO)",
    "wof:parent_id": -1,
    "wof:placetype": "event",
    "wof:repo": "sfomuseum-data-flights-2016",
    "wof:superseded_by": [],
    "wof:supersedes": []
  },
  "bbox": [
    -122.370943, 
    37.61799, 
    28.818113, 
    40.981491
  ],
  "geometry": {"coordinates":[[28.818113,40.981491],[-122.370943,37.61799]],"type":"MultiPoint"}
}
