{
  "id": 1629144161,
  "type": "Feature",
  "properties": {
    "edtf:cessation": "2016-06-25~",
    "edtf:inception": "2016-06-25T06:06:23",
    "flysfo:airline": "DL",
    "flysfo:date": "2016-06-25",
    "flysfo:event": "D",
    "flysfo:flight_number": "DL1794",
    "flysfo:journey": "SFO-KSLC",
    "geom:area": 0,
    "geom:bbox": "-122.370943,37.617990,-111.980566,40.782170",
    "geom:latitude": 39.20008,
    "geom:longitude": -117.1757545,
    "iata:airline": "DL",
    "icao:aircraft": "A320",
    "icao:airline": "DAL",
    "mz:is_current": -1,
    "sfomuseum:aircraft_id": 1159292085,
    "sfomuseum:airline_id": 1159284261,
    "sfomuseum:arrival_id": 102527363,
    "sfomuseum:departure_id": 102527513,
    "sfomuseum:flight_id": "20160625-D-DAL-1794",
    "sfomuseum:flight_number": [
      "DL1794", 
      "DAL1794"
    ],
    "sfomuseum:placetype": "flight",
    "src:geom": "sfonoise",
    "wof:belongsto": [
      102527513, 
      85688637, 
      1159396321, 
      85633793, 
      102087579, 
      85922583, 
      102191575, 
      1629144161
    ],
    "wof:country": "US",
    "wof:created": 1582926785,
    "wof:geomhash": "b2ae00b77ffd1072a2eb4148779a5d9e",
    "wof:hierarchy": [
      {
        "building_id": 1159396321,
        "campus_id": 102527513,
        "concourse_id": -1,
        "continent_id": 102191575,
        "country_id": 85633793,
        "county_id": 102087579,
        "event_id": 1629144161,
        "locality_id": 85922583,
        "neighbourhood_id": -1,
        "region_id": 85688637,
        "venue_id": -1,
        "wing_id": -1
      }
    ],
    "wof:id": 1629144161,
    "wof:lastmodified": 1582926785,
    "wof:name": "DAL1794 (SFO-KSLC)",
    "wof:parent_id": -1,
    "wof:placetype": "event",
    "wof:repo": "sfomuseum-data-flights-2016",
    "wof:superseded_by": [],
    "wof:supersedes": []
  },
  "bbox": [
    -122.370943, 
    37.61799, 
    -111.980566, 
    40.78217
  ],
  "geometry": {"coordinates":[[-122.370943,37.61799],[-111.980566,40.78217]],"type":"MultiPoint"}
}
