{
  "id": 1629078037,
  "type": "Feature",
  "properties": {
    "edtf:cessation": "2016-01-17~",
    "edtf:inception": "2016-01-17T06:41:15",
    "flysfo:airline": "WN",
    "flysfo:date": "2016-01-17",
    "flysfo:event": "D",
    "flysfo:flight_number": "WN411",
    "flysfo:journey": "SFO-MDW",
    "geom:area": 0,
    "geom:bbox": "-122.370943,37.617990,-87.745903,41.787532",
    "geom:latitude": 39.702760999999995,
    "geom:longitude": -105.058423,
    "iata:airline": "WN",
    "icao:aircraft": "B737",
    "icao:airline": "SWA",
    "mz:is_current": -1,
    "sfomuseum:aircraft_id": 1159289869,
    "sfomuseum:airline_id": 1159285591,
    "sfomuseum:arrival_id": 102531205,
    "sfomuseum:departure_id": 102527513,
    "sfomuseum:flight_id": "20160117-D-SWA-411",
    "sfomuseum:flight_number": [
      "WN411", 
      "SWA411"
    ],
    "sfomuseum:placetype": "flight",
    "src:geom": "sfonoise",
    "wof:belongsto": [
      102191575, 
      1629078037, 
      1159396321, 
      85922583, 
      102527513, 
      85633793, 
      102087579, 
      85688637
    ],
    "wof:country": "US",
    "wof:created": 1582922222,
    "wof:geomhash": "b0d868dab19a217943f06d97e1bf7ce6",
    "wof:hierarchy": [
      {
        "building_id": 1159396321,
        "campus_id": 102527513,
        "concourse_id": -1,
        "continent_id": 102191575,
        "country_id": 85633793,
        "county_id": 102087579,
        "event_id": 1629078037,
        "locality_id": 85922583,
        "neighbourhood_id": -1,
        "region_id": 85688637,
        "venue_id": -1,
        "wing_id": -1
      }
    ],
    "wof:id": 1629078037,
    "wof:lastmodified": 1582922222,
    "wof:name": "SWA411 (SFO-MDW)",
    "wof:parent_id": -1,
    "wof:placetype": "event",
    "wof:repo": "sfomuseum-data-flights-2016",
    "wof:superseded_by": [],
    "wof:supersedes": []
  },
  "bbox": [
    -122.370943, 
    37.61799, 
    -87.745903, 
    41.787532
  ],
  "geometry": {"coordinates":[[-122.370943,37.61799],[-87.745903,41.787532]],"type":"MultiPoint"}
}
