{
  "id": 1662139019,
  "type": "Feature",
  "properties": {
    "edtf:cessation": "2016-03-03T21:05:21",
    "edtf:inception": "2016-03-03~",
    "flysfo:airline": "HA",
    "flysfo:date": "2016-03-03",
    "flysfo:event": "A",
    "flysfo:flight_number": "HA12",
    "flysfo:journey": "HNL-SFO",
    "geom:area": 0,
    "geom:bbox": "-157.918416,21.332508,-122.370943,37.617990",
    "geom:latitude": 29.475248999999998,
    "geom:longitude": -140.1446795,
    "iata:airline": "HA",
    "icao:aircraft": "A332",
    "icao:airline": "HAL",
    "mz:is_current": -1,
    "sfomuseum:aircraft_id": 1159289421,
    "sfomuseum:airline_id": 1159284489,
    "sfomuseum:arrival_id": 102527513,
    "sfomuseum:departure_id": 102533997,
    "sfomuseum:flight_id": "20160303-A-HAL-12",
    "sfomuseum:flight_number": [
      "HA12", 
      "HAL12"
    ],
    "sfomuseum:placetype": "flight",
    "src:geom": "sfonoise",
    "wof:belongsto": [
      85922583, 
      1159396321, 
      102527513, 
      85633793, 
      85688637, 
      1662139019, 
      102191575, 
      102087579
    ],
    "wof:country": "US",
    "wof:created": 1582923379,
    "wof:geomhash": "1ad63fa22de9103ed4396c0ca683f63f",
    "wof:hierarchy": [
      {
        "building_id": 1159396321,
        "campus_id": 102527513,
        "concourse_id": -1,
        "continent_id": 102191575,
        "country_id": 85633793,
        "county_id": 102087579,
        "event_id": 1662139019,
        "locality_id": 85922583,
        "neighbourhood_id": -1,
        "region_id": 85688637,
        "venue_id": -1,
        "wing_id": -1
      }
    ],
    "wof:id": 1662139019,
    "wof:lastmodified": 1582923379,
    "wof:name": "HAL12 (HNL-SFO)",
    "wof:parent_id": -1,
    "wof:placetype": "event",
    "wof:repo": "sfomuseum-data-flights-2016",
    "wof:superseded_by": [],
    "wof:supersedes": []
  },
  "bbox": [
    -157.918416, 
    21.332508, 
    -122.370943, 
    37.61799
  ],
  "geometry": {"coordinates":[[-157.918416,21.332508],[-122.370943,37.61799]],"type":"MultiPoint"}
}
