{
  "id": 1662078911,
  "type": "Feature",
  "properties": {
    "edtf:cessation": "2016-01-23~",
    "edtf:inception": "2016-01-23T13:03:05",
    "flysfo:airline": "UA",
    "flysfo:date": "2016-01-23",
    "flysfo:event": "D",
    "flysfo:flight_number": "UA416",
    "flysfo:journey": "SFO-JAC",
    "geom:area": 0,
    "geom:bbox": "-122.370943,37.617990,-110.738540,43.606600",
    "geom:latitude": 40.612295,
    "geom:longitude": -116.5547415,
    "iata:airline": "UA",
    "icao:aircraft": "A320",
    "icao:airline": "UAL",
    "mz:is_current": -1,
    "sfomuseum:aircraft_id": 1159292085,
    "sfomuseum:airline_id": 1159285413,
    "sfomuseum:arrival_id": 102534217,
    "sfomuseum:departure_id": 102527513,
    "sfomuseum:flight_id": "20160123-D-UAL-416",
    "sfomuseum:flight_number": [
      "UA416", 
      "UAL416"
    ],
    "sfomuseum:placetype": "flight",
    "src:geom": "sfonoise",
    "wof:belongsto": [
      102191575, 
      85922583, 
      85688637, 
      102087579, 
      1159396321, 
      102527513, 
      1662078911, 
      85633793
    ],
    "wof:country": "US",
    "wof:created": 1582922349,
    "wof:geomhash": "9f2aefec298b0356dc0b4065c5b61f73",
    "wof:hierarchy": [
      {
        "building_id": 1159396321,
        "campus_id": 102527513,
        "concourse_id": -1,
        "continent_id": 102191575,
        "country_id": 85633793,
        "county_id": 102087579,
        "event_id": 1662078911,
        "locality_id": 85922583,
        "neighbourhood_id": -1,
        "region_id": 85688637,
        "venue_id": -1,
        "wing_id": -1
      }
    ],
    "wof:id": 1662078911,
    "wof:lastmodified": 1582922349,
    "wof:name": "UAL416 (SFO-JAC)",
    "wof:parent_id": -1,
    "wof:placetype": "event",
    "wof:repo": "sfomuseum-data-flights-2016",
    "wof:superseded_by": [],
    "wof:supersedes": []
  },
  "bbox": [
    -122.370943, 
    37.61799, 
    -110.73854, 
    43.6066
  ],
  "geometry": {"coordinates":[[-122.370943,37.61799],[-110.73854,43.6066]],"type":"MultiPoint"}
}
