{
  "id": 1679263391,
  "type": "Feature",
  "properties": {
    "edtf:cessation": "2016-12-10~",
    "edtf:inception": "2016-12-10T11:46:07",
    "flysfo:airline": "WN",
    "flysfo:date": "2016-12-10",
    "flysfo:event": "D",
    "flysfo:flight_number": "WN5320",
    "flysfo:journey": "SFO-KSLC",
    "geom:area": 0,
    "geom:bbox": "-122.370943,37.617990,-111.980566,40.782170",
    "geom:latitude": 39.20008,
    "geom:longitude": -117.1757545,
    "iata:airline": "WN",
    "icao:aircraft": "B733",
    "icao:airline": "SWA",
    "mz:is_current": -1,
    "sfomuseum:aircraft_id": 1159289851,
    "sfomuseum:airline_id": 1159285591,
    "sfomuseum:arrival_id": 102527363,
    "sfomuseum:departure_id": 102527513,
    "sfomuseum:flight_id": "20161210-D-SWA-5320",
    "sfomuseum:flight_number": [
      "WN5320", 
      "SWA5320"
    ],
    "sfomuseum:placetype": "flight",
    "src:geom": "sfonoise",
    "wof:belongsto": [
      102191575, 
      1679263391, 
      1159157271, 
      85922583, 
      85688637, 
      85633793, 
      102087579, 
      102527513
    ],
    "wof:country": "US",
    "wof:created": 1582933985,
    "wof:geomhash": "b2ae00b77ffd1072a2eb4148779a5d9e",
    "wof:hierarchy": [
      {
        "building_id": 1159157271,
        "campus_id": 102527513,
        "concourse_id": -1,
        "continent_id": 102191575,
        "country_id": 85633793,
        "county_id": 102087579,
        "event_id": 1679263391,
        "locality_id": 85922583,
        "neighbourhood_id": -1,
        "region_id": 85688637,
        "venue_id": -1,
        "wing_id": -1
      }
    ],
    "wof:id": 1679263391,
    "wof:lastmodified": 1582933985,
    "wof:name": "SWA5320 (SFO-KSLC)",
    "wof:parent_id": -1,
    "wof:placetype": "event",
    "wof:repo": "sfomuseum-data-flights-2016",
    "wof:superseded_by": [],
    "wof:supersedes": []
  },
  "bbox": [
    -122.370943, 
    37.61799, 
    -111.980566, 
    40.78217
  ],
  "geometry": {"coordinates":[[-122.370943,37.61799],[-111.980566,40.78217]],"type":"MultiPoint"}
}
