{
  "id": 1629138379,
  "type": "Feature",
  "properties": {
    "edtf:cessation": "2016-06-23T17:03:09",
    "edtf:inception": "2016-06-23~",
    "flysfo:airline": "FX",
    "flysfo:date": "2016-06-23",
    "flysfo:event": "A",
    "flysfo:flight_number": "FX700",
    "flysfo:journey": "KMEM-SFO",
    "geom:area": 0,
    "geom:bbox": "-122.370943,35.048890,-89.981998,37.617990",
    "geom:latitude": 36.333439999999996,
    "geom:longitude": -106.1764705,
    "iata:airline": "FX",
    "icao:aircraft": "DC10",
    "icao:airline": "FDX",
    "mz:is_current": -1,
    "sfomuseum:aircraft_id": 1159291259,
    "sfomuseum:airline_id": 1159285989,
    "sfomuseum:arrival_id": 102527513,
    "sfomuseum:departure_id": 102527185,
    "sfomuseum:flight_id": "20160623-A-FDX-700",
    "sfomuseum:flight_number": [
      "FX700", 
      "FDX700"
    ],
    "sfomuseum:placetype": "flight",
    "src:geom": "sfonoise",
    "wof:belongsto": [
      85688637, 
      102527513, 
      102191575, 
      1629138379, 
      1159396321, 
      85922583, 
      85633793, 
      102087579
    ],
    "wof:country": "US",
    "wof:created": 1582926740,
    "wof:geomhash": "6d798bc66034dc17109500bf89e39585",
    "wof:hierarchy": [
      {
        "building_id": 1159396321,
        "campus_id": 102527513,
        "concourse_id": -1,
        "continent_id": 102191575,
        "country_id": 85633793,
        "county_id": 102087579,
        "event_id": 1629138379,
        "locality_id": 85922583,
        "neighbourhood_id": -1,
        "region_id": 85688637,
        "venue_id": -1,
        "wing_id": -1
      }
    ],
    "wof:id": 1629138379,
    "wof:lastmodified": 1582926740,
    "wof:name": "FDX700 (KMEM-SFO)",
    "wof:parent_id": -1,
    "wof:placetype": "event",
    "wof:repo": "sfomuseum-data-flights-2016",
    "wof:superseded_by": [],
    "wof:supersedes": []
  },
  "bbox": [
    -122.370943, 
    35.04889, 
    -89.981998, 
    37.61799
  ],
  "geometry": {"coordinates":[[-89.981998,35.04889],[-122.370943,37.61799]],"type":"MultiPoint"}
}
