{
  "id": 1662307577,
  "type": "Feature",
  "properties": {
    "edtf:cessation": "2016-06-08~",
    "edtf:inception": "2016-06-08T11:08:54",
    "flysfo:airline": "UA",
    "flysfo:date": "2016-06-08",
    "flysfo:event": "D",
    "flysfo:flight_number": "UA1646",
    "flysfo:journey": "SFO-KAUS",
    "geom:area": 0,
    "geom:bbox": "-122.370943,30.206175,-97.643029,37.617990",
    "geom:latitude": 33.9120825,
    "geom:longitude": -110.006986,
    "iata:airline": "UA",
    "icao:aircraft": "B738",
    "icao:airline": "UAL",
    "mz:is_current": -1,
    "sfomuseum:aircraft_id": 1159289871,
    "sfomuseum:airline_id": 1159285413,
    "sfomuseum:arrival_id": 102521851,
    "sfomuseum:departure_id": 102527513,
    "sfomuseum:flight_id": "20160608-D-UAL-1646",
    "sfomuseum:flight_number": [
      "UA1646", 
      "UAL1646"
    ],
    "sfomuseum:placetype": "flight",
    "src:geom": "sfonoise",
    "wof:belongsto": [
      1662307577, 
      1159396321, 
      102191575, 
      102087579, 
      85633793, 
      85922583, 
      85688637, 
      102527513
    ],
    "wof:country": "US",
    "wof:created": 1582926276,
    "wof:geomhash": "f1e29c4a83094711ef061292cfad3358",
    "wof:hierarchy": [
      {
        "building_id": 1159396321,
        "campus_id": 102527513,
        "concourse_id": -1,
        "continent_id": 102191575,
        "country_id": 85633793,
        "county_id": 102087579,
        "event_id": 1662307577,
        "locality_id": 85922583,
        "neighbourhood_id": -1,
        "region_id": 85688637,
        "venue_id": -1,
        "wing_id": -1
      }
    ],
    "wof:id": 1662307577,
    "wof:lastmodified": 1582926276,
    "wof:name": "UAL1646 (SFO-KAUS)",
    "wof:parent_id": -1,
    "wof:placetype": "event",
    "wof:repo": "sfomuseum-data-flights-2016",
    "wof:superseded_by": [],
    "wof:supersedes": []
  },
  "bbox": [
    -122.370943, 
    30.206175, 
    -97.643029, 
    37.61799
  ],
  "geometry": {"coordinates":[[-122.370943,37.61799],[-97.643029,30.206175]],"type":"MultiPoint"}
}
