{
  "id": 1662161531,
  "type": "Feature",
  "properties": {
    "edtf:cessation": "2016-03-17T19:05:54",
    "edtf:inception": "2016-03-17~",
    "flysfo:airline": "VX",
    "flysfo:date": "2016-03-17",
    "flysfo:event": "A",
    "flysfo:flight_number": "VX279",
    "flysfo:journey": "MMSD-SFO",
    "geom:area": 0,
    "geom:bbox": "-122.370943,23.160962,-109.717461,37.617990",
    "geom:latitude": 30.389476000000002,
    "geom:longitude": -116.044202,
    "iata:airline": "VX",
    "icao:aircraft": "A320",
    "icao:airline": "VRD",
    "mz:is_current": -1,
    "sfomuseum:aircraft_id": 1159292085,
    "sfomuseum:airline_id": 1159285481,
    "sfomuseum:arrival_id": 102527513,
    "sfomuseum:departure_id": 102536441,
    "sfomuseum:flight_id": "20160317-A-VRD-279",
    "sfomuseum:flight_number": [
      "VX279", 
      "VRD279"
    ],
    "sfomuseum:placetype": "flight",
    "src:geom": "sfonoise",
    "wof:belongsto": [
      85633793, 
      102087579, 
      85922583, 
      102527513, 
      102191575, 
      1662161531, 
      85688637, 
      1159396321
    ],
    "wof:country": "US",
    "wof:created": 1582923721,
    "wof:geomhash": "57b2b594ef41523ab9fe7c26d147f9bd",
    "wof:hierarchy": [
      {
        "building_id": 1159396321,
        "campus_id": 102527513,
        "concourse_id": -1,
        "continent_id": 102191575,
        "country_id": 85633793,
        "county_id": 102087579,
        "event_id": 1662161531,
        "locality_id": 85922583,
        "neighbourhood_id": -1,
        "region_id": 85688637,
        "venue_id": -1,
        "wing_id": -1
      }
    ],
    "wof:id": 1662161531,
    "wof:lastmodified": 1582923721,
    "wof:name": "VRD279 (MMSD-SFO)",
    "wof:parent_id": -1,
    "wof:placetype": "event",
    "wof:repo": "sfomuseum-data-flights-2016",
    "wof:superseded_by": [],
    "wof:supersedes": []
  },
  "bbox": [
    -122.370943, 
    23.160962, 
    -109.717461, 
    37.61799
  ],
  "geometry": {"coordinates":[[-109.717461,23.160962],[-122.370943,37.61799]],"type":"MultiPoint"}
}
