{
  "id": 1679316855,
  "type": "Feature",
  "properties": {
    "edtf:cessation": "2016-12-26T13:23:15",
    "edtf:inception": "2016-12-26~",
    "flysfo:airline": "UA",
    "flysfo:date": "2016-12-26",
    "flysfo:event": "A",
    "flysfo:flight_number": "UA2225",
    "flysfo:journey": "KIND-SFO",
    "geom:area": 0,
    "geom:bbox": "-122.370943,37.617990,-86.278675,39.730262",
    "geom:latitude": 38.674126,
    "geom:longitude": -104.324809,
    "iata:airline": "UA",
    "icao:aircraft": "B764",
    "icao:airline": "UAL",
    "mz:is_current": -1,
    "sfomuseum:aircraft_id": 1394298249,
    "sfomuseum:airline_id": 1159285413,
    "sfomuseum:arrival_id": 102527513,
    "sfomuseum:departure_id": 102534155,
    "sfomuseum:flight_id": "20161226-A-UAL-2225",
    "sfomuseum:flight_number": [
      "UA2225", 
      "UAL2225"
    ],
    "sfomuseum:placetype": "flight",
    "src:geom": "sfonoise",
    "wof:belongsto": [
      85688637, 
      1159157271, 
      1679316855, 
      85633793, 
      102527513, 
      102191575, 
      102087579, 
      85922583
    ],
    "wof:country": "US",
    "wof:created": 1582934505,
    "wof:geomhash": "c95405ad82a47404b222d64c163ad7d9",
    "wof:hierarchy": [
      {
        "building_id": 1159157271,
        "campus_id": 102527513,
        "concourse_id": -1,
        "continent_id": 102191575,
        "country_id": 85633793,
        "county_id": 102087579,
        "event_id": 1679316855,
        "locality_id": 85922583,
        "neighbourhood_id": -1,
        "region_id": 85688637,
        "venue_id": -1,
        "wing_id": -1
      }
    ],
    "wof:id": 1679316855,
    "wof:lastmodified": 1582934505,
    "wof:name": "UAL2225 (KIND-SFO)",
    "wof:parent_id": -1,
    "wof:placetype": "event",
    "wof:repo": "sfomuseum-data-flights-2016",
    "wof:superseded_by": [],
    "wof:supersedes": []
  },
  "bbox": [
    -122.370943, 
    37.61799, 
    -86.278675, 
    39.730262
  ],
  "geometry": {"coordinates":[[-86.278675,39.730262],[-122.370943,37.61799]],"type":"MultiPoint"}
}
