{
  "id": 1629134709,
  "type": "Feature",
  "properties": {
    "edtf:cessation": "2016-06-22~",
    "edtf:inception": "2016-06-22T18:57:01",
    "flysfo:airline": "CX",
    "flysfo:date": "2016-06-22",
    "flysfo:event": "D",
    "flysfo:flight_number": "CX893D",
    "flysfo:journey": "SFO-VHHH",
    "geom:area": 0,
    "geom:bbox": "-122.370943,22.307471,113.927436,37.617990",
    "geom:latitude": 29.9627305,
    "geom:longitude": -4.221753499999998,
    "iata:airline": "CX",
    "icao:aircraft": "B77W",
    "icao:airline": "CPA",
    "mz:is_current": -1,
    "sfomuseum:aircraft_id": 1159289993,
    "sfomuseum:airline_id": 1159284127,
    "sfomuseum:arrival_id": 102541737,
    "sfomuseum:departure_id": 102527513,
    "sfomuseum:flight_id": "20160622-D-CPA-893D",
    "sfomuseum:flight_number": [
      "CX893D", 
      "CPA893D"
    ],
    "sfomuseum:placetype": "flight",
    "src:geom": "sfonoise",
    "wof:belongsto": [
      102527513, 
      85633793, 
      102191575, 
      102087579, 
      1629134709, 
      85922583, 
      85688637, 
      1159396321
    ],
    "wof:country": "US",
    "wof:created": 1582926715,
    "wof:geomhash": "b8fc8d95bb44b1c6b9f6cb201e4d2ca9",
    "wof:hierarchy": [
      {
        "building_id": 1159396321,
        "campus_id": 102527513,
        "concourse_id": -1,
        "continent_id": 102191575,
        "country_id": 85633793,
        "county_id": 102087579,
        "event_id": 1629134709,
        "locality_id": 85922583,
        "neighbourhood_id": -1,
        "region_id": 85688637,
        "venue_id": -1,
        "wing_id": -1
      }
    ],
    "wof:id": 1629134709,
    "wof:lastmodified": 1582926715,
    "wof:name": "CPA893D (SFO-VHHH)",
    "wof:parent_id": -1,
    "wof:placetype": "event",
    "wof:repo": "sfomuseum-data-flights-2016",
    "wof:superseded_by": [],
    "wof:supersedes": []
  },
  "bbox": [
    -122.370943, 
    22.307471, 
    113.927436, 
    37.61799
  ],
  "geometry": {"coordinates":[[-122.370943,37.61799],[113.927436,22.307471]],"type":"MultiPoint"}
}
