{
  "id": 1629107351,
  "type": "Feature",
  "properties": {
    "edtf:cessation": "2016-04-18~",
    "edtf:inception": "2016-04-18T11:42:47",
    "flysfo:airline": "UA",
    "flysfo:date": "2016-04-18",
    "flysfo:event": "D",
    "flysfo:flight_number": "UA837",
    "flysfo:journey": "SFO-RJAA",
    "geom:area": 0,
    "geom:bbox": "-122.370943,35.755744,140.395257,37.617990",
    "geom:latitude": 36.686867,
    "geom:longitude": 9.012156999999995,
    "iata:airline": "UA",
    "icao:aircraft": "B744",
    "icao:airline": "UAL",
    "mz:is_current": -1,
    "sfomuseum:aircraft_id": 1159289915,
    "sfomuseum:airline_id": 1159285413,
    "sfomuseum:arrival_id": 102541685,
    "sfomuseum:departure_id": 102527513,
    "sfomuseum:flight_id": "20160418-D-UAL-837",
    "sfomuseum:flight_number": [
      "UA837", 
      "UAL837"
    ],
    "sfomuseum:placetype": "flight",
    "src:geom": "sfonoise",
    "wof:belongsto": [
      85922583, 
      102087579, 
      1629107351, 
      102191575, 
      1159396321, 
      102527513, 
      85688637, 
      85633793
    ],
    "wof:country": "US",
    "wof:created": 1582924590,
    "wof:geomhash": "b0708fbc9882ec26729f19c3bf135279",
    "wof:hierarchy": [
      {
        "building_id": 1159396321,
        "campus_id": 102527513,
        "concourse_id": -1,
        "continent_id": 102191575,
        "country_id": 85633793,
        "county_id": 102087579,
        "event_id": 1629107351,
        "locality_id": 85922583,
        "neighbourhood_id": -1,
        "region_id": 85688637,
        "venue_id": -1,
        "wing_id": -1
      }
    ],
    "wof:id": 1629107351,
    "wof:lastmodified": 1582924590,
    "wof:name": "UAL837 (SFO-RJAA)",
    "wof:parent_id": -1,
    "wof:placetype": "event",
    "wof:repo": "sfomuseum-data-flights-2016",
    "wof:superseded_by": [],
    "wof:supersedes": []
  },
  "bbox": [
    -122.370943, 
    35.755744, 
    140.395257, 
    37.61799
  ],
  "geometry": {"coordinates":[[-122.370943,37.61799],[140.395257,35.755744]],"type":"MultiPoint"}
}
