{
  "id": 1679206137,
  "type": "Feature",
  "properties": {
    "edtf:cessation": "2016-11-22~",
    "edtf:inception": "2016-11-22T15:28:51",
    "flysfo:airline": "VX",
    "flysfo:date": "2016-11-22",
    "flysfo:event": "D",
    "flysfo:flight_number": "VX346",
    "flysfo:journey": "SFO-KFLL",
    "geom:area": 0,
    "geom:bbox": "-122.370943,26.074860,-80.138518,37.617990",
    "geom:latitude": 31.846425,
    "geom:longitude": -101.2547305,
    "iata:airline": "VX",
    "icao:aircraft": "A320",
    "icao:airline": "VRD",
    "mz:is_current": -1,
    "sfomuseum:aircraft_id": 1159292085,
    "sfomuseum:airline_id": 1159285481,
    "sfomuseum:arrival_id": 102530841,
    "sfomuseum:departure_id": 102527513,
    "sfomuseum:flight_id": "20161122-D-VRD-346",
    "sfomuseum:flight_number": [
      "VX346", 
      "VRD346"
    ],
    "sfomuseum:placetype": "flight",
    "src:geom": "sfonoise",
    "wof:belongsto": [
      85922583, 
      1679206137, 
      85688637, 
      102527513, 
      85633793, 
      102087579, 
      1159157271, 
      102191575
    ],
    "wof:country": "US",
    "wof:created": 1582933434,
    "wof:geomhash": "2155b19e54308f477f2a379762b2f6c8",
    "wof:hierarchy": [
      {
        "building_id": 1159157271,
        "campus_id": 102527513,
        "concourse_id": -1,
        "continent_id": 102191575,
        "country_id": 85633793,
        "county_id": 102087579,
        "event_id": 1679206137,
        "locality_id": 85922583,
        "neighbourhood_id": -1,
        "region_id": 85688637,
        "venue_id": -1,
        "wing_id": -1
      }
    ],
    "wof:id": 1679206137,
    "wof:lastmodified": 1582933434,
    "wof:name": "VRD346 (SFO-KFLL)",
    "wof:parent_id": -1,
    "wof:placetype": "event",
    "wof:repo": "sfomuseum-data-flights-2016",
    "wof:superseded_by": [],
    "wof:supersedes": []
  },
  "bbox": [
    -122.370943, 
    26.07486, 
    -80.138518, 
    37.61799
  ],
  "geometry": {"coordinates":[[-122.370943,37.61799],[-80.138518,26.07486]],"type":"MultiPoint"}
}
