{
  "id": 1679260931,
  "type": "Feature",
  "properties": {
    "edtf:cessation": "2016-12-09T12:54:32",
    "edtf:inception": "2016-12-09~",
    "flysfo:airline": "UA",
    "flysfo:date": "2016-12-09",
    "flysfo:event": "A",
    "flysfo:flight_number": "UA2070",
    "flysfo:journey": "PGUM-SFO",
    "geom:area": 0,
    "geom:bbox": "-122.370943,13.483889,144.797222,37.617990",
    "geom:latitude": 25.5509395,
    "geom:longitude": 11.213139500000004,
    "iata:airline": "UA",
    "icao:aircraft": "B744",
    "icao:airline": "UAL",
    "mz:is_current": -1,
    "sfomuseum:aircraft_id": 1159289915,
    "sfomuseum:airline_id": 1159285413,
    "sfomuseum:arrival_id": 102527513,
    "sfomuseum:departure_id": 102535777,
    "sfomuseum:flight_id": "20161209-A-UAL-2070",
    "sfomuseum:flight_number": [
      "UA2070", 
      "UAL2070"
    ],
    "sfomuseum:placetype": "flight",
    "src:geom": "sfonoise",
    "wof:belongsto": [
      85633793, 
      102527513, 
      102191575, 
      102087579, 
      1679260931, 
      85922583, 
      85688637, 
      1159157271
    ],
    "wof:country": "US",
    "wof:created": 1582933961,
    "wof:geomhash": "cfb34c2f58cdf1c02ffeb00ec136aa4c",
    "wof:hierarchy": [
      {
        "building_id": 1159157271,
        "campus_id": 102527513,
        "concourse_id": -1,
        "continent_id": 102191575,
        "country_id": 85633793,
        "county_id": 102087579,
        "event_id": 1679260931,
        "locality_id": 85922583,
        "neighbourhood_id": -1,
        "region_id": 85688637,
        "venue_id": -1,
        "wing_id": -1
      }
    ],
    "wof:id": 1679260931,
    "wof:lastmodified": 1582933961,
    "wof:name": "UAL2070 (PGUM-SFO)",
    "wof:parent_id": -1,
    "wof:placetype": "event",
    "wof:repo": "sfomuseum-data-flights-2016",
    "wof:superseded_by": [],
    "wof:supersedes": []
  },
  "bbox": [
    -122.370943, 
    13.483889, 
    144.797222, 
    37.61799
  ],
  "geometry": {"coordinates":[[144.797222,13.483889],[-122.370943,37.61799]],"type":"MultiPoint"}
}
