{
  "id": 1662097579,
  "type": "Feature",
  "properties": {
    "edtf:cessation": "2016-02-04T18:15:59",
    "edtf:inception": "2016-02-04~",
    "flysfo:airline": "DL",
    "flysfo:date": "2016-02-04",
    "flysfo:event": "A",
    "flysfo:flight_number": "DL914",
    "flysfo:journey": "CVG-SFO",
    "geom:area": 0,
    "geom:bbox": "-122.370943,37.617990,-84.657144,39.054422",
    "geom:latitude": 38.336206000000004,
    "geom:longitude": -103.5140435,
    "iata:airline": "DL",
    "icao:aircraft": "A320",
    "icao:airline": "DAL",
    "mz:is_current": -1,
    "sfomuseum:aircraft_id": 1159292085,
    "sfomuseum:airline_id": 1159284261,
    "sfomuseum:arrival_id": 102527513,
    "sfomuseum:departure_id": 102528187,
    "sfomuseum:flight_id": "20160204-A-DAL-914",
    "sfomuseum:flight_number": [
      "DL914", 
      "DAL914"
    ],
    "sfomuseum:placetype": "flight",
    "src:geom": "sfonoise",
    "wof:belongsto": [
      102191575, 
      85633793, 
      102527513, 
      1159396321, 
      102087579, 
      1662097579, 
      85922583, 
      85688637
    ],
    "wof:country": "US",
    "wof:created": 1582922622,
    "wof:geomhash": "772e5110aaf1e095142ff9199bc6ebaa",
    "wof:hierarchy": [
      {
        "building_id": 1159396321,
        "campus_id": 102527513,
        "concourse_id": -1,
        "continent_id": 102191575,
        "country_id": 85633793,
        "county_id": 102087579,
        "event_id": 1662097579,
        "locality_id": 85922583,
        "neighbourhood_id": -1,
        "region_id": 85688637,
        "venue_id": -1,
        "wing_id": -1
      }
    ],
    "wof:id": 1662097579,
    "wof:lastmodified": 1582922622,
    "wof:name": "DAL914 (CVG-SFO)",
    "wof:parent_id": -1,
    "wof:placetype": "event",
    "wof:repo": "sfomuseum-data-flights-2016",
    "wof:superseded_by": [],
    "wof:supersedes": []
  },
  "bbox": [
    -122.370943, 
    37.61799, 
    -84.657144, 
    39.054422
  ],
  "geometry": {"coordinates":[[-84.657144,39.054422],[-122.370943,37.61799]],"type":"MultiPoint"}
}
