{
  "id": 1662244105,
  "type": "Feature",
  "properties": {
    "edtf:cessation": "2016-05-04~",
    "edtf:inception": "2016-05-04T13:05:48",
    "flysfo:airline": "AS",
    "flysfo:date": "2016-05-04",
    "flysfo:event": "D",
    "flysfo:flight_number": "AS9802",
    "flysfo:journey": "SFO-KSJC",
    "geom:area": 0,
    "geom:bbox": "-122.370943,37.363728,-121.928755,37.617990",
    "geom:latitude": 37.490859,
    "geom:longitude": -122.14984899999999,
    "iata:airline": "AS",
    "icao:aircraft": "B734",
    "icao:airline": "ASA",
    "mz:is_current": -1,
    "sfomuseum:aircraft_id": 1159289859,
    "sfomuseum:airline_id": 1159283813,
    "sfomuseum:arrival_id": 102527529,
    "sfomuseum:departure_id": 102527513,
    "sfomuseum:flight_id": "20160504-D-ASA-9802",
    "sfomuseum:flight_number": [
      "AS9802", 
      "ASA9802"
    ],
    "sfomuseum:placetype": "flight",
    "src:geom": "sfonoise",
    "wof:belongsto": [
      1662244105, 
      85922583, 
      102087579, 
      85688637, 
      1159396321, 
      102527513, 
      85633793, 
      102191575
    ],
    "wof:country": "US",
    "wof:created": 1582925224,
    "wof:geomhash": "9e57705c73bd73668d4b0d529a043646",
    "wof:hierarchy": [
      {
        "building_id": 1159396321,
        "campus_id": 102527513,
        "concourse_id": -1,
        "continent_id": 102191575,
        "country_id": 85633793,
        "county_id": 102087579,
        "event_id": 1662244105,
        "locality_id": 85922583,
        "neighbourhood_id": -1,
        "region_id": 85688637,
        "venue_id": -1,
        "wing_id": -1
      }
    ],
    "wof:id": 1662244105,
    "wof:lastmodified": 1582925224,
    "wof:name": "ASA9802 (SFO-KSJC)",
    "wof:parent_id": -1,
    "wof:placetype": "event",
    "wof:repo": "sfomuseum-data-flights-2016",
    "wof:superseded_by": [],
    "wof:supersedes": []
  },
  "bbox": [
    -122.370943, 
    37.363728, 
    -121.928755, 
    37.61799
  ],
  "geometry": {"coordinates":[[-122.370943,37.61799],[-121.928755,37.363728]],"type":"MultiPoint"}
}
