{
  "id": 1662307049,
  "type": "Feature",
  "properties": {
    "edtf:cessation": "2016-06-08T01:27:28",
    "edtf:inception": "2016-06-08~",
    "flysfo:airline": "AA",
    "flysfo:date": "2016-06-08",
    "flysfo:event": "A",
    "flysfo:flight_number": "AA557",
    "flysfo:journey": "KCLT-SFO",
    "geom:area": 0,
    "geom:bbox": "-122.370943,35.220744,-80.942777,37.617990",
    "geom:latitude": 36.419367,
    "geom:longitude": -101.65686,
    "iata:airline": "AA",
    "icao:aircraft": "A321",
    "icao:airline": "AAL",
    "mz:is_current": -1,
    "sfomuseum:aircraft_id": 1159289411,
    "sfomuseum:airline_id": 1159283851,
    "sfomuseum:arrival_id": 102527513,
    "sfomuseum:departure_id": 102528659,
    "sfomuseum:flight_id": "20160608-A-AAL-557",
    "sfomuseum:flight_number": [
      "AA557", 
      "AAL557"
    ],
    "sfomuseum:placetype": "flight",
    "src:geom": "sfonoise",
    "wof:belongsto": [
      85688637, 
      85633793, 
      85922583, 
      102527513, 
      1662307049, 
      1159396321, 
      102191575, 
      102087579
    ],
    "wof:country": "US",
    "wof:created": 1582926269,
    "wof:geomhash": "b96563c9986e04a3607ac552f48e111b",
    "wof:hierarchy": [
      {
        "building_id": 1159396321,
        "campus_id": 102527513,
        "concourse_id": -1,
        "continent_id": 102191575,
        "country_id": 85633793,
        "county_id": 102087579,
        "event_id": 1662307049,
        "locality_id": 85922583,
        "neighbourhood_id": -1,
        "region_id": 85688637,
        "venue_id": -1,
        "wing_id": -1
      }
    ],
    "wof:id": 1662307049,
    "wof:lastmodified": 1582926269,
    "wof:name": "AAL557 (KCLT-SFO)",
    "wof:parent_id": -1,
    "wof:placetype": "event",
    "wof:repo": "sfomuseum-data-flights-2016",
    "wof:superseded_by": [],
    "wof:supersedes": []
  },
  "bbox": [
    -122.370943, 
    35.220744, 
    -80.942777, 
    37.61799
  ],
  "geometry": {"coordinates":[[-80.942777,35.220744],[-122.370943,37.61799]],"type":"MultiPoint"}
}
