{
  "id": 1679332289,
  "type": "Feature",
  "properties": {
    "edtf:cessation": "2016-12-30T16:02:49",
    "edtf:inception": "2016-12-30~",
    "flysfo:airline": "UA",
    "flysfo:date": "2016-12-30",
    "flysfo:event": "A",
    "flysfo:flight_number": "UA2187",
    "flysfo:journey": "KPAE-SFO",
    "geom:area": 0,
    "geom:bbox": "-122.370943,37.617990,-122.279084,47.908767",
    "geom:latitude": 42.7633785,
    "geom:longitude": -122.3250135,
    "iata:airline": "UA",
    "icao:aircraft": "B77W",
    "icao:airline": "UAL",
    "mz:is_current": -1,
    "sfomuseum:aircraft_id": 1159289993,
    "sfomuseum:airline_id": 1159285413,
    "sfomuseum:arrival_id": 102527513,
    "sfomuseum:departure_id": 102526657,
    "sfomuseum:flight_id": "20161230-A-UAL-2187",
    "sfomuseum:flight_number": [
      "UA2187", 
      "UAL2187"
    ],
    "sfomuseum:placetype": "flight",
    "src:geom": "sfonoise",
    "wof:belongsto": [
      85922583, 
      85688637, 
      85633793, 
      102527513, 
      102087579, 
      1679332289, 
      1159157271, 
      102191575
    ],
    "wof:country": "US",
    "wof:created": 1582934652,
    "wof:geomhash": "c01fce3544b8d9a4d0cb6d6783ef8a82",
    "wof:hierarchy": [
      {
        "building_id": 1159157271,
        "campus_id": 102527513,
        "concourse_id": -1,
        "continent_id": 102191575,
        "country_id": 85633793,
        "county_id": 102087579,
        "event_id": 1679332289,
        "locality_id": 85922583,
        "neighbourhood_id": -1,
        "region_id": 85688637,
        "venue_id": -1,
        "wing_id": -1
      }
    ],
    "wof:id": 1679332289,
    "wof:lastmodified": 1582934652,
    "wof:name": "UAL2187 (KPAE-SFO)",
    "wof:parent_id": -1,
    "wof:placetype": "event",
    "wof:repo": "sfomuseum-data-flights-2016",
    "wof:superseded_by": [],
    "wof:supersedes": []
  },
  "bbox": [
    -122.370943, 
    37.61799, 
    -122.279084, 
    47.908767
  ],
  "geometry": {"coordinates":[[-122.279084,47.908767],[-122.370943,37.61799]],"type":"MultiPoint"}
}
