{
  "id": 1662124991,
  "type": "Feature",
  "properties": {
    "edtf:cessation": "2016-02-23T08:44:02",
    "edtf:inception": "2016-02-23~",
    "flysfo:airline": "AS",
    "flysfo:date": "2016-02-23",
    "flysfo:event": "A",
    "flysfo:flight_number": "AS222",
    "flysfo:journey": "PDX-SFO",
    "geom:area": 0,
    "geom:bbox": "-122.597389,37.617990,-122.370943,45.586144",
    "geom:latitude": 41.602067,
    "geom:longitude": -122.484166,
    "iata:airline": "AS",
    "icao:aircraft": "B739",
    "icao:airline": "ASA",
    "mz:is_current": -1,
    "sfomuseum:aircraft_id": 1377564285,
    "sfomuseum:airline_id": 1159283813,
    "sfomuseum:arrival_id": 102527513,
    "sfomuseum:departure_id": 102532251,
    "sfomuseum:flight_id": "20160223-A-ASA-222",
    "sfomuseum:flight_number": [
      "AS222", 
      "ASA222"
    ],
    "sfomuseum:placetype": "flight",
    "src:geom": "sfonoise",
    "wof:belongsto": [
      1159396321, 
      102087579, 
      85688637, 
      85922583, 
      102527513, 
      1662124991, 
      102191575, 
      85633793
    ],
    "wof:country": "US",
    "wof:created": 1582923128,
    "wof:geomhash": "3af422147b92e6fa9912d38a57ea404a",
    "wof:hierarchy": [
      {
        "building_id": 1159396321,
        "campus_id": 102527513,
        "concourse_id": -1,
        "continent_id": 102191575,
        "country_id": 85633793,
        "county_id": 102087579,
        "event_id": 1662124991,
        "locality_id": 85922583,
        "neighbourhood_id": -1,
        "region_id": 85688637,
        "venue_id": -1,
        "wing_id": -1
      }
    ],
    "wof:id": 1662124991,
    "wof:lastmodified": 1582923128,
    "wof:name": "ASA222 (PDX-SFO)",
    "wof:parent_id": -1,
    "wof:placetype": "event",
    "wof:repo": "sfomuseum-data-flights-2016",
    "wof:superseded_by": [],
    "wof:supersedes": []
  },
  "bbox": [
    -122.597389, 
    37.61799, 
    -122.370943, 
    45.586144
  ],
  "geometry": {"coordinates":[[-122.597389,45.586144],[-122.370943,37.61799]],"type":"MultiPoint"}
}
