{
  "id": 1662150611,
  "type": "Feature",
  "properties": {
    "edtf:cessation": "2016-03-11T09:47:47",
    "edtf:inception": "2016-03-11~",
    "flysfo:airline": "B6",
    "flysfo:date": "2016-03-11",
    "flysfo:event": "A",
    "flysfo:flight_number": "B6434",
    "flysfo:journey": "CYYC-SFO",
    "geom:area": 0,
    "geom:bbox": "-122.370943,37.617990,-114.020920,51.119526",
    "geom:latitude": 44.368758,
    "geom:longitude": -118.1959315,
    "iata:airline": "B6",
    "icao:aircraft": "A320",
    "icao:airline": "JBU",
    "mz:is_current": -1,
    "sfomuseum:aircraft_id": 1159292085,
    "sfomuseum:airline_id": 1360700745,
    "sfomuseum:arrival_id": 102527513,
    "sfomuseum:departure_id": 102554947,
    "sfomuseum:flight_id": "20160311-A-JBU-434",
    "sfomuseum:flight_number": [
      "B6434", 
      "JBU434"
    ],
    "sfomuseum:placetype": "flight",
    "src:geom": "sfonoise",
    "wof:belongsto": [
      85688637, 
      1662150611, 
      102191575, 
      85922583, 
      102087579, 
      85633793, 
      102527513, 
      1159396321
    ],
    "wof:country": "US",
    "wof:created": 1582923584,
    "wof:geomhash": "4b8d850891e12dfac0a460ee51cd363b",
    "wof:hierarchy": [
      {
        "building_id": 1159396321,
        "campus_id": 102527513,
        "concourse_id": -1,
        "continent_id": 102191575,
        "country_id": 85633793,
        "county_id": 102087579,
        "event_id": 1662150611,
        "locality_id": 85922583,
        "neighbourhood_id": -1,
        "region_id": 85688637,
        "venue_id": -1,
        "wing_id": -1
      }
    ],
    "wof:id": 1662150611,
    "wof:lastmodified": 1582923584,
    "wof:name": "JBU434 (CYYC-SFO)",
    "wof:parent_id": -1,
    "wof:placetype": "event",
    "wof:repo": "sfomuseum-data-flights-2016",
    "wof:superseded_by": [],
    "wof:supersedes": []
  },
  "bbox": [
    -122.370943, 
    37.61799, 
    -114.02092, 
    51.119526
  ],
  "geometry": {"coordinates":[[-114.02092,51.119526],[-122.370943,37.61799]],"type":"MultiPoint"}
}
