{
  "id": 1629073347,
  "type": "Feature",
  "properties": {
    "edtf:cessation": "2016-01-01~",
    "edtf:inception": "2016-01-01T23:28:23",
    "flysfo:airline": "UA",
    "flysfo:date": "2016-01-01",
    "flysfo:event": "D",
    "flysfo:flight_number": "UA418",
    "flysfo:journey": "SFO-MSY",
    "geom:area": 0,
    "geom:bbox": "-122.370943,29.982609,-90.261832,37.617990",
    "geom:latitude": 33.8002995,
    "geom:longitude": -106.31638749999999,
    "iata:airline": "UA",
    "icao:aircraft": "A320",
    "icao:airline": "UAL",
    "mz:is_current": -1,
    "sfomuseum:aircraft_id": 1159292085,
    "sfomuseum:airline_id": 1159285413,
    "sfomuseum:arrival_id": 102530009,
    "sfomuseum:departure_id": 102527513,
    "sfomuseum:flight_id": "20160101-D-UAL-418",
    "sfomuseum:flight_number": [
      "UA418", 
      "UAL418"
    ],
    "sfomuseum:placetype": "flight",
    "src:geom": "sfonoise",
    "wof:belongsto": [
      102527513, 
      85633793, 
      102087579, 
      1629073347, 
      85688637, 
      1159396321, 
      102191575, 
      85922583
    ],
    "wof:country": "US",
    "wof:created": 1582921929,
    "wof:geomhash": "8b4edcad4124de1c487808d2d2d1ecd3",
    "wof:hierarchy": [
      {
        "building_id": 1159396321,
        "campus_id": 102527513,
        "concourse_id": -1,
        "continent_id": 102191575,
        "country_id": 85633793,
        "county_id": 102087579,
        "event_id": 1629073347,
        "locality_id": 85922583,
        "neighbourhood_id": -1,
        "region_id": 85688637,
        "venue_id": -1,
        "wing_id": -1
      }
    ],
    "wof:id": 1629073347,
    "wof:lastmodified": 1582921929,
    "wof:name": "UAL418 (SFO-MSY)",
    "wof:parent_id": -1,
    "wof:placetype": "event",
    "wof:repo": "sfomuseum-data-flights-2016",
    "wof:superseded_by": [],
    "wof:supersedes": []
  },
  "bbox": [
    -122.370943, 
    29.982609, 
    -90.261832, 
    37.61799
  ],
  "geometry": {"coordinates":[[-122.370943,37.61799],[-90.261832,29.982609]],"type":"MultiPoint"}
}
