{
  "id": 1662072447,
  "type": "Feature",
  "properties": {
    "edtf:cessation": "2016-01-19T09:49:08",
    "edtf:inception": "2016-01-19~",
    "flysfo:airline": "UA",
    "flysfo:date": "2016-01-19",
    "flysfo:event": "A",
    "flysfo:flight_number": "UA1589",
    "flysfo:journey": "CLE-SFO",
    "geom:area": 0,
    "geom:bbox": "-122.370943,37.617990,-81.835629,41.406844",
    "geom:latitude": 39.512417,
    "geom:longitude": -102.103286,
    "iata:airline": "UA",
    "icao:aircraft": "A319",
    "icao:airline": "UAL",
    "mz:is_current": -1,
    "sfomuseum:aircraft_id": 1159289407,
    "sfomuseum:airline_id": 1159285413,
    "sfomuseum:arrival_id": 102527513,
    "sfomuseum:departure_id": 102534019,
    "sfomuseum:flight_id": "20160119-A-UAL-1589",
    "sfomuseum:flight_number": [
      "UA1589", 
      "UAL1589"
    ],
    "sfomuseum:placetype": "flight",
    "src:geom": "sfonoise",
    "wof:belongsto": [
      85922583, 
      1159396321, 
      102087579, 
      85688637, 
      85633793, 
      102527513, 
      102191575, 
      1662072447
    ],
    "wof:country": "US",
    "wof:created": 1582922264,
    "wof:geomhash": "b9e617aa80dabb56896871b70acf102e",
    "wof:hierarchy": [
      {
        "building_id": 1159396321,
        "campus_id": 102527513,
        "concourse_id": -1,
        "continent_id": 102191575,
        "country_id": 85633793,
        "county_id": 102087579,
        "event_id": 1662072447,
        "locality_id": 85922583,
        "neighbourhood_id": -1,
        "region_id": 85688637,
        "venue_id": -1,
        "wing_id": -1
      }
    ],
    "wof:id": 1662072447,
    "wof:lastmodified": 1582922264,
    "wof:name": "UAL1589 (CLE-SFO)",
    "wof:parent_id": -1,
    "wof:placetype": "event",
    "wof:repo": "sfomuseum-data-flights-2016",
    "wof:superseded_by": [],
    "wof:supersedes": []
  },
  "bbox": [
    -122.370943, 
    37.61799, 
    -81.835629, 
    41.406844
  ],
  "geometry": {"coordinates":[[-81.835629,41.406844],[-122.370943,37.61799]],"type":"MultiPoint"}
}
