{
  "id": 1679217653,
  "type": "Feature",
  "properties": {
    "edtf:cessation": "2016-11-26T17:25:13",
    "edtf:inception": "2016-11-26~",
    "flysfo:airline": "WN",
    "flysfo:date": "2016-11-26",
    "flysfo:event": "A",
    "flysfo:flight_number": "WN1347",
    "flysfo:journey": "KMKE-SFO",
    "geom:area": 0,
    "geom:bbox": "-122.370943,37.617990,-87.896339,42.949572",
    "geom:latitude": 40.283781000000005,
    "geom:longitude": -105.133641,
    "iata:airline": "WN",
    "icao:aircraft": "B738",
    "icao:airline": "SWA",
    "mz:is_current": -1,
    "sfomuseum:aircraft_id": 1159289871,
    "sfomuseum:airline_id": 1159285591,
    "sfomuseum:arrival_id": 102527513,
    "sfomuseum:departure_id": 102530849,
    "sfomuseum:flight_id": "20161126-A-SWA-1347",
    "sfomuseum:flight_number": [
      "WN1347", 
      "SWA1347"
    ],
    "sfomuseum:placetype": "flight",
    "src:geom": "sfonoise",
    "wof:belongsto": [
      102191575, 
      85633793, 
      102527513, 
      102087579, 
      1159157271, 
      1679217653, 
      85922583, 
      85688637
    ],
    "wof:country": "US",
    "wof:created": 1582933547,
    "wof:geomhash": "1e284fd777a7bf1f8b464fea635cfcb1",
    "wof:hierarchy": [
      {
        "building_id": 1159157271,
        "campus_id": 102527513,
        "concourse_id": -1,
        "continent_id": 102191575,
        "country_id": 85633793,
        "county_id": 102087579,
        "event_id": 1679217653,
        "locality_id": 85922583,
        "neighbourhood_id": -1,
        "region_id": 85688637,
        "venue_id": -1,
        "wing_id": -1
      }
    ],
    "wof:id": 1679217653,
    "wof:lastmodified": 1582933547,
    "wof:name": "SWA1347 (KMKE-SFO)",
    "wof:parent_id": -1,
    "wof:placetype": "event",
    "wof:repo": "sfomuseum-data-flights-2016",
    "wof:superseded_by": [],
    "wof:supersedes": []
  },
  "bbox": [
    -122.370943, 
    37.61799, 
    -87.896339, 
    42.949572
  ],
  "geometry": {"coordinates":[[-87.896339,42.949572],[-122.370943,37.61799]],"type":"MultiPoint"}
}
