{
  "id": 1678871591,
  "type": "Feature",
  "properties": {
    "edtf:cessation": "2016-09-02T22:50:55",
    "edtf:inception": "2016-09-02~",
    "flysfo:airline": "AC",
    "flysfo:date": "2016-09-02",
    "flysfo:event": "A",
    "flysfo:flight_number": "AC741",
    "flysfo:journey": "CYUL-SFO",
    "geom:area": 0,
    "geom:bbox": "-122.370943,37.617990,-73.744749,45.462004",
    "geom:latitude": 41.539997,
    "geom:longitude": -98.057846,
    "iata:airline": "AC",
    "icao:aircraft": "A320",
    "icao:airline": "ACA",
    "mz:is_current": -1,
    "sfomuseum:aircraft_id": 1159292085,
    "sfomuseum:airline_id": 1159283597,
    "sfomuseum:arrival_id": 102527513,
    "sfomuseum:departure_id": 102554351,
    "sfomuseum:flight_id": "20160902-A-ACA-741",
    "sfomuseum:flight_number": [
      "AC741", 
      "ACA741"
    ],
    "sfomuseum:placetype": "flight",
    "src:geom": "sfonoise",
    "wof:belongsto": [
      102191575, 
      102087579, 
      1159157271, 
      102527513, 
      85633793, 
      1678871591, 
      85922583, 
      85688637
    ],
    "wof:country": "US",
    "wof:created": 1582929522,
    "wof:geomhash": "d6fced31e2f30d79d54c9b38b6916cc7",
    "wof:hierarchy": [
      {
        "building_id": 1159157271,
        "campus_id": 102527513,
        "concourse_id": -1,
        "continent_id": 102191575,
        "country_id": 85633793,
        "county_id": 102087579,
        "event_id": 1678871591,
        "locality_id": 85922583,
        "neighbourhood_id": -1,
        "region_id": 85688637,
        "venue_id": -1,
        "wing_id": -1
      }
    ],
    "wof:id": 1678871591,
    "wof:lastmodified": 1582929522,
    "wof:name": "ACA741 (CYUL-SFO)",
    "wof:parent_id": -1,
    "wof:placetype": "event",
    "wof:repo": "sfomuseum-data-flights-2016",
    "wof:superseded_by": [],
    "wof:supersedes": []
  },
  "bbox": [
    -122.370943, 
    37.61799, 
    -73.744749, 
    45.462004
  ],
  "geometry": {"coordinates":[[-73.744749,45.462004],[-122.370943,37.61799]],"type":"MultiPoint"}
}
