{
  "id": 1662238967,
  "type": "Feature",
  "properties": {
    "edtf:cessation": "2016-05-01T15:59:18",
    "edtf:inception": "2016-05-01~",
    "flysfo:airline": "DL",
    "flysfo:date": "2016-05-01",
    "flysfo:event": "A",
    "flysfo:flight_number": "DL1459",
    "flysfo:journey": "SLC-SFO",
    "geom:area": 0,
    "geom:bbox": "-122.370943,37.617990,-111.980566,40.782170",
    "geom:latitude": 39.20008,
    "geom:longitude": -117.1757545,
    "iata:airline": "DL",
    "icao:aircraft": "B712",
    "icao:airline": "DAL",
    "mz:is_current": -1,
    "sfomuseum:aircraft_id": 1159292193,
    "sfomuseum:airline_id": 1159284261,
    "sfomuseum:arrival_id": 102527513,
    "sfomuseum:departure_id": 102527363,
    "sfomuseum:flight_id": "20160501-A-DAL-1459",
    "sfomuseum:flight_number": [
      "DL1459", 
      "DAL1459"
    ],
    "sfomuseum:placetype": "flight",
    "src:geom": "sfonoise",
    "wof:belongsto": [
      85922583, 
      1159396321, 
      85633793, 
      102527513, 
      102087579, 
      85688637, 
      102191575, 
      1662238967
    ],
    "wof:country": "US",
    "wof:created": 1582925113,
    "wof:geomhash": "24b8b627208edff0ed857058cce4fc5a",
    "wof:hierarchy": [
      {
        "building_id": 1159396321,
        "campus_id": 102527513,
        "concourse_id": -1,
        "continent_id": 102191575,
        "country_id": 85633793,
        "county_id": 102087579,
        "event_id": 1662238967,
        "locality_id": 85922583,
        "neighbourhood_id": -1,
        "region_id": 85688637,
        "venue_id": -1,
        "wing_id": -1
      }
    ],
    "wof:id": 1662238967,
    "wof:lastmodified": 1582925113,
    "wof:name": "DAL1459 (SLC-SFO)",
    "wof:parent_id": -1,
    "wof:placetype": "event",
    "wof:repo": "sfomuseum-data-flights-2016",
    "wof:superseded_by": [],
    "wof:supersedes": []
  },
  "bbox": [
    -122.370943, 
    37.61799, 
    -111.980566, 
    40.78217
  ],
  "geometry": {"coordinates":[[-111.980566,40.78217],[-122.370943,37.61799]],"type":"MultiPoint"}
}
