{
  "id": 1679212633,
  "type": "Feature",
  "properties": {
    "edtf:cessation": "2016-11-24T16:35:22",
    "edtf:inception": "2016-11-24~",
    "flysfo:airline": "UA",
    "flysfo:date": "2016-11-24",
    "flysfo:event": "A",
    "flysfo:flight_number": "UA2190",
    "flysfo:journey": "SCEL-SFO",
    "geom:area": 0,
    "geom:bbox": "-122.370943,-33.390427,-70.790951,37.617990",
    "geom:latitude": 2.113781499999998,
    "geom:longitude": -96.58094700000001,
    "iata:airline": "UA",
    "icao:aircraft": "B763",
    "icao:airline": "UAL",
    "mz:is_current": -1,
    "sfomuseum:aircraft_id": 1159289965,
    "sfomuseum:airline_id": 1159285413,
    "sfomuseum:arrival_id": 102527513,
    "sfomuseum:departure_id": 102556169,
    "sfomuseum:flight_id": "20161124-A-UAL-2190",
    "sfomuseum:flight_number": [
      "UA2190", 
      "UAL2190"
    ],
    "sfomuseum:placetype": "flight",
    "src:geom": "sfonoise",
    "wof:belongsto": [
      1679212633, 
      1159157271, 
      102087579, 
      85688637, 
      102527513, 
      102191575, 
      85633793, 
      85922583
    ],
    "wof:country": "US",
    "wof:created": 1582933497,
    "wof:geomhash": "fd0a67e34b55401e11de7a719de41dbe",
    "wof:hierarchy": [
      {
        "building_id": 1159157271,
        "campus_id": 102527513,
        "concourse_id": -1,
        "continent_id": 102191575,
        "country_id": 85633793,
        "county_id": 102087579,
        "event_id": 1679212633,
        "locality_id": 85922583,
        "neighbourhood_id": -1,
        "region_id": 85688637,
        "venue_id": -1,
        "wing_id": -1
      }
    ],
    "wof:id": 1679212633,
    "wof:lastmodified": 1582933497,
    "wof:name": "UAL2190 (SCEL-SFO)",
    "wof:parent_id": -1,
    "wof:placetype": "event",
    "wof:repo": "sfomuseum-data-flights-2016",
    "wof:superseded_by": [],
    "wof:supersedes": []
  },
  "bbox": [
    -122.370943, 
    -33.390427, 
    -70.790951, 
    37.61799
  ],
  "geometry": {"coordinates":[[-70.790951,-33.390427],[-122.370943,37.61799]],"type":"MultiPoint"}
}
