{
  "id": 1662183797,
  "type": "Feature",
  "properties": {
    "edtf:cessation": "2016-03-30~",
    "edtf:inception": "2016-03-30T18:28:31",
    "flysfo:airline": "EK",
    "flysfo:date": "2016-03-30",
    "flysfo:event": "D",
    "flysfo:flight_number": "EK226",
    "flysfo:journey": "SFO-OMDB",
    "geom:area": 0,
    "geom:bbox": "-122.370943,25.250063,55.362737,37.617990",
    "geom:latitude": 31.4340265,
    "geom:longitude": -33.504103,
    "iata:airline": "EK",
    "icao:aircraft": "A388",
    "icao:airline": "UAE",
    "mz:is_current": -1,
    "sfomuseum:aircraft_id": 1159289437,
    "sfomuseum:airline_id": 1159284333,
    "sfomuseum:arrival_id": 102558433,
    "sfomuseum:departure_id": 102527513,
    "sfomuseum:flight_id": "20160330-D-UAE-226",
    "sfomuseum:flight_number": [
      "EK226", 
      "UAE226"
    ],
    "sfomuseum:placetype": "flight",
    "src:geom": "sfonoise",
    "wof:belongsto": [
      85633793, 
      102087579, 
      85922583, 
      102527513, 
      1662183797, 
      1159396321, 
      102191575, 
      85688637
    ],
    "wof:country": "US",
    "wof:created": 1582923941,
    "wof:geomhash": "db1125d5f6b158d369f65fa73fc455da",
    "wof:hierarchy": [
      {
        "building_id": 1159396321,
        "campus_id": 102527513,
        "concourse_id": -1,
        "continent_id": 102191575,
        "country_id": 85633793,
        "county_id": 102087579,
        "event_id": 1662183797,
        "locality_id": 85922583,
        "neighbourhood_id": -1,
        "region_id": 85688637,
        "venue_id": -1,
        "wing_id": -1
      }
    ],
    "wof:id": 1662183797,
    "wof:lastmodified": 1582923941,
    "wof:name": "UAE226 (SFO-OMDB)",
    "wof:parent_id": -1,
    "wof:placetype": "event",
    "wof:repo": "sfomuseum-data-flights-2016",
    "wof:superseded_by": [],
    "wof:supersedes": []
  },
  "bbox": [
    -122.370943, 
    25.250063, 
    55.362737, 
    37.61799
  ],
  "geometry": {"coordinates":[[-122.370943,37.61799],[55.362737,25.250063]],"type":"MultiPoint"}
}
