{
  "id": 1678827961,
  "type": "Feature",
  "properties": {
    "edtf:cessation": "2016-08-25~",
    "edtf:inception": "2016-08-25T11:37:14",
    "flysfo:airline": "UA",
    "flysfo:date": "2016-08-25",
    "flysfo:event": "D",
    "flysfo:flight_number": "UA606T",
    "flysfo:journey": "SFO-KSTL",
    "geom:area": 0,
    "geom:bbox": "-122.370943,37.617990,-90.367632,38.743872",
    "geom:latitude": 38.180931,
    "geom:longitude": -106.3692875,
    "iata:airline": "UA",
    "icao:aircraft": "A319",
    "icao:airline": "UAL",
    "mz:is_current": -1,
    "sfomuseum:aircraft_id": 1159289407,
    "sfomuseum:airline_id": 1159285413,
    "sfomuseum:arrival_id": 102525961,
    "sfomuseum:departure_id": 102527513,
    "sfomuseum:flight_id": "20160825-D-UAL-606T",
    "sfomuseum:flight_number": [
      "UA606T", 
      "UAL606T"
    ],
    "sfomuseum:placetype": "flight",
    "src:geom": "sfonoise",
    "wof:belongsto": [
      102191575, 
      1159157271, 
      85922583, 
      85688637, 
      102527513, 
      102087579, 
      85633793, 
      1678827961
    ],
    "wof:country": "US",
    "wof:created": 1582928941,
    "wof:geomhash": "17371a5d27e54a99ca50752d2b6a5e79",
    "wof:hierarchy": [
      {
        "building_id": 1159157271,
        "campus_id": 102527513,
        "concourse_id": -1,
        "continent_id": 102191575,
        "country_id": 85633793,
        "county_id": 102087579,
        "event_id": 1678827961,
        "locality_id": 85922583,
        "neighbourhood_id": -1,
        "region_id": 85688637,
        "venue_id": -1,
        "wing_id": -1
      }
    ],
    "wof:id": 1678827961,
    "wof:lastmodified": 1582928941,
    "wof:name": "UAL606T (SFO-KSTL)",
    "wof:parent_id": -1,
    "wof:placetype": "event",
    "wof:repo": "sfomuseum-data-flights-2016",
    "wof:superseded_by": [],
    "wof:supersedes": []
  },
  "bbox": [
    -122.370943, 
    37.61799, 
    -90.367632, 
    38.743872
  ],
  "geometry": {"coordinates":[[-122.370943,37.61799],[-90.367632,38.743872]],"type":"MultiPoint"}
}
