{
  "id": 1662065249,
  "type": "Feature",
  "properties": {
    "edtf:cessation": "2016-01-14~",
    "edtf:inception": "2016-01-14T13:14:05",
    "flysfo:airline": "WN",
    "flysfo:date": "2016-01-14",
    "flysfo:event": "D",
    "flysfo:flight_number": "WN309",
    "flysfo:journey": "SFO-STL",
    "geom:area": 0,
    "geom:bbox": "-122.370943,37.617990,-90.367632,38.743872",
    "geom:latitude": 38.180931,
    "geom:longitude": -106.3692875,
    "iata:airline": "WN",
    "icao:aircraft": "B737",
    "icao:airline": "SWA",
    "mz:is_current": -1,
    "sfomuseum:aircraft_id": 1159289869,
    "sfomuseum:airline_id": 1159285591,
    "sfomuseum:arrival_id": 102525961,
    "sfomuseum:departure_id": 102527513,
    "sfomuseum:flight_id": "20160114-D-SWA-309",
    "sfomuseum:flight_number": [
      "WN309", 
      "SWA309"
    ],
    "sfomuseum:placetype": "flight",
    "src:geom": "sfonoise",
    "wof:belongsto": [
      102527513, 
      85633793, 
      85922583, 
      85688637, 
      1159396321, 
      102191575, 
      102087579, 
      1662065249
    ],
    "wof:country": "US",
    "wof:created": 1582922173,
    "wof:geomhash": "17371a5d27e54a99ca50752d2b6a5e79",
    "wof:hierarchy": [
      {
        "building_id": 1159396321,
        "campus_id": 102527513,
        "concourse_id": -1,
        "continent_id": 102191575,
        "country_id": 85633793,
        "county_id": 102087579,
        "event_id": 1662065249,
        "locality_id": 85922583,
        "neighbourhood_id": -1,
        "region_id": 85688637,
        "venue_id": -1,
        "wing_id": -1
      }
    ],
    "wof:id": 1662065249,
    "wof:lastmodified": 1582922173,
    "wof:name": "SWA309 (SFO-STL)",
    "wof:parent_id": -1,
    "wof:placetype": "event",
    "wof:repo": "sfomuseum-data-flights-2016",
    "wof:superseded_by": [],
    "wof:supersedes": []
  },
  "bbox": [
    -122.370943, 
    37.61799, 
    -90.367632, 
    38.743872
  ],
  "geometry": {"coordinates":[[-122.370943,37.61799],[-90.367632,38.743872]],"type":"MultiPoint"}
}
