{
  "id": 1662172085,
  "type": "Feature",
  "properties": {
    "edtf:cessation": "2016-03-23T23:08:03",
    "edtf:inception": "2016-03-23~",
    "flysfo:airline": "AS",
    "flysfo:date": "2016-03-23",
    "flysfo:event": "A",
    "flysfo:flight_number": "AS300",
    "flysfo:journey": "SEA-SFO",
    "geom:area": 0,
    "geom:bbox": "-122.370943,37.617990,-122.304268,47.441823",
    "geom:latitude": 42.529906499999996,
    "geom:longitude": -122.3376055,
    "iata:airline": "AS",
    "icao:aircraft": "B734",
    "icao:airline": "ASA",
    "mz:is_current": -1,
    "sfomuseum:aircraft_id": 1159289859,
    "sfomuseum:airline_id": 1159283813,
    "sfomuseum:arrival_id": 102527513,
    "sfomuseum:departure_id": 102533269,
    "sfomuseum:flight_id": "20160323-A-ASA-300",
    "sfomuseum:flight_number": [
      "AS300", 
      "ASA300"
    ],
    "sfomuseum:placetype": "flight",
    "src:geom": "sfonoise",
    "wof:belongsto": [
      85688637, 
      102527513, 
      1159396321, 
      102087579, 
      85922583, 
      102191575, 
      1662172085, 
      85633793
    ],
    "wof:country": "US",
    "wof:created": 1582923827,
    "wof:geomhash": "3123a4aff4021144fa8973299956ba97",
    "wof:hierarchy": [
      {
        "building_id": 1159396321,
        "campus_id": 102527513,
        "concourse_id": -1,
        "continent_id": 102191575,
        "country_id": 85633793,
        "county_id": 102087579,
        "event_id": 1662172085,
        "locality_id": 85922583,
        "neighbourhood_id": -1,
        "region_id": 85688637,
        "venue_id": -1,
        "wing_id": -1
      }
    ],
    "wof:id": 1662172085,
    "wof:lastmodified": 1582923827,
    "wof:name": "ASA300 (SEA-SFO)",
    "wof:parent_id": -1,
    "wof:placetype": "event",
    "wof:repo": "sfomuseum-data-flights-2016",
    "wof:superseded_by": [],
    "wof:supersedes": []
  },
  "bbox": [
    -122.370943, 
    37.61799, 
    -122.304268, 
    47.441823
  ],
  "geometry": {"coordinates":[[-122.304268,47.441823],[-122.370943,37.61799]],"type":"MultiPoint"}
}
