{
  "id": 1679246263,
  "type": "Feature",
  "properties": {
    "edtf:cessation": "2016-12-05T01:27:05",
    "edtf:inception": "2016-12-05~",
    "flysfo:airline": "VX",
    "flysfo:date": "2016-12-05",
    "flysfo:event": "A",
    "flysfo:flight_number": "VX8002",
    "flysfo:journey": "KDCA-SFO",
    "geom:area": 0,
    "geom:bbox": "-122.370943,37.617990,-77.041643,38.850639",
    "geom:latitude": 38.234314499999996,
    "geom:longitude": -99.70629299999999,
    "iata:airline": "VX",
    "icao:aircraft": "A320",
    "icao:airline": "VRD",
    "mz:is_current": -1,
    "sfomuseum:aircraft_id": 1159292085,
    "sfomuseum:airline_id": 1159285481,
    "sfomuseum:arrival_id": 102527513,
    "sfomuseum:departure_id": 102532159,
    "sfomuseum:flight_id": "20161205-A-VRD-8002",
    "sfomuseum:flight_number": [
      "VX8002", 
      "VRD8002"
    ],
    "sfomuseum:placetype": "flight",
    "src:geom": "sfonoise",
    "wof:belongsto": [
      85633793, 
      85688637, 
      1159157271, 
      102527513, 
      1679246263, 
      85922583, 
      102191575, 
      102087579
    ],
    "wof:country": "US",
    "wof:created": 1582933818,
    "wof:geomhash": "cfff966b0a5de3ca50080923c4337cfe",
    "wof:hierarchy": [
      {
        "building_id": 1159157271,
        "campus_id": 102527513,
        "concourse_id": -1,
        "continent_id": 102191575,
        "country_id": 85633793,
        "county_id": 102087579,
        "event_id": 1679246263,
        "locality_id": 85922583,
        "neighbourhood_id": -1,
        "region_id": 85688637,
        "venue_id": -1,
        "wing_id": -1
      }
    ],
    "wof:id": 1679246263,
    "wof:lastmodified": 1582933818,
    "wof:name": "VRD8002 (KDCA-SFO)",
    "wof:parent_id": -1,
    "wof:placetype": "event",
    "wof:repo": "sfomuseum-data-flights-2016",
    "wof:superseded_by": [],
    "wof:supersedes": []
  },
  "bbox": [
    -122.370943, 
    37.61799, 
    -77.041643, 
    38.850639
  ],
  "geometry": {"coordinates":[[-77.041643,38.850639],[-122.370943,37.61799]],"type":"MultiPoint"}
}
