{
  "id": 1662299771,
  "type": "Feature",
  "properties": {
    "edtf:cessation": "2016-06-04~",
    "edtf:inception": "2016-06-04T00:36:06",
    "flysfo:airline": "UA",
    "flysfo:date": "2016-06-04",
    "flysfo:event": "D",
    "flysfo:flight_number": "UA2079",
    "flysfo:journey": "SFO-YSSY",
    "geom:area": 0,
    "geom:bbox": "-122.370943,-33.934928,151.173388,37.617990",
    "geom:latitude": 1.8415309999999998,
    "geom:longitude": 14.401222499999996,
    "iata:airline": "UA",
    "icao:aircraft": "B789",
    "icao:airline": "UAL",
    "mz:is_current": -1,
    "sfomuseum:aircraft_id": 1159293215,
    "sfomuseum:airline_id": 1159285413,
    "sfomuseum:arrival_id": 102557783,
    "sfomuseum:departure_id": 102527513,
    "sfomuseum:flight_id": "20160604-D-UAL-2079",
    "sfomuseum:flight_number": [
      "UA2079", 
      "UAL2079"
    ],
    "sfomuseum:placetype": "flight",
    "src:geom": "sfonoise",
    "wof:belongsto": [
      1159396321, 
      102191575, 
      102087579, 
      85922583, 
      85688637, 
      102527513, 
      85633793, 
      1662299771
    ],
    "wof:country": "US",
    "wof:created": 1582926154,
    "wof:geomhash": "148b50b9c1c42c575a8cdcaf5b598e8f",
    "wof:hierarchy": [
      {
        "building_id": 1159396321,
        "campus_id": 102527513,
        "concourse_id": -1,
        "continent_id": 102191575,
        "country_id": 85633793,
        "county_id": 102087579,
        "event_id": 1662299771,
        "locality_id": 85922583,
        "neighbourhood_id": -1,
        "region_id": 85688637,
        "venue_id": -1,
        "wing_id": -1
      }
    ],
    "wof:id": 1662299771,
    "wof:lastmodified": 1582926154,
    "wof:name": "UAL2079 (SFO-YSSY)",
    "wof:parent_id": -1,
    "wof:placetype": "event",
    "wof:repo": "sfomuseum-data-flights-2016",
    "wof:superseded_by": [],
    "wof:supersedes": []
  },
  "bbox": [
    -122.370943, 
    -33.934928, 
    151.173388, 
    37.61799
  ],
  "geometry": {"coordinates":[[-122.370943,37.61799],[151.173388,-33.934928]],"type":"MultiPoint"}
}
