{
  "id": 1662107635,
  "type": "Feature",
  "properties": {
    "edtf:cessation": "2016-02-12T08:58:46",
    "edtf:inception": "2016-02-12~",
    "flysfo:airline": "UA",
    "flysfo:date": "2016-02-12",
    "flysfo:event": "A",
    "flysfo:flight_number": "UA870",
    "flysfo:journey": "SYD-SFO",
    "geom:area": 0,
    "geom:bbox": "-122.370943,-33.934928,151.173388,37.617990",
    "geom:latitude": 1.8415309999999998,
    "geom:longitude": 14.401222499999996,
    "iata:airline": "UA",
    "icao:aircraft": "B772",
    "icao:airline": "UAL",
    "mz:is_current": -1,
    "sfomuseum:aircraft_id": 1159289985,
    "sfomuseum:airline_id": 1159285413,
    "sfomuseum:arrival_id": 102527513,
    "sfomuseum:departure_id": 102557783,
    "sfomuseum:flight_id": "20160212-A-UAL-870",
    "sfomuseum:flight_number": [
      "UA870", 
      "UAL870"
    ],
    "sfomuseum:placetype": "flight",
    "src:geom": "sfonoise",
    "wof:belongsto": [
      85922583, 
      85688637, 
      102527513, 
      85633793, 
      102087579, 
      1662107635, 
      1159396321, 
      102191575
    ],
    "wof:country": "US",
    "wof:created": 1582922780,
    "wof:geomhash": "f3115fe3d28c66ab4b94072923e0b1bb",
    "wof:hierarchy": [
      {
        "building_id": 1159396321,
        "campus_id": 102527513,
        "concourse_id": -1,
        "continent_id": 102191575,
        "country_id": 85633793,
        "county_id": 102087579,
        "event_id": 1662107635,
        "locality_id": 85922583,
        "neighbourhood_id": -1,
        "region_id": 85688637,
        "venue_id": -1,
        "wing_id": -1
      }
    ],
    "wof:id": 1662107635,
    "wof:lastmodified": 1582922780,
    "wof:name": "UAL870 (SYD-SFO)",
    "wof:parent_id": -1,
    "wof:placetype": "event",
    "wof:repo": "sfomuseum-data-flights-2016",
    "wof:superseded_by": [],
    "wof:supersedes": []
  },
  "bbox": [
    -122.370943, 
    -33.934928, 
    151.173388, 
    37.61799
  ],
  "geometry": {"coordinates":[[151.173388,-33.934928],[-122.370943,37.61799]],"type":"MultiPoint"}
}
