{
  "id": 1662314183,
  "type": "Feature",
  "properties": {
    "edtf:cessation": "2016-06-11~",
    "edtf:inception": "2016-06-11T17:54:04",
    "flysfo:airline": "DL",
    "flysfo:date": "2016-06-11",
    "flysfo:event": "D",
    "flysfo:flight_number": "DL8842",
    "flysfo:journey": "SFO-KHOU",
    "geom:area": 0,
    "geom:bbox": "-122.370943,29.652674,-95.279344,37.617990",
    "geom:latitude": 33.635332,
    "geom:longitude": -108.8251435,
    "iata:airline": "DL",
    "icao:aircraft": "L101",
    "icao:airline": "DAL",
    "mz:is_current": -1,
    "sfomuseum:aircraft_id": 1159291129,
    "sfomuseum:airline_id": 1159284261,
    "sfomuseum:arrival_id": 102531775,
    "sfomuseum:departure_id": 102527513,
    "sfomuseum:flight_id": "20160611-D-DAL-8842",
    "sfomuseum:flight_number": [
      "DL8842", 
      "DAL8842"
    ],
    "sfomuseum:placetype": "flight",
    "src:geom": "sfonoise",
    "wof:belongsto": [
      102191575, 
      102087579, 
      85688637, 
      1159396321, 
      102527513, 
      85633793, 
      1662314183, 
      85922583
    ],
    "wof:country": "US",
    "wof:created": 1582926369,
    "wof:geomhash": "659cd7ad5e5126045522d61820d30c49",
    "wof:hierarchy": [
      {
        "building_id": 1159396321,
        "campus_id": 102527513,
        "concourse_id": -1,
        "continent_id": 102191575,
        "country_id": 85633793,
        "county_id": 102087579,
        "event_id": 1662314183,
        "locality_id": 85922583,
        "neighbourhood_id": -1,
        "region_id": 85688637,
        "venue_id": -1,
        "wing_id": -1
      }
    ],
    "wof:id": 1662314183,
    "wof:lastmodified": 1582926369,
    "wof:name": "DAL8842 (SFO-KHOU)",
    "wof:parent_id": -1,
    "wof:placetype": "event",
    "wof:repo": "sfomuseum-data-flights-2016",
    "wof:superseded_by": [],
    "wof:supersedes": []
  },
  "bbox": [
    -122.370943, 
    29.652674, 
    -95.279344, 
    37.61799
  ],
  "geometry": {"coordinates":[[-122.370943,37.61799],[-95.279344,29.652674]],"type":"MultiPoint"}
}
