{
  "id": 1629073489,
  "type": "Feature",
  "properties": {
    "edtf:cessation": "2016-01-02~",
    "edtf:inception": "2016-01-02T14:03:58",
    "flysfo:airline": "UA",
    "flysfo:date": "2016-01-02",
    "flysfo:event": "D",
    "flysfo:flight_number": "UA1867",
    "flysfo:journey": "SFO-SLC",
    "geom:area": 0,
    "geom:bbox": "-122.370943,37.617990,-111.980566,40.782170",
    "geom:latitude": 39.20008,
    "geom:longitude": -117.1757545,
    "iata:airline": "UA",
    "icao:aircraft": "B738",
    "icao:airline": "UAL",
    "mz:is_current": -1,
    "sfomuseum:aircraft_id": 1159289871,
    "sfomuseum:airline_id": 1159285413,
    "sfomuseum:arrival_id": 102527363,
    "sfomuseum:departure_id": 102527513,
    "sfomuseum:flight_id": "20160102-D-UAL-1867",
    "sfomuseum:flight_number": [
      "UA1867", 
      "UAL1867"
    ],
    "sfomuseum:placetype": "flight",
    "src:geom": "sfonoise",
    "wof:belongsto": [
      85688637, 
      102191575, 
      102087579, 
      1629073489, 
      85922583, 
      1159396321, 
      102527513, 
      85633793
    ],
    "wof:country": "US",
    "wof:created": 1582921936,
    "wof:geomhash": "b2ae00b77ffd1072a2eb4148779a5d9e",
    "wof:hierarchy": [
      {
        "building_id": 1159396321,
        "campus_id": 102527513,
        "concourse_id": -1,
        "continent_id": 102191575,
        "country_id": 85633793,
        "county_id": 102087579,
        "event_id": 1629073489,
        "locality_id": 85922583,
        "neighbourhood_id": -1,
        "region_id": 85688637,
        "venue_id": -1,
        "wing_id": -1
      }
    ],
    "wof:id": 1629073489,
    "wof:lastmodified": 1582921936,
    "wof:name": "UAL1867 (SFO-SLC)",
    "wof:parent_id": -1,
    "wof:placetype": "event",
    "wof:repo": "sfomuseum-data-flights-2016",
    "wof:superseded_by": [],
    "wof:supersedes": []
  },
  "bbox": [
    -122.370943, 
    37.61799, 
    -111.980566, 
    40.78217
  ],
  "geometry": {"coordinates":[[-122.370943,37.61799],[-111.980566,40.78217]],"type":"MultiPoint"}
}
