{
  "id": 1662260729,
  "type": "Feature",
  "properties": {
    "edtf:cessation": "2016-05-13~",
    "edtf:inception": "2016-05-13T15:12:41",
    "flysfo:airline": "CI",
    "flysfo:date": "2016-05-13",
    "flysfo:event": "D",
    "flysfo:flight_number": "CI5397",
    "flysfo:journey": "SFO-ANC",
    "geom:area": 0,
    "geom:bbox": "-149.968401,37.617990,-122.370943,61.173606",
    "geom:latitude": 49.395798,
    "geom:longitude": -136.169672,
    "iata:airline": "CI",
    "icao:aircraft": "B744",
    "icao:airline": "CAL",
    "mz:is_current": -1,
    "sfomuseum:aircraft_id": 1159289915,
    "sfomuseum:airline_id": 1159284153,
    "sfomuseum:arrival_id": 102531979,
    "sfomuseum:departure_id": 102527513,
    "sfomuseum:flight_id": "20160513-D-CAL-5397",
    "sfomuseum:flight_number": [
      "CI5397", 
      "CAL5397"
    ],
    "sfomuseum:placetype": "flight",
    "src:geom": "sfonoise",
    "wof:belongsto": [
      102191575, 
      85633793, 
      85688637, 
      102527513, 
      1662260729, 
      85922583, 
      1159396321, 
      102087579
    ],
    "wof:country": "US",
    "wof:created": 1582925512,
    "wof:geomhash": "24c5d8bcd340273688237ae435bbe348",
    "wof:hierarchy": [
      {
        "building_id": 1159396321,
        "campus_id": 102527513,
        "concourse_id": -1,
        "continent_id": 102191575,
        "country_id": 85633793,
        "county_id": 102087579,
        "event_id": 1662260729,
        "locality_id": 85922583,
        "neighbourhood_id": -1,
        "region_id": 85688637,
        "venue_id": -1,
        "wing_id": -1
      }
    ],
    "wof:id": 1662260729,
    "wof:lastmodified": 1582925512,
    "wof:name": "CAL5397 (SFO-ANC)",
    "wof:parent_id": -1,
    "wof:placetype": "event",
    "wof:repo": "sfomuseum-data-flights-2016",
    "wof:superseded_by": [],
    "wof:supersedes": []
  },
  "bbox": [
    -149.968401, 
    37.61799, 
    -122.370943, 
    61.173606
  ],
  "geometry": {"coordinates":[[-122.370943,37.61799],[-149.968401,61.173606]],"type":"MultiPoint"}
}
