{
  "id": 1628941009,
  "type": "Feature",
  "properties": {
    "edtf:cessation": "2016-07-15~",
    "edtf:inception": "2016-07-15T09:12:38",
    "flysfo:airline": "UA",
    "flysfo:date": "2016-07-15",
    "flysfo:event": "D",
    "flysfo:flight_number": "UA2267",
    "flysfo:journey": "SFO-KMHR",
    "geom:area": 0,
    "geom:bbox": "-122.370943,37.617990,-121.299236,38.565316",
    "geom:latitude": 38.091653,
    "geom:longitude": -121.8350895,
    "iata:airline": "UA",
    "icao:aircraft": "B744",
    "icao:airline": "UAL",
    "mz:is_current": -1,
    "sfomuseum:aircraft_id": 1159289915,
    "sfomuseum:airline_id": 1159285413,
    "sfomuseum:arrival_id": 102530589,
    "sfomuseum:departure_id": 102527513,
    "sfomuseum:flight_id": "20160715-D-UAL-2267",
    "sfomuseum:flight_number": [
      "UA2267", 
      "UAL2267"
    ],
    "sfomuseum:placetype": "flight",
    "src:geom": "sfonoise",
    "wof:belongsto": [
      102191575, 
      85633793, 
      1628941009, 
      1159157271, 
      85922583, 
      85688637, 
      102087579, 
      102527513
    ],
    "wof:country": "US",
    "wof:created": 1582927390,
    "wof:geomhash": "440268bbb9d999c408d3a726f8ea2d44",
    "wof:hierarchy": [
      {
        "building_id": 1159157271,
        "campus_id": 102527513,
        "concourse_id": -1,
        "continent_id": 102191575,
        "country_id": 85633793,
        "county_id": 102087579,
        "event_id": 1628941009,
        "locality_id": 85922583,
        "neighbourhood_id": -1,
        "region_id": 85688637,
        "venue_id": -1,
        "wing_id": -1
      }
    ],
    "wof:id": 1628941009,
    "wof:lastmodified": 1582927390,
    "wof:name": "UAL2267 (SFO-KMHR)",
    "wof:parent_id": -1,
    "wof:placetype": "event",
    "wof:repo": "sfomuseum-data-flights-2016",
    "wof:superseded_by": [],
    "wof:supersedes": []
  },
  "bbox": [
    -122.370943, 
    37.61799, 
    -121.299236, 
    38.565316
  ],
  "geometry": {"coordinates":[[-122.370943,37.61799],[-121.299236,38.565316]],"type":"MultiPoint"}
}
