{
  "id": 1679149535,
  "type": "Feature",
  "properties": {
    "edtf:cessation": "2016-11-06~",
    "edtf:inception": "2016-11-06T03:31:03",
    "flysfo:airline": "KE",
    "flysfo:date": "2016-11-06",
    "flysfo:event": "D",
    "flysfo:flight_number": "KE214",
    "flysfo:journey": "SFO-RKSI",
    "geom:area": 0,
    "geom:bbox": "-122.370943,37.453966,126.661632,37.617990",
    "geom:latitude": 37.535978,
    "geom:longitude": 2.1453445,
    "iata:airline": "KE",
    "icao:aircraft": "B748",
    "icao:airline": "KAL",
    "mz:is_current": -1,
    "sfomuseum:aircraft_id": 1159293239,
    "sfomuseum:airline_id": 1159284625,
    "sfomuseum:arrival_id": 102556451,
    "sfomuseum:departure_id": 102527513,
    "sfomuseum:flight_id": "20161106-D-KAL-214",
    "sfomuseum:flight_number": [
      "KE214", 
      "KAL214"
    ],
    "sfomuseum:placetype": "flight",
    "src:geom": "sfonoise",
    "wof:belongsto": [
      85688637, 
      1159157271, 
      102191575, 
      1679149535, 
      102527513, 
      85633793, 
      102087579, 
      85922583
    ],
    "wof:country": "US",
    "wof:created": 1582932889,
    "wof:geomhash": "76fab8ba90cc172f777e745d124625d2",
    "wof:hierarchy": [
      {
        "building_id": 1159157271,
        "campus_id": 102527513,
        "concourse_id": -1,
        "continent_id": 102191575,
        "country_id": 85633793,
        "county_id": 102087579,
        "event_id": 1679149535,
        "locality_id": 85922583,
        "neighbourhood_id": -1,
        "region_id": 85688637,
        "venue_id": -1,
        "wing_id": -1
      }
    ],
    "wof:id": 1679149535,
    "wof:lastmodified": 1582932889,
    "wof:name": "KAL214 (SFO-RKSI)",
    "wof:parent_id": -1,
    "wof:placetype": "event",
    "wof:repo": "sfomuseum-data-flights-2016",
    "wof:superseded_by": [],
    "wof:supersedes": []
  },
  "bbox": [
    -122.370943, 
    37.453966, 
    126.661632, 
    37.61799
  ],
  "geometry": {"coordinates":[[-122.370943,37.61799],[126.661632,37.453966]],"type":"MultiPoint"}
}
