{
  "id": 1662324675,
  "type": "Feature",
  "properties": {
    "edtf:cessation": "2016-06-17T00:47:29",
    "edtf:inception": "2016-06-17~",
    "flysfo:airline": "UA",
    "flysfo:date": "2016-06-17",
    "flysfo:event": "A",
    "flysfo:flight_number": "UA1025",
    "flysfo:journey": "KIAD-SFO",
    "geom:area": 0,
    "geom:bbox": "-122.370943,37.617990,-77.453702,38.949246",
    "geom:latitude": 38.283618000000004,
    "geom:longitude": -99.9123225,
    "iata:airline": "UA",
    "icao:aircraft": "B739",
    "icao:airline": "UAL",
    "mz:is_current": -1,
    "sfomuseum:aircraft_id": 1377564285,
    "sfomuseum:airline_id": 1159285413,
    "sfomuseum:arrival_id": 102527513,
    "sfomuseum:departure_id": 102528817,
    "sfomuseum:flight_id": "20160617-A-UAL-1025",
    "sfomuseum:flight_number": [
      "UA1025", 
      "UAL1025"
    ],
    "sfomuseum:placetype": "flight",
    "src:geom": "sfonoise",
    "wof:belongsto": [
      102087579, 
      85633793, 
      102527513, 
      102191575, 
      85922583, 
      85688637, 
      1159396321, 
      1662324675
    ],
    "wof:country": "US",
    "wof:created": 1582926539,
    "wof:geomhash": "376248592ab7850cfb9a479529cc5caf",
    "wof:hierarchy": [
      {
        "building_id": 1159396321,
        "campus_id": 102527513,
        "concourse_id": -1,
        "continent_id": 102191575,
        "country_id": 85633793,
        "county_id": 102087579,
        "event_id": 1662324675,
        "locality_id": 85922583,
        "neighbourhood_id": -1,
        "region_id": 85688637,
        "venue_id": -1,
        "wing_id": -1
      }
    ],
    "wof:id": 1662324675,
    "wof:lastmodified": 1582926539,
    "wof:name": "UAL1025 (KIAD-SFO)",
    "wof:parent_id": -1,
    "wof:placetype": "event",
    "wof:repo": "sfomuseum-data-flights-2016",
    "wof:superseded_by": [],
    "wof:supersedes": []
  },
  "bbox": [
    -122.370943, 
    37.61799, 
    -77.453702, 
    38.949246
  ],
  "geometry": {"coordinates":[[-77.453702,38.949246],[-122.370943,37.61799]],"type":"MultiPoint"}
}
