{
  "id": 1662070895,
  "type": "Feature",
  "properties": {
    "edtf:cessation": "2016-01-18T09:44:20",
    "edtf:inception": "2016-01-18~",
    "flysfo:airline": "HA",
    "flysfo:date": "2016-01-18",
    "flysfo:event": "A",
    "flysfo:flight_number": "HA43",
    "flysfo:journey": "MMGL-SFO",
    "geom:area": 0,
    "geom:bbox": "-122.370943,20.525627,-103.301974,37.617990",
    "geom:latitude": 29.0718085,
    "geom:longitude": -112.83645849999999,
    "iata:airline": "HA",
    "icao:aircraft": "B763",
    "icao:airline": "HAL",
    "mz:is_current": -1,
    "sfomuseum:aircraft_id": 1159289965,
    "sfomuseum:airline_id": 1159284489,
    "sfomuseum:arrival_id": 102527513,
    "sfomuseum:departure_id": 102536387,
    "sfomuseum:flight_id": "20160118-A-HAL-43",
    "sfomuseum:flight_number": [
      "HA43", 
      "HAL43"
    ],
    "sfomuseum:placetype": "flight",
    "src:geom": "sfonoise",
    "wof:belongsto": [
      1662070895, 
      102087579, 
      102191575, 
      85633793, 
      85688637, 
      102527513, 
      85922583, 
      1159396321
    ],
    "wof:country": "US",
    "wof:created": 1582922244,
    "wof:geomhash": "d1cf00e952c40abdeded8d31cdcdf72b",
    "wof:hierarchy": [
      {
        "building_id": 1159396321,
        "campus_id": 102527513,
        "concourse_id": -1,
        "continent_id": 102191575,
        "country_id": 85633793,
        "county_id": 102087579,
        "event_id": 1662070895,
        "locality_id": 85922583,
        "neighbourhood_id": -1,
        "region_id": 85688637,
        "venue_id": -1,
        "wing_id": -1
      }
    ],
    "wof:id": 1662070895,
    "wof:lastmodified": 1582922244,
    "wof:name": "HAL43 (MMGL-SFO)",
    "wof:parent_id": -1,
    "wof:placetype": "event",
    "wof:repo": "sfomuseum-data-flights-2016",
    "wof:superseded_by": [],
    "wof:supersedes": []
  },
  "bbox": [
    -122.370943, 
    20.525627, 
    -103.301974, 
    37.61799
  ],
  "geometry": {"coordinates":[[-103.301974,20.525627],[-122.370943,37.61799]],"type":"MultiPoint"}
}
