{
  "id": 1678857855,
  "type": "Feature",
  "properties": {
    "edtf:cessation": "2016-08-31~",
    "edtf:inception": "2016-08-31T11:20:41",
    "flysfo:airline": "B6",
    "flysfo:date": "2016-08-31",
    "flysfo:event": "D",
    "flysfo:flight_number": "B62288",
    "flysfo:journey": "SFO-KLAS",
    "geom:area": 0,
    "geom:bbox": "-122.370943,36.081003,-115.156440,37.617990",
    "geom:latitude": 36.8494965,
    "geom:longitude": -118.7636915,
    "iata:airline": "B6",
    "icao:aircraft": "A320",
    "icao:airline": "JBU",
    "mz:is_current": -1,
    "sfomuseum:aircraft_id": 1159292085,
    "sfomuseum:airline_id": 1360700745,
    "sfomuseum:arrival_id": 102527209,
    "sfomuseum:departure_id": 102527513,
    "sfomuseum:flight_id": "20160831-D-JBU-2288",
    "sfomuseum:flight_number": [
      "B62288", 
      "JBU2288"
    ],
    "sfomuseum:placetype": "flight",
    "src:geom": "sfonoise",
    "wof:belongsto": [
      1159157271, 
      102087579, 
      85633793, 
      1678857855, 
      85688637, 
      102527513, 
      102191575, 
      85922583
    ],
    "wof:country": "US",
    "wof:created": 1582929339,
    "wof:geomhash": "ccf694144ef1f7a2823fe9bc7c6018ea",
    "wof:hierarchy": [
      {
        "building_id": 1159157271,
        "campus_id": 102527513,
        "concourse_id": -1,
        "continent_id": 102191575,
        "country_id": 85633793,
        "county_id": 102087579,
        "event_id": 1678857855,
        "locality_id": 85922583,
        "neighbourhood_id": -1,
        "region_id": 85688637,
        "venue_id": -1,
        "wing_id": -1
      }
    ],
    "wof:id": 1678857855,
    "wof:lastmodified": 1582929339,
    "wof:name": "JBU2288 (SFO-KLAS)",
    "wof:parent_id": -1,
    "wof:placetype": "event",
    "wof:repo": "sfomuseum-data-flights-2016",
    "wof:superseded_by": [],
    "wof:supersedes": []
  },
  "bbox": [
    -122.370943, 
    36.081003, 
    -115.15644, 
    37.61799
  ],
  "geometry": {"coordinates":[[-122.370943,37.61799],[-115.15644,36.081003]],"type":"MultiPoint"}
}
