{
  "id": 1679143767,
  "type": "Feature",
  "properties": {
    "edtf:cessation": "2016-11-04T10:32:52",
    "edtf:inception": "2016-11-04~",
    "flysfo:airline": "WN",
    "flysfo:date": "2016-11-04",
    "flysfo:event": "A",
    "flysfo:flight_number": "WN1855",
    "flysfo:journey": "KSNA-SFO",
    "geom:area": 0,
    "geom:bbox": "-122.370943,33.677724,-117.866280,37.617990",
    "geom:latitude": 35.647857,
    "geom:longitude": -120.1186115,
    "iata:airline": "WN",
    "icao:aircraft": "B737",
    "icao:airline": "SWA",
    "mz:is_current": -1,
    "sfomuseum:aircraft_id": 1159289869,
    "sfomuseum:airline_id": 1159285591,
    "sfomuseum:arrival_id": 102527513,
    "sfomuseum:departure_id": 102534161,
    "sfomuseum:flight_id": "20161104-A-SWA-1855",
    "sfomuseum:flight_number": [
      "WN1855", 
      "SWA1855"
    ],
    "sfomuseum:placetype": "flight",
    "src:geom": "sfonoise",
    "wof:belongsto": [
      1679143767, 
      102527513, 
      85633793, 
      102087579, 
      85922583, 
      85688637, 
      1159157271, 
      102191575
    ],
    "wof:country": "US",
    "wof:created": 1582932831,
    "wof:geomhash": "01009f732d03a7803d3f7fd23cf321f4",
    "wof:hierarchy": [
      {
        "building_id": 1159157271,
        "campus_id": 102527513,
        "concourse_id": -1,
        "continent_id": 102191575,
        "country_id": 85633793,
        "county_id": 102087579,
        "event_id": 1679143767,
        "locality_id": 85922583,
        "neighbourhood_id": -1,
        "region_id": 85688637,
        "venue_id": -1,
        "wing_id": -1
      }
    ],
    "wof:id": 1679143767,
    "wof:lastmodified": 1582932831,
    "wof:name": "SWA1855 (KSNA-SFO)",
    "wof:parent_id": -1,
    "wof:placetype": "event",
    "wof:repo": "sfomuseum-data-flights-2016",
    "wof:superseded_by": [],
    "wof:supersedes": []
  },
  "bbox": [
    -122.370943, 
    33.677724, 
    -117.86628, 
    37.61799
  ],
  "geometry": {"coordinates":[[-117.86628,33.677724],[-122.370943,37.61799]],"type":"MultiPoint"}
}
