{
  "id": 1662321635,
  "type": "Feature",
  "properties": {
    "edtf:cessation": "2016-06-15~",
    "edtf:inception": "2016-06-15T14:41:31",
    "flysfo:airline": "AS",
    "flysfo:date": "2016-06-15",
    "flysfo:event": "D",
    "flysfo:flight_number": "AS306",
    "flysfo:journey": "SFO-KPSP",
    "geom:area": 0,
    "geom:bbox": "-122.370943,33.824619,-116.506042,37.617990",
    "geom:latitude": 35.7213045,
    "geom:longitude": -119.4384925,
    "iata:airline": "AS",
    "icao:aircraft": "B738",
    "icao:airline": "ASA",
    "mz:is_current": -1,
    "sfomuseum:aircraft_id": 1159289871,
    "sfomuseum:airline_id": 1159283813,
    "sfomuseum:arrival_id": 102533591,
    "sfomuseum:departure_id": 102527513,
    "sfomuseum:flight_id": "20160615-D-ASA-306",
    "sfomuseum:flight_number": [
      "AS306", 
      "ASA306"
    ],
    "sfomuseum:placetype": "flight",
    "src:geom": "sfonoise",
    "wof:belongsto": [
      1159396321, 
      85688637, 
      102087579, 
      102527513, 
      102191575, 
      1662321635, 
      85633793, 
      85922583
    ],
    "wof:country": "US",
    "wof:created": 1582926465,
    "wof:geomhash": "e84c3ec216fbaf9440bbf99d412a1253",
    "wof:hierarchy": [
      {
        "building_id": 1159396321,
        "campus_id": 102527513,
        "concourse_id": -1,
        "continent_id": 102191575,
        "country_id": 85633793,
        "county_id": 102087579,
        "event_id": 1662321635,
        "locality_id": 85922583,
        "neighbourhood_id": -1,
        "region_id": 85688637,
        "venue_id": -1,
        "wing_id": -1
      }
    ],
    "wof:id": 1662321635,
    "wof:lastmodified": 1582926465,
    "wof:name": "ASA306 (SFO-KPSP)",
    "wof:parent_id": -1,
    "wof:placetype": "event",
    "wof:repo": "sfomuseum-data-flights-2016",
    "wof:superseded_by": [],
    "wof:supersedes": []
  },
  "bbox": [
    -122.370943, 
    33.824619, 
    -116.506042, 
    37.61799
  ],
  "geometry": {"coordinates":[[-122.370943,37.61799],[-116.506042,33.824619]],"type":"MultiPoint"}
}
