{
  "id": 1679227469,
  "type": "Feature",
  "properties": {
    "edtf:cessation": "2016-11-29~",
    "edtf:inception": "2016-11-29T08:46:11",
    "flysfo:airline": "HA",
    "flysfo:date": "2016-11-29",
    "flysfo:event": "D",
    "flysfo:flight_number": "HA11",
    "flysfo:journey": "SFO-PHNL",
    "geom:area": 0,
    "geom:bbox": "-157.918416,21.332508,-122.370943,37.617990",
    "geom:latitude": 29.475248999999998,
    "geom:longitude": -140.1446795,
    "iata:airline": "HA",
    "icao:aircraft": "A332",
    "icao:airline": "HAL",
    "mz:is_current": -1,
    "sfomuseum:aircraft_id": 1159289421,
    "sfomuseum:airline_id": 1159284489,
    "sfomuseum:arrival_id": 102533997,
    "sfomuseum:departure_id": 102527513,
    "sfomuseum:flight_id": "20161129-D-HAL-11",
    "sfomuseum:flight_number": [
      "HA11", 
      "HAL11"
    ],
    "sfomuseum:placetype": "flight",
    "src:geom": "sfonoise",
    "wof:belongsto": [
      1159157271, 
      102527513, 
      102191575, 
      102087579, 
      1679227469, 
      85633793, 
      85688637, 
      85922583
    ],
    "wof:country": "US",
    "wof:created": 1582933640,
    "wof:geomhash": "ff961493fc59fc665836e174da62aa8e",
    "wof:hierarchy": [
      {
        "building_id": 1159157271,
        "campus_id": 102527513,
        "concourse_id": -1,
        "continent_id": 102191575,
        "country_id": 85633793,
        "county_id": 102087579,
        "event_id": 1679227469,
        "locality_id": 85922583,
        "neighbourhood_id": -1,
        "region_id": 85688637,
        "venue_id": -1,
        "wing_id": -1
      }
    ],
    "wof:id": 1679227469,
    "wof:lastmodified": 1582933640,
    "wof:name": "HAL11 (SFO-PHNL)",
    "wof:parent_id": -1,
    "wof:placetype": "event",
    "wof:repo": "sfomuseum-data-flights-2016",
    "wof:superseded_by": [],
    "wof:supersedes": []
  },
  "bbox": [
    -157.918416, 
    21.332508, 
    -122.370943, 
    37.61799
  ],
  "geometry": {"coordinates":[[-122.370943,37.61799],[-157.918416,21.332508]],"type":"MultiPoint"}
}
