{
  "id": 1662189701,
  "type": "Feature",
  "properties": {
    "edtf:cessation": "2016-04-03T09:56:35",
    "edtf:inception": "2016-04-03~",
    "flysfo:airline": "VX",
    "flysfo:date": "2016-04-03",
    "flysfo:event": "A",
    "flysfo:flight_number": "VX595",
    "flysfo:journey": "KPSP-SFO",
    "geom:area": 0,
    "geom:bbox": "-122.370943,33.824619,-116.506042,37.617990",
    "geom:latitude": 35.7213045,
    "geom:longitude": -119.4384925,
    "iata:airline": "VX",
    "icao:aircraft": "A320",
    "icao:airline": "VRD",
    "mz:is_current": -1,
    "sfomuseum:aircraft_id": 1159292085,
    "sfomuseum:airline_id": 1159285481,
    "sfomuseum:arrival_id": 102527513,
    "sfomuseum:departure_id": 102533591,
    "sfomuseum:flight_id": "20160403-A-VRD-595",
    "sfomuseum:flight_number": [
      "VX595", 
      "VRD595"
    ],
    "sfomuseum:placetype": "flight",
    "src:geom": "sfonoise",
    "wof:belongsto": [
      85688637, 
      102527513, 
      102191575, 
      85633793, 
      102087579, 
      85922583, 
      1159396321, 
      1662189701
    ],
    "wof:country": "US",
    "wof:created": 1582924002,
    "wof:geomhash": "a35a6e87f0ae0f1f716f88067ee31aa3",
    "wof:hierarchy": [
      {
        "building_id": 1159396321,
        "campus_id": 102527513,
        "concourse_id": -1,
        "continent_id": 102191575,
        "country_id": 85633793,
        "county_id": 102087579,
        "event_id": 1662189701,
        "locality_id": 85922583,
        "neighbourhood_id": -1,
        "region_id": 85688637,
        "venue_id": -1,
        "wing_id": -1
      }
    ],
    "wof:id": 1662189701,
    "wof:lastmodified": 1582924002,
    "wof:name": "VRD595 (KPSP-SFO)",
    "wof:parent_id": -1,
    "wof:placetype": "event",
    "wof:repo": "sfomuseum-data-flights-2016",
    "wof:superseded_by": [],
    "wof:supersedes": []
  },
  "bbox": [
    -122.370943, 
    33.824619, 
    -116.506042, 
    37.61799
  ],
  "geometry": {"coordinates":[[-116.506042,33.824619],[-122.370943,37.61799]],"type":"MultiPoint"}
}
