{
  "id": 1662265399,
  "type": "Feature",
  "properties": {
    "edtf:cessation": "2016-05-16T09:52:56",
    "edtf:inception": "2016-05-16~",
    "flysfo:airline": "VX",
    "flysfo:date": "2016-05-16",
    "flysfo:event": "A",
    "flysfo:flight_number": "VX713",
    "flysfo:journey": "KDAL-SFO",
    "geom:area": 0,
    "geom:bbox": "-122.370943,32.845849,-96.850523,37.617990",
    "geom:latitude": 35.231919500000004,
    "geom:longitude": -109.610733,
    "iata:airline": "VX",
    "icao:aircraft": "A320",
    "icao:airline": "VRD",
    "mz:is_current": -1,
    "sfomuseum:aircraft_id": 1159292085,
    "sfomuseum:airline_id": 1159285481,
    "sfomuseum:arrival_id": 102527513,
    "sfomuseum:departure_id": 102525799,
    "sfomuseum:flight_id": "20160516-A-VRD-713",
    "sfomuseum:flight_number": [
      "VX713", 
      "VRD713"
    ],
    "sfomuseum:placetype": "flight",
    "src:geom": "sfonoise",
    "wof:belongsto": [
      102191575, 
      1662265399, 
      85688637, 
      102527513, 
      85633793, 
      102087579, 
      1159396321, 
      85922583
    ],
    "wof:country": "US",
    "wof:created": 1582925584,
    "wof:geomhash": "ecfc64ce72b903780fc129f985c12eef",
    "wof:hierarchy": [
      {
        "building_id": 1159396321,
        "campus_id": 102527513,
        "concourse_id": -1,
        "continent_id": 102191575,
        "country_id": 85633793,
        "county_id": 102087579,
        "event_id": 1662265399,
        "locality_id": 85922583,
        "neighbourhood_id": -1,
        "region_id": 85688637,
        "venue_id": -1,
        "wing_id": -1
      }
    ],
    "wof:id": 1662265399,
    "wof:lastmodified": 1582925584,
    "wof:name": "VRD713 (KDAL-SFO)",
    "wof:parent_id": -1,
    "wof:placetype": "event",
    "wof:repo": "sfomuseum-data-flights-2016",
    "wof:superseded_by": [],
    "wof:supersedes": []
  },
  "bbox": [
    -122.370943, 
    32.845849, 
    -96.850523, 
    37.61799
  ],
  "geometry": {"coordinates":[[-96.850523,32.845849],[-122.370943,37.61799]],"type":"MultiPoint"}
}
