{
  "id": 1629249263,
  "type": "Feature",
  "properties": {
    "edtf:cessation": "2016-07-21T21:52:13",
    "edtf:inception": "2016-07-21~",
    "flysfo:airline": "F9",
    "flysfo:date": "2016-07-21",
    "flysfo:event": "A",
    "flysfo:flight_number": "F9663",
    "flysfo:journey": "KDEN-SFO",
    "geom:area": 0,
    "geom:bbox": "-122.370943,37.617990,-104.672219,39.864939",
    "geom:latitude": 38.7414645,
    "geom:longitude": -113.521581,
    "iata:airline": "F9",
    "icao:aircraft": "A320",
    "icao:airline": "FFT",
    "mz:is_current": -1,
    "sfomuseum:aircraft_id": 1159292085,
    "sfomuseum:airline_id": 1159284401,
    "sfomuseum:arrival_id": 102527513,
    "sfomuseum:departure_id": 102531189,
    "sfomuseum:flight_id": "20160721-A-FFT-663",
    "sfomuseum:flight_number": [
      "F9663", 
      "FFT663"
    ],
    "sfomuseum:placetype": "flight",
    "src:geom": "sfonoise",
    "wof:belongsto": [
      85922583, 
      1159157271, 
      102087579, 
      1629249263, 
      85688637, 
      85633793, 
      102527513, 
      102191575
    ],
    "wof:country": "US",
    "wof:created": 1582927598,
    "wof:geomhash": "736fe0d2ebd38878be6950e82908a686",
    "wof:hierarchy": [
      {
        "building_id": 1159157271,
        "campus_id": 102527513,
        "concourse_id": -1,
        "continent_id": 102191575,
        "country_id": 85633793,
        "county_id": 102087579,
        "event_id": 1629249263,
        "locality_id": 85922583,
        "neighbourhood_id": -1,
        "region_id": 85688637,
        "venue_id": -1,
        "wing_id": -1
      }
    ],
    "wof:id": 1629249263,
    "wof:lastmodified": 1582927598,
    "wof:name": "FFT663 (KDEN-SFO)",
    "wof:parent_id": -1,
    "wof:placetype": "event",
    "wof:repo": "sfomuseum-data-flights-2016",
    "wof:superseded_by": [],
    "wof:supersedes": []
  },
  "bbox": [
    -122.370943, 
    37.61799, 
    -104.672219, 
    39.864939
  ],
  "geometry": {"coordinates":[[-104.672219,39.864939],[-122.370943,37.61799]],"type":"MultiPoint"}
}
