{
  "id": 1678948033,
  "type": "Feature",
  "properties": {
    "edtf:cessation": "2016-09-18~",
    "edtf:inception": "2016-09-18T11:42:16",
    "flysfo:airline": "UA",
    "flysfo:date": "2016-09-18",
    "flysfo:event": "D",
    "flysfo:flight_number": "UA1263",
    "flysfo:journey": "SFO-KMSN",
    "geom:area": 0,
    "geom:bbox": "-122.370943,37.617990,-89.338240,43.133477",
    "geom:latitude": 40.375733499999996,
    "geom:longitude": -105.8545915,
    "iata:airline": "UA",
    "icao:aircraft": "A319",
    "icao:airline": "UAL",
    "mz:is_current": -1,
    "sfomuseum:aircraft_id": 1159289407,
    "sfomuseum:airline_id": 1159285413,
    "sfomuseum:arrival_id": 102525659,
    "sfomuseum:departure_id": 102527513,
    "sfomuseum:flight_id": "20160918-D-UAL-1263",
    "sfomuseum:flight_number": [
      "UA1263", 
      "UAL1263"
    ],
    "sfomuseum:placetype": "flight",
    "src:geom": "sfonoise",
    "wof:belongsto": [
      1159157271, 
      85922583, 
      1678948033, 
      102191575, 
      102087579, 
      85688637, 
      85633793, 
      102527513
    ],
    "wof:country": "US",
    "wof:created": 1582930552,
    "wof:geomhash": "40b0b0eb9a2216ca79008cabcd236dce",
    "wof:hierarchy": [
      {
        "building_id": 1159157271,
        "campus_id": 102527513,
        "concourse_id": -1,
        "continent_id": 102191575,
        "country_id": 85633793,
        "county_id": 102087579,
        "event_id": 1678948033,
        "locality_id": 85922583,
        "neighbourhood_id": -1,
        "region_id": 85688637,
        "venue_id": -1,
        "wing_id": -1
      }
    ],
    "wof:id": 1678948033,
    "wof:lastmodified": 1582930552,
    "wof:name": "UAL1263 (SFO-KMSN)",
    "wof:parent_id": -1,
    "wof:placetype": "event",
    "wof:repo": "sfomuseum-data-flights-2016",
    "wof:superseded_by": [],
    "wof:supersedes": []
  },
  "bbox": [
    -122.370943, 
    37.61799, 
    -89.33824, 
    43.133477
  ],
  "geometry": {"coordinates":[[-122.370943,37.61799],[-89.33824,43.133477]],"type":"MultiPoint"}
}
