{
  "id": 1678891893,
  "type": "Feature",
  "properties": {
    "edtf:cessation": "2016-09-07T12:19:53",
    "edtf:inception": "2016-09-07~",
    "flysfo:airline": "UA",
    "flysfo:date": "2016-09-07",
    "flysfo:event": "A",
    "flysfo:flight_number": "UA2122",
    "flysfo:journey": "KSTL-SFO",
    "geom:area": 0,
    "geom:bbox": "-122.370943,37.617990,-90.367632,38.743872",
    "geom:latitude": 38.180931,
    "geom:longitude": -106.3692875,
    "iata:airline": "UA",
    "icao:aircraft": "A320",
    "icao:airline": "UAL",
    "mz:is_current": -1,
    "sfomuseum:aircraft_id": 1159292085,
    "sfomuseum:airline_id": 1159285413,
    "sfomuseum:arrival_id": 102527513,
    "sfomuseum:departure_id": 102525961,
    "sfomuseum:flight_id": "20160907-A-UAL-2122",
    "sfomuseum:flight_number": [
      "UA2122", 
      "UAL2122"
    ],
    "sfomuseum:placetype": "flight",
    "src:geom": "sfonoise",
    "wof:belongsto": [
      85633793, 
      102191575, 
      85688637, 
      1159157271, 
      102527513, 
      1678891893, 
      102087579, 
      85922583
    ],
    "wof:country": "US",
    "wof:created": 1582929781,
    "wof:geomhash": "5aed0915f9f8845326df52b0d348a4b7",
    "wof:hierarchy": [
      {
        "building_id": 1159157271,
        "campus_id": 102527513,
        "concourse_id": -1,
        "continent_id": 102191575,
        "country_id": 85633793,
        "county_id": 102087579,
        "event_id": 1678891893,
        "locality_id": 85922583,
        "neighbourhood_id": -1,
        "region_id": 85688637,
        "venue_id": -1,
        "wing_id": -1
      }
    ],
    "wof:id": 1678891893,
    "wof:lastmodified": 1582929781,
    "wof:name": "UAL2122 (KSTL-SFO)",
    "wof:parent_id": -1,
    "wof:placetype": "event",
    "wof:repo": "sfomuseum-data-flights-2016",
    "wof:superseded_by": [],
    "wof:supersedes": []
  },
  "bbox": [
    -122.370943, 
    37.61799, 
    -90.367632, 
    38.743872
  ],
  "geometry": {"coordinates":[[-90.367632,38.743872],[-122.370943,37.61799]],"type":"MultiPoint"}
}
