{
  "id": 1662136829,
  "type": "Feature",
  "properties": {
    "edtf:cessation": "2016-03-02T15:11:44",
    "edtf:inception": "2016-03-02~",
    "flysfo:airline": "UA",
    "flysfo:date": "2016-03-02",
    "flysfo:event": "A",
    "flysfo:flight_number": "UA2178",
    "flysfo:journey": "PHNL-SFO",
    "geom:area": 0,
    "geom:bbox": "-157.918416,21.332508,-122.370943,37.617990",
    "geom:latitude": 29.475248999999998,
    "geom:longitude": -140.1446795,
    "iata:airline": "UA",
    "icao:aircraft": "B772",
    "icao:airline": "UAL",
    "mz:is_current": -1,
    "sfomuseum:aircraft_id": 1159289985,
    "sfomuseum:airline_id": 1159285413,
    "sfomuseum:arrival_id": 102527513,
    "sfomuseum:departure_id": 102533997,
    "sfomuseum:flight_id": "20160302-A-UAL-2178",
    "sfomuseum:flight_number": [
      "UA2178", 
      "UAL2178"
    ],
    "sfomuseum:placetype": "flight",
    "src:geom": "sfonoise",
    "wof:belongsto": [
      102087579, 
      1159396321, 
      85688637, 
      102191575, 
      85633793, 
      85922583, 
      1662136829, 
      102527513
    ],
    "wof:country": "US",
    "wof:created": 1582923339,
    "wof:geomhash": "1ad63fa22de9103ed4396c0ca683f63f",
    "wof:hierarchy": [
      {
        "building_id": 1159396321,
        "campus_id": 102527513,
        "concourse_id": -1,
        "continent_id": 102191575,
        "country_id": 85633793,
        "county_id": 102087579,
        "event_id": 1662136829,
        "locality_id": 85922583,
        "neighbourhood_id": -1,
        "region_id": 85688637,
        "venue_id": -1,
        "wing_id": -1
      }
    ],
    "wof:id": 1662136829,
    "wof:lastmodified": 1582923339,
    "wof:name": "UAL2178 (PHNL-SFO)",
    "wof:parent_id": -1,
    "wof:placetype": "event",
    "wof:repo": "sfomuseum-data-flights-2016",
    "wof:superseded_by": [],
    "wof:supersedes": []
  },
  "bbox": [
    -157.918416, 
    21.332508, 
    -122.370943, 
    37.61799
  ],
  "geometry": {"coordinates":[[-157.918416,21.332508],[-122.370943,37.61799]],"type":"MultiPoint"}
}
