{
  "id": 1662277811,
  "type": "Feature",
  "properties": {
    "edtf:cessation": "2016-05-23T01:59:29",
    "edtf:inception": "2016-05-23~",
    "flysfo:airline": "AA",
    "flysfo:date": "2016-05-23",
    "flysfo:event": "A",
    "flysfo:flight_number": "AA1586",
    "flysfo:journey": "MIA-SFO",
    "geom:area": 0,
    "geom:bbox": "-122.370943,25.790470,-80.296006,37.617990",
    "geom:latitude": 31.70423,
    "geom:longitude": -101.3334745,
    "iata:airline": "AA",
    "icao:aircraft": "B738",
    "icao:airline": "AAL",
    "mz:is_current": -1,
    "sfomuseum:aircraft_id": 1159289871,
    "sfomuseum:airline_id": 1159283851,
    "sfomuseum:arrival_id": 102527513,
    "sfomuseum:departure_id": 102531023,
    "sfomuseum:flight_id": "20160523-A-AAL-1586",
    "sfomuseum:flight_number": [
      "AA1586", 
      "AAL1586"
    ],
    "sfomuseum:placetype": "flight",
    "src:geom": "sfonoise",
    "wof:belongsto": [
      102527513, 
      102191575, 
      102087579, 
      1662277811, 
      85922583, 
      85688637, 
      85633793, 
      1159396321
    ],
    "wof:country": "US",
    "wof:created": 1582925758,
    "wof:geomhash": "38f88108bbae8bb050c3144d37bdc384",
    "wof:hierarchy": [
      {
        "building_id": 1159396321,
        "campus_id": 102527513,
        "concourse_id": -1,
        "continent_id": 102191575,
        "country_id": 85633793,
        "county_id": 102087579,
        "event_id": 1662277811,
        "locality_id": 85922583,
        "neighbourhood_id": -1,
        "region_id": 85688637,
        "venue_id": -1,
        "wing_id": -1
      }
    ],
    "wof:id": 1662277811,
    "wof:lastmodified": 1582925758,
    "wof:name": "AAL1586 (MIA-SFO)",
    "wof:parent_id": -1,
    "wof:placetype": "event",
    "wof:repo": "sfomuseum-data-flights-2016",
    "wof:superseded_by": [],
    "wof:supersedes": []
  },
  "bbox": [
    -122.370943, 
    25.79047, 
    -80.296006, 
    37.61799
  ],
  "geometry": {"coordinates":[[-80.296006,25.79047],[-122.370943,37.61799]],"type":"MultiPoint"}
}
