{
  "id": 1629099671,
  "type": "Feature",
  "properties": {
    "edtf:cessation": "2016-03-27T01:41:41",
    "edtf:inception": "2016-03-27~",
    "flysfo:airline": "DL",
    "flysfo:date": "2016-03-27",
    "flysfo:event": "A",
    "flysfo:flight_number": "DL979",
    "flysfo:journey": "KSFO-SFO",
    "geom:area": 0,
    "geom:bbox": "-122.370943,37.617990,-122.370943,37.617990",
    "geom:latitude": 37.61799,
    "geom:longitude": -122.370943,
    "iata:airline": "DL",
    "icao:aircraft": "B752",
    "icao:airline": "DAL",
    "mz:is_current": -1,
    "sfomuseum:aircraft_id": 1159289939,
    "sfomuseum:airline_id": 1159284261,
    "sfomuseum:arrival_id": 102527513,
    "sfomuseum:departure_id": 102527513,
    "sfomuseum:flight_id": "20160327-A-DAL-979",
    "sfomuseum:flight_number": [
      "DL979", 
      "DAL979"
    ],
    "sfomuseum:placetype": "flight",
    "src:geom": "sfonoise",
    "wof:belongsto": [
      1629099671, 
      85922583, 
      1159396321, 
      102527513, 
      85633793, 
      85688637, 
      102191575, 
      102087579
    ],
    "wof:country": "US",
    "wof:created": 1582923879,
    "wof:geomhash": "f780d59ec1f4d1acb53d14db45159ea5",
    "wof:hierarchy": [
      {
        "building_id": 1159396321,
        "campus_id": 102527513,
        "concourse_id": -1,
        "continent_id": 102191575,
        "country_id": 85633793,
        "county_id": 102087579,
        "event_id": 1629099671,
        "locality_id": 85922583,
        "neighbourhood_id": -1,
        "region_id": 85688637,
        "venue_id": -1,
        "wing_id": -1
      }
    ],
    "wof:id": 1629099671,
    "wof:lastmodified": 1582923879,
    "wof:name": "DAL979 (KSFO-SFO)",
    "wof:parent_id": -1,
    "wof:placetype": "event",
    "wof:repo": "sfomuseum-data-flights-2016",
    "wof:superseded_by": [],
    "wof:supersedes": []
  },
  "bbox": [
    -122.370943, 
    37.61799, 
    -122.370943, 
    37.61799
  ],
  "geometry": {"coordinates":[[-122.370943,37.61799],[-122.370943,37.61799]],"type":"MultiPoint"}
}
