{
  "id": 1662311121,
  "type": "Feature",
  "properties": {
    "edtf:cessation": "2016-06-10T07:30:54",
    "edtf:inception": "2016-06-10~",
    "flysfo:airline": "UA",
    "flysfo:date": "2016-06-10",
    "flysfo:event": "A",
    "flysfo:flight_number": "UA858",
    "flysfo:journey": "ZSPD-SFO",
    "geom:area": 0,
    "geom:bbox": "-122.370943,31.145312,121.799307,37.617990",
    "geom:latitude": 34.381651,
    "geom:longitude": -0.285817999999999,
    "iata:airline": "UA",
    "icao:aircraft": "B744",
    "icao:airline": "UAL",
    "mz:is_current": -1,
    "sfomuseum:aircraft_id": 1159289915,
    "sfomuseum:airline_id": 1159285413,
    "sfomuseum:arrival_id": 102527513,
    "sfomuseum:departure_id": 102550331,
    "sfomuseum:flight_id": "20160610-A-UAL-858",
    "sfomuseum:flight_number": [
      "UA858", 
      "UAL858"
    ],
    "sfomuseum:placetype": "flight",
    "src:geom": "sfonoise",
    "wof:belongsto": [
      102087579, 
      1662311121, 
      85688637, 
      1159396321, 
      85633793, 
      102527513, 
      102191575, 
      85922583
    ],
    "wof:country": "US",
    "wof:created": 1582926325,
    "wof:geomhash": "0a16624c451961804ad27ef012213244",
    "wof:hierarchy": [
      {
        "building_id": 1159396321,
        "campus_id": 102527513,
        "concourse_id": -1,
        "continent_id": 102191575,
        "country_id": 85633793,
        "county_id": 102087579,
        "event_id": 1662311121,
        "locality_id": 85922583,
        "neighbourhood_id": -1,
        "region_id": 85688637,
        "venue_id": -1,
        "wing_id": -1
      }
    ],
    "wof:id": 1662311121,
    "wof:lastmodified": 1582926325,
    "wof:name": "UAL858 (ZSPD-SFO)",
    "wof:parent_id": -1,
    "wof:placetype": "event",
    "wof:repo": "sfomuseum-data-flights-2016",
    "wof:superseded_by": [],
    "wof:supersedes": []
  },
  "bbox": [
    -122.370943, 
    31.145312, 
    121.799307, 
    37.61799
  ],
  "geometry": {"coordinates":[[121.799307,31.145312],[-122.370943,37.61799]],"type":"MultiPoint"}
}
