{
  "id": 1678961417,
  "type": "Feature",
  "properties": {
    "edtf:cessation": "2016-09-20T20:09:10",
    "edtf:inception": "2016-09-20~",
    "flysfo:airline": "UA",
    "flysfo:date": "2016-09-20",
    "flysfo:event": "A",
    "flysfo:flight_number": "UA2245",
    "flysfo:journey": "KSMF-SFO",
    "geom:area": 0,
    "geom:bbox": "-122.370943,37.617990,-121.589912,38.685533",
    "geom:latitude": 38.1517615,
    "geom:longitude": -121.98042749999999,
    "iata:airline": "UA",
    "icao:aircraft": "B738",
    "icao:airline": "UAL",
    "mz:is_current": -1,
    "sfomuseum:aircraft_id": 1159289871,
    "sfomuseum:airline_id": 1159285413,
    "sfomuseum:arrival_id": 102527513,
    "sfomuseum:departure_id": 102530559,
    "sfomuseum:flight_id": "20160920-A-UAL-2245",
    "sfomuseum:flight_number": [
      "UA2245", 
      "UAL2245"
    ],
    "sfomuseum:placetype": "flight",
    "src:geom": "sfonoise",
    "wof:belongsto": [
      1159157271, 
      102527513, 
      102087579, 
      85922583, 
      85688637, 
      85633793, 
      1678961417, 
      102191575
    ],
    "wof:country": "US",
    "wof:created": 1582930733,
    "wof:geomhash": "f5805f1be1c56ce2a2965880e252c65f",
    "wof:hierarchy": [
      {
        "building_id": 1159157271,
        "campus_id": 102527513,
        "concourse_id": -1,
        "continent_id": 102191575,
        "country_id": 85633793,
        "county_id": 102087579,
        "event_id": 1678961417,
        "locality_id": 85922583,
        "neighbourhood_id": -1,
        "region_id": 85688637,
        "venue_id": -1,
        "wing_id": -1
      }
    ],
    "wof:id": 1678961417,
    "wof:lastmodified": 1582930733,
    "wof:name": "UAL2245 (KSMF-SFO)",
    "wof:parent_id": -1,
    "wof:placetype": "event",
    "wof:repo": "sfomuseum-data-flights-2016",
    "wof:superseded_by": [],
    "wof:supersedes": []
  },
  "bbox": [
    -122.370943, 
    37.61799, 
    -121.589912, 
    38.685533
  ],
  "geometry": {"coordinates":[[-121.589912,38.685533],[-122.370943,37.61799]],"type":"MultiPoint"}
}
