{
  "id": 1662193417,
  "type": "Feature",
  "properties": {
    "edtf:cessation": "2016-04-05T11:49:11",
    "edtf:inception": "2016-04-05~",
    "flysfo:airline": "SQ",
    "flysfo:date": "2016-04-05",
    "flysfo:event": "A",
    "flysfo:flight_number": "SQ016",
    "flysfo:journey": "RKSI-SFO",
    "geom:area": 0,
    "geom:bbox": "-122.370943,37.453966,126.661632,37.617990",
    "geom:latitude": 37.535978,
    "geom:longitude": 2.1453445,
    "iata:airline": "SQ",
    "icao:aircraft": "B77W",
    "icao:airline": "SIA",
    "mz:is_current": -1,
    "sfomuseum:aircraft_id": 1159289993,
    "sfomuseum:airline_id": 1159286259,
    "sfomuseum:arrival_id": 102527513,
    "sfomuseum:departure_id": 102556451,
    "sfomuseum:flight_id": "20160405-A-SIA-016",
    "sfomuseum:flight_number": [
      "SQ016", 
      "SIA016"
    ],
    "sfomuseum:placetype": "flight",
    "src:geom": "sfonoise",
    "wof:belongsto": [
      102087579, 
      85688637, 
      102527513, 
      85922583, 
      1159396321, 
      1662193417, 
      85633793, 
      102191575
    ],
    "wof:country": "US",
    "wof:created": 1582924055,
    "wof:geomhash": "83e2c60a8819c96e9fa3721059c5eac5",
    "wof:hierarchy": [
      {
        "building_id": 1159396321,
        "campus_id": 102527513,
        "concourse_id": -1,
        "continent_id": 102191575,
        "country_id": 85633793,
        "county_id": 102087579,
        "event_id": 1662193417,
        "locality_id": 85922583,
        "neighbourhood_id": -1,
        "region_id": 85688637,
        "venue_id": -1,
        "wing_id": -1
      }
    ],
    "wof:id": 1662193417,
    "wof:lastmodified": 1582924055,
    "wof:name": "SIA016 (RKSI-SFO)",
    "wof:parent_id": -1,
    "wof:placetype": "event",
    "wof:repo": "sfomuseum-data-flights-2016",
    "wof:superseded_by": [],
    "wof:supersedes": []
  },
  "bbox": [
    -122.370943, 
    37.453966, 
    126.661632, 
    37.61799
  ],
  "geometry": {"coordinates":[[126.661632,37.453966],[-122.370943,37.61799]],"type":"MultiPoint"}
}
