{
  "id": 1629109905,
  "type": "Feature",
  "properties": {
    "edtf:cessation": "2016-04-25T16:09:04",
    "edtf:inception": "2016-04-25~",
    "flysfo:airline": "F9",
    "flysfo:date": "2016-04-25",
    "flysfo:event": "A",
    "flysfo:flight_number": "F91415",
    "flysfo:journey": "KCLE-SFO",
    "geom:area": 0,
    "geom:bbox": "-122.370943,37.617990,-81.835629,41.406844",
    "geom:latitude": 39.512417,
    "geom:longitude": -102.103286,
    "iata:airline": "F9",
    "icao:aircraft": "A320",
    "icao:airline": "FFT",
    "mz:is_current": -1,
    "sfomuseum:aircraft_id": 1159292085,
    "sfomuseum:airline_id": 1159284401,
    "sfomuseum:arrival_id": 102527513,
    "sfomuseum:departure_id": 102534019,
    "sfomuseum:flight_id": "20160425-A-FFT-1415",
    "sfomuseum:flight_number": [
      "F91415", 
      "FFT1415"
    ],
    "sfomuseum:placetype": "flight",
    "src:geom": "sfonoise",
    "wof:belongsto": [
      1629109905, 
      85922583, 
      102527513, 
      102191575, 
      85633793, 
      85688637, 
      1159396321, 
      102087579
    ],
    "wof:country": "US",
    "wof:created": 1582924882,
    "wof:geomhash": "b9e617aa80dabb56896871b70acf102e",
    "wof:hierarchy": [
      {
        "building_id": 1159396321,
        "campus_id": 102527513,
        "concourse_id": -1,
        "continent_id": 102191575,
        "country_id": 85633793,
        "county_id": 102087579,
        "event_id": 1629109905,
        "locality_id": 85922583,
        "neighbourhood_id": -1,
        "region_id": 85688637,
        "venue_id": -1,
        "wing_id": -1
      }
    ],
    "wof:id": 1629109905,
    "wof:lastmodified": 1582924882,
    "wof:name": "FFT1415 (KCLE-SFO)",
    "wof:parent_id": -1,
    "wof:placetype": "event",
    "wof:repo": "sfomuseum-data-flights-2016",
    "wof:superseded_by": [],
    "wof:supersedes": []
  },
  "bbox": [
    -122.370943, 
    37.61799, 
    -81.835629, 
    41.406844
  ],
  "geometry": {"coordinates":[[-81.835629,41.406844],[-122.370943,37.61799]],"type":"MultiPoint"}
}
