{
  "id": 1662189281,
  "type": "Feature",
  "properties": {
    "edtf:cessation": "2016-04-02T22:55:51",
    "edtf:inception": "2016-04-02~",
    "flysfo:airline": "VX",
    "flysfo:date": "2016-04-02",
    "flysfo:event": "A",
    "flysfo:flight_number": "VX984",
    "flysfo:journey": "PHOG-SFO",
    "geom:area": 0,
    "geom:bbox": "-156.437877,20.894952,-122.370943,37.617990",
    "geom:latitude": 29.256470999999998,
    "geom:longitude": -139.40440999999998,
    "iata:airline": "VX",
    "icao:aircraft": "A320",
    "icao:airline": "VRD",
    "mz:is_current": -1,
    "sfomuseum:aircraft_id": 1159292085,
    "sfomuseum:airline_id": 1159285481,
    "sfomuseum:arrival_id": 102527513,
    "sfomuseum:departure_id": 102532929,
    "sfomuseum:flight_id": "20160402-A-VRD-984",
    "sfomuseum:flight_number": [
      "VX984", 
      "VRD984"
    ],
    "sfomuseum:placetype": "flight",
    "src:geom": "sfonoise",
    "wof:belongsto": [
      85688637, 
      102191575, 
      1662189281, 
      85922583, 
      1159396321, 
      102527513, 
      102087579, 
      85633793
    ],
    "wof:country": "US",
    "wof:created": 1582923997,
    "wof:geomhash": "e4ae4c60ed0a76df38dbcfaaa5dd6a55",
    "wof:hierarchy": [
      {
        "building_id": 1159396321,
        "campus_id": 102527513,
        "concourse_id": -1,
        "continent_id": 102191575,
        "country_id": 85633793,
        "county_id": 102087579,
        "event_id": 1662189281,
        "locality_id": 85922583,
        "neighbourhood_id": -1,
        "region_id": 85688637,
        "venue_id": -1,
        "wing_id": -1
      }
    ],
    "wof:id": 1662189281,
    "wof:lastmodified": 1582923997,
    "wof:name": "VRD984 (PHOG-SFO)",
    "wof:parent_id": -1,
    "wof:placetype": "event",
    "wof:repo": "sfomuseum-data-flights-2016",
    "wof:superseded_by": [],
    "wof:supersedes": []
  },
  "bbox": [
    -156.437877, 
    20.894952, 
    -122.370943, 
    37.61799
  ],
  "geometry": {"coordinates":[[-156.437877,20.894952],[-122.370943,37.61799]],"type":"MultiPoint"}
}
