{
  "id": 1662073067,
  "type": "Feature",
  "properties": {
    "edtf:cessation": "2016-01-19T16:37:11",
    "edtf:inception": "2016-01-19~",
    "flysfo:airline": "SY",
    "flysfo:date": "2016-01-19",
    "flysfo:event": "A",
    "flysfo:flight_number": "SY8894",
    "flysfo:journey": "MMSD-SFO",
    "geom:area": 0,
    "geom:bbox": "-122.370943,23.160962,-109.717461,37.617990",
    "geom:latitude": 30.389476000000002,
    "geom:longitude": -116.044202,
    "iata:airline": "SY",
    "icao:aircraft": "B738",
    "icao:airline": "SCX",
    "mz:is_current": -1,
    "sfomuseum:aircraft_id": 1159289871,
    "sfomuseum:airline_id": 1159285227,
    "sfomuseum:arrival_id": 102527513,
    "sfomuseum:departure_id": 102536441,
    "sfomuseum:flight_id": "20160119-A-SCX-8894",
    "sfomuseum:flight_number": [
      "SY8894", 
      "SCX8894"
    ],
    "sfomuseum:placetype": "flight",
    "src:geom": "sfonoise",
    "wof:belongsto": [
      85633793, 
      102191575, 
      1662073067, 
      85688637, 
      102527513, 
      1159396321, 
      85922583, 
      102087579
    ],
    "wof:country": "US",
    "wof:created": 1582922272,
    "wof:geomhash": "57b2b594ef41523ab9fe7c26d147f9bd",
    "wof:hierarchy": [
      {
        "building_id": 1159396321,
        "campus_id": 102527513,
        "concourse_id": -1,
        "continent_id": 102191575,
        "country_id": 85633793,
        "county_id": 102087579,
        "event_id": 1662073067,
        "locality_id": 85922583,
        "neighbourhood_id": -1,
        "region_id": 85688637,
        "venue_id": -1,
        "wing_id": -1
      }
    ],
    "wof:id": 1662073067,
    "wof:lastmodified": 1582922272,
    "wof:name": "SCX8894 (MMSD-SFO)",
    "wof:parent_id": -1,
    "wof:placetype": "event",
    "wof:repo": "sfomuseum-data-flights-2016",
    "wof:superseded_by": [],
    "wof:supersedes": []
  },
  "bbox": [
    -122.370943, 
    23.160962, 
    -109.717461, 
    37.61799
  ],
  "geometry": {"coordinates":[[-109.717461,23.160962],[-122.370943,37.61799]],"type":"MultiPoint"}
}
