{
  "id": 1662213237,
  "type": "Feature",
  "properties": {
    "edtf:cessation": "2016-04-16T22:08:37",
    "edtf:inception": "2016-04-16~",
    "flysfo:airline": "B6",
    "flysfo:date": "2016-04-16",
    "flysfo:event": "A",
    "flysfo:flight_number": "B6833",
    "flysfo:journey": "KBOS-SFO",
    "geom:area": 0,
    "geom:bbox": "-122.370943,37.617990,-71.014750,42.362322",
    "geom:latitude": 39.990156,
    "geom:longitude": -96.6928465,
    "iata:airline": "B6",
    "icao:aircraft": "A320",
    "icao:airline": "JBU",
    "mz:is_current": -1,
    "sfomuseum:aircraft_id": 1159292085,
    "sfomuseum:airline_id": 1360700745,
    "sfomuseum:arrival_id": 102527513,
    "sfomuseum:departure_id": 102530741,
    "sfomuseum:flight_id": "20160416-A-JBU-833",
    "sfomuseum:flight_number": [
      "B6833", 
      "JBU833"
    ],
    "sfomuseum:placetype": "flight",
    "src:geom": "sfonoise",
    "wof:belongsto": [
      85922583, 
      102527513, 
      102191575, 
      1159396321, 
      1662213237, 
      85688637, 
      102087579, 
      85633793
    ],
    "wof:country": "US",
    "wof:created": 1582924529,
    "wof:geomhash": "9cccd37636918a32bc446a92e7ba93ba",
    "wof:hierarchy": [
      {
        "building_id": 1159396321,
        "campus_id": 102527513,
        "concourse_id": -1,
        "continent_id": 102191575,
        "country_id": 85633793,
        "county_id": 102087579,
        "event_id": 1662213237,
        "locality_id": 85922583,
        "neighbourhood_id": -1,
        "region_id": 85688637,
        "venue_id": -1,
        "wing_id": -1
      }
    ],
    "wof:id": 1662213237,
    "wof:lastmodified": 1582924529,
    "wof:name": "JBU833 (KBOS-SFO)",
    "wof:parent_id": -1,
    "wof:placetype": "event",
    "wof:repo": "sfomuseum-data-flights-2016",
    "wof:superseded_by": [],
    "wof:supersedes": []
  },
  "bbox": [
    -122.370943, 
    37.61799, 
    -71.01475, 
    42.362322
  ],
  "geometry": {"coordinates":[[-71.01475,42.362322],[-122.370943,37.61799]],"type":"MultiPoint"}
}
