{
  "id": 1629091833,
  "type": "Feature",
  "properties": {
    "edtf:cessation": "2016-03-03~",
    "edtf:inception": "2016-03-03T11:45:22",
    "flysfo:airline": "UA",
    "flysfo:date": "2016-03-03",
    "flysfo:event": "D",
    "flysfo:flight_number": "UA2141",
    "flysfo:journey": "SFO-KGYR",
    "geom:area": 0,
    "geom:bbox": "-122.370943,33.426922,-112.369936,37.617990",
    "geom:latitude": 35.522456,
    "geom:longitude": -117.3704395,
    "iata:airline": "UA",
    "icao:aircraft": "B752",
    "icao:airline": "UAL",
    "mz:is_current": -1,
    "sfomuseum:aircraft_id": 1159289939,
    "sfomuseum:airline_id": 1159285413,
    "sfomuseum:arrival_id": 102529435,
    "sfomuseum:departure_id": 102527513,
    "sfomuseum:flight_id": "20160303-D-UAL-2141",
    "sfomuseum:flight_number": [
      "UA2141", 
      "UAL2141"
    ],
    "sfomuseum:placetype": "flight",
    "src:geom": "sfonoise",
    "wof:belongsto": [
      85633793, 
      1629091833, 
      85688637, 
      85922583, 
      102191575, 
      102087579, 
      1159396321, 
      102527513
    ],
    "wof:country": "US",
    "wof:created": 1582923362,
    "wof:geomhash": "aececf2287744493115a1cd2999bcd1e",
    "wof:hierarchy": [
      {
        "building_id": 1159396321,
        "campus_id": 102527513,
        "concourse_id": -1,
        "continent_id": 102191575,
        "country_id": 85633793,
        "county_id": 102087579,
        "event_id": 1629091833,
        "locality_id": 85922583,
        "neighbourhood_id": -1,
        "region_id": 85688637,
        "venue_id": -1,
        "wing_id": -1
      }
    ],
    "wof:id": 1629091833,
    "wof:lastmodified": 1582923362,
    "wof:name": "UAL2141 (SFO-KGYR)",
    "wof:parent_id": -1,
    "wof:placetype": "event",
    "wof:repo": "sfomuseum-data-flights-2016",
    "wof:superseded_by": [],
    "wof:supersedes": []
  },
  "bbox": [
    -122.370943, 
    33.426922, 
    -112.369936, 
    37.61799
  ],
  "geometry": {"coordinates":[[-122.370943,37.61799],[-112.369936,33.426922]],"type":"MultiPoint"}
}
