{
  "id": 1679191071,
  "type": "Feature",
  "properties": {
    "edtf:cessation": "2016-11-18~",
    "edtf:inception": "2016-11-18T06:52:26",
    "flysfo:airline": "UA",
    "flysfo:date": "2016-11-18",
    "flysfo:event": "D",
    "flysfo:flight_number": "UA2120",
    "flysfo:journey": "SFO-KBOI",
    "geom:area": 0,
    "geom:bbox": "-122.370943,37.617990,-116.224634,43.564048",
    "geom:latitude": 40.591019,
    "geom:longitude": -119.2977885,
    "iata:airline": "UA",
    "icao:aircraft": "B739",
    "icao:airline": "UAL",
    "mz:is_current": -1,
    "sfomuseum:aircraft_id": 1377564285,
    "sfomuseum:airline_id": 1159285413,
    "sfomuseum:arrival_id": 102527733,
    "sfomuseum:departure_id": 102527513,
    "sfomuseum:flight_id": "20161118-D-UAL-2120",
    "sfomuseum:flight_number": [
      "UA2120", 
      "UAL2120"
    ],
    "sfomuseum:placetype": "flight",
    "src:geom": "sfonoise",
    "wof:belongsto": [
      102087579, 
      1159157271, 
      102527513, 
      102191575, 
      85922583, 
      85633793, 
      1679191071, 
      85688637
    ],
    "wof:country": "US",
    "wof:created": 1582933291,
    "wof:geomhash": "5c4ab4afb4473393075e7e0145a9edb2",
    "wof:hierarchy": [
      {
        "building_id": 1159157271,
        "campus_id": 102527513,
        "concourse_id": -1,
        "continent_id": 102191575,
        "country_id": 85633793,
        "county_id": 102087579,
        "event_id": 1679191071,
        "locality_id": 85922583,
        "neighbourhood_id": -1,
        "region_id": 85688637,
        "venue_id": -1,
        "wing_id": -1
      }
    ],
    "wof:id": 1679191071,
    "wof:lastmodified": 1582933291,
    "wof:name": "UAL2120 (SFO-KBOI)",
    "wof:parent_id": -1,
    "wof:placetype": "event",
    "wof:repo": "sfomuseum-data-flights-2016",
    "wof:superseded_by": [],
    "wof:supersedes": []
  },
  "bbox": [
    -122.370943, 
    37.61799, 
    -116.224634, 
    43.564048
  ],
  "geometry": {"coordinates":[[-122.370943,37.61799],[-116.224634,43.564048]],"type":"MultiPoint"}
}
