{
  "id": 1629280531,
  "type": "Feature",
  "properties": {
    "edtf:cessation": "2016-07-29T19:10:07",
    "edtf:inception": "2016-07-29~",
    "flysfo:airline": "UA",
    "flysfo:date": "2016-07-29",
    "flysfo:event": "A",
    "flysfo:flight_number": "UA2133",
    "flysfo:journey": "KHOU-SFO",
    "geom:area": 0,
    "geom:bbox": "-122.370943,29.652674,-95.279344,37.617990",
    "geom:latitude": 33.635332,
    "geom:longitude": -108.8251435,
    "iata:airline": "UA",
    "icao:aircraft": "A319",
    "icao:airline": "UAL",
    "mz:is_current": -1,
    "sfomuseum:aircraft_id": 1159289407,
    "sfomuseum:airline_id": 1159285413,
    "sfomuseum:arrival_id": 102527513,
    "sfomuseum:departure_id": 102531775,
    "sfomuseum:flight_id": "20160729-A-UAL-2133",
    "sfomuseum:flight_number": [
      "UA2133", 
      "UAL2133"
    ],
    "sfomuseum:placetype": "flight",
    "src:geom": "sfonoise",
    "wof:belongsto": [
      102087579, 
      85922583, 
      1159157271, 
      1629280531, 
      102527513, 
      102191575, 
      85633793, 
      85688637
    ],
    "wof:country": "US",
    "wof:created": 1582927838,
    "wof:geomhash": "a5dc7134a1c5d943495b40cb1b713674",
    "wof:hierarchy": [
      {
        "building_id": 1159157271,
        "campus_id": 102527513,
        "concourse_id": -1,
        "continent_id": 102191575,
        "country_id": 85633793,
        "county_id": 102087579,
        "event_id": 1629280531,
        "locality_id": 85922583,
        "neighbourhood_id": -1,
        "region_id": 85688637,
        "venue_id": -1,
        "wing_id": -1
      }
    ],
    "wof:id": 1629280531,
    "wof:lastmodified": 1582927838,
    "wof:name": "UAL2133 (KHOU-SFO)",
    "wof:parent_id": -1,
    "wof:placetype": "event",
    "wof:repo": "sfomuseum-data-flights-2016",
    "wof:superseded_by": [],
    "wof:supersedes": []
  },
  "bbox": [
    -122.370943, 
    29.652674, 
    -95.279344, 
    37.61799
  ],
  "geometry": {"coordinates":[[-95.279344,29.652674],[-122.370943,37.61799]],"type":"MultiPoint"}
}
