{
  "id": 1629272519,
  "type": "Feature",
  "properties": {
    "edtf:cessation": "2016-07-27T19:30:25",
    "edtf:inception": "2016-07-27~",
    "flysfo:airline": "DL",
    "flysfo:date": "2016-07-27",
    "flysfo:event": "A",
    "flysfo:flight_number": "DL8890",
    "flysfo:journey": "KBKL-SFO",
    "geom:area": 0,
    "geom:bbox": "-122.370943,37.617990,-81.686007,41.515261",
    "geom:latitude": 39.5666255,
    "geom:longitude": -102.028475,
    "iata:airline": "DL",
    "icao:aircraft": "B752",
    "icao:airline": "DAL",
    "mz:is_current": -1,
    "sfomuseum:aircraft_id": 1159289939,
    "sfomuseum:airline_id": 1159284261,
    "sfomuseum:arrival_id": 102527513,
    "sfomuseum:departure_id": 102532705,
    "sfomuseum:flight_id": "20160727-A-DAL-8890",
    "sfomuseum:flight_number": [
      "DL8890", 
      "DAL8890"
    ],
    "sfomuseum:placetype": "flight",
    "src:geom": "sfonoise",
    "wof:belongsto": [
      1159157271, 
      102527513, 
      1629272519, 
      85688637, 
      102087579, 
      102191575, 
      85633793, 
      85922583
    ],
    "wof:country": "US",
    "wof:created": 1582927774,
    "wof:geomhash": "b325f8a81aebbd98326ad5666c45e7ef",
    "wof:hierarchy": [
      {
        "building_id": 1159157271,
        "campus_id": 102527513,
        "concourse_id": -1,
        "continent_id": 102191575,
        "country_id": 85633793,
        "county_id": 102087579,
        "event_id": 1629272519,
        "locality_id": 85922583,
        "neighbourhood_id": -1,
        "region_id": 85688637,
        "venue_id": -1,
        "wing_id": -1
      }
    ],
    "wof:id": 1629272519,
    "wof:lastmodified": 1582927774,
    "wof:name": "DAL8890 (KBKL-SFO)",
    "wof:parent_id": -1,
    "wof:placetype": "event",
    "wof:repo": "sfomuseum-data-flights-2016",
    "wof:superseded_by": [],
    "wof:supersedes": []
  },
  "bbox": [
    -122.370943, 
    37.61799, 
    -81.686007, 
    41.515261
  ],
  "geometry": {"coordinates":[[-81.686007,41.515261],[-122.370943,37.61799]],"type":"MultiPoint"}
}
