{
  "id": 1662049135,
  "type": "Feature",
  "properties": {
    "edtf:cessation": "2016-01-04T09:07:22",
    "edtf:inception": "2016-01-04~",
    "flysfo:airline": "UA",
    "flysfo:date": "2016-01-04",
    "flysfo:event": "A",
    "flysfo:flight_number": "UA753",
    "flysfo:journey": "BWI-SFO",
    "geom:area": 0,
    "geom:bbox": "-122.370943,37.617990,-76.671070,39.181319",
    "geom:latitude": 38.3996545,
    "geom:longitude": -99.5210065,
    "iata:airline": "UA",
    "icao:aircraft": "A319",
    "icao:airline": "UAL",
    "mz:is_current": -1,
    "sfomuseum:aircraft_id": 1159289407,
    "sfomuseum:airline_id": 1159285413,
    "sfomuseum:arrival_id": 102527513,
    "sfomuseum:departure_id": 102532047,
    "sfomuseum:flight_id": "20160104-A-UAL-753",
    "sfomuseum:flight_number": [
      "UA753", 
      "UAL753"
    ],
    "sfomuseum:placetype": "flight",
    "src:geom": "sfonoise",
    "wof:belongsto": [
      85633793, 
      102087579, 
      1662049135, 
      85688637, 
      85922583, 
      102527513, 
      102191575, 
      1159396321
    ],
    "wof:country": "US",
    "wof:created": 1582921968,
    "wof:geomhash": "10c01f207ef95eecc919066d165ec5eb",
    "wof:hierarchy": [
      {
        "building_id": 1159396321,
        "campus_id": 102527513,
        "concourse_id": -1,
        "continent_id": 102191575,
        "country_id": 85633793,
        "county_id": 102087579,
        "event_id": 1662049135,
        "locality_id": 85922583,
        "neighbourhood_id": -1,
        "region_id": 85688637,
        "venue_id": -1,
        "wing_id": -1
      }
    ],
    "wof:id": 1662049135,
    "wof:lastmodified": 1582921968,
    "wof:name": "UAL753 (BWI-SFO)",
    "wof:parent_id": -1,
    "wof:placetype": "event",
    "wof:repo": "sfomuseum-data-flights-2016",
    "wof:superseded_by": [],
    "wof:supersedes": []
  },
  "bbox": [
    -122.370943, 
    37.61799, 
    -76.67107, 
    39.181319
  ],
  "geometry": {"coordinates":[[-76.67107,39.181319],[-122.370943,37.61799]],"type":"MultiPoint"}
}
