{
  "id": 1662328453,
  "type": "Feature",
  "properties": {
    "edtf:cessation": "2016-06-19~",
    "edtf:inception": "2016-06-19T06:19:27",
    "flysfo:airline": "WN",
    "flysfo:date": "2016-06-19",
    "flysfo:event": "D",
    "flysfo:flight_number": "WN965",
    "flysfo:journey": "SFO-KMKE",
    "geom:area": 0,
    "geom:bbox": "-122.370943,37.617990,-87.896339,42.949572",
    "geom:latitude": 40.283781000000005,
    "geom:longitude": -105.133641,
    "iata:airline": "WN",
    "icao:aircraft": "B737",
    "icao:airline": "SWA",
    "mz:is_current": -1,
    "sfomuseum:aircraft_id": 1159289869,
    "sfomuseum:airline_id": 1159285591,
    "sfomuseum:arrival_id": 102530849,
    "sfomuseum:departure_id": 102527513,
    "sfomuseum:flight_id": "20160619-D-SWA-965",
    "sfomuseum:flight_number": [
      "WN965", 
      "SWA965"
    ],
    "sfomuseum:placetype": "flight",
    "src:geom": "sfonoise",
    "wof:belongsto": [
      85633793, 
      102527513, 
      102087579, 
      85688637, 
      102191575, 
      1662328453, 
      85922583, 
      1159396321
    ],
    "wof:country": "US",
    "wof:created": 1582926616,
    "wof:geomhash": "85f13befc363c1b91d2a48be031a5d6a",
    "wof:hierarchy": [
      {
        "building_id": 1159396321,
        "campus_id": 102527513,
        "concourse_id": -1,
        "continent_id": 102191575,
        "country_id": 85633793,
        "county_id": 102087579,
        "event_id": 1662328453,
        "locality_id": 85922583,
        "neighbourhood_id": -1,
        "region_id": 85688637,
        "venue_id": -1,
        "wing_id": -1
      }
    ],
    "wof:id": 1662328453,
    "wof:lastmodified": 1582926616,
    "wof:name": "SWA965 (SFO-KMKE)",
    "wof:parent_id": -1,
    "wof:placetype": "event",
    "wof:repo": "sfomuseum-data-flights-2016",
    "wof:superseded_by": [],
    "wof:supersedes": []
  },
  "bbox": [
    -122.370943, 
    37.61799, 
    -87.896339, 
    42.949572
  ],
  "geometry": {"coordinates":[[-122.370943,37.61799],[-87.896339,42.949572]],"type":"MultiPoint"}
}
