{
  "id": 1662210341,
  "type": "Feature",
  "properties": {
    "edtf:cessation": "2016-04-15~",
    "edtf:inception": "2016-04-15T07:22:32",
    "flysfo:airline": "OY",
    "flysfo:date": "2016-04-15",
    "flysfo:event": "D",
    "flysfo:flight_number": "OY230",
    "flysfo:journey": "SFO-MYNN",
    "geom:area": 0,
    "geom:bbox": "-122.370943,25.047706,-77.464957,37.617990",
    "geom:latitude": 31.332848,
    "geom:longitude": -99.91794999999999,
    "iata:airline": "OY",
    "icao:aircraft": "B763",
    "icao:airline": "OAE",
    "mz:is_current": -1,
    "sfomuseum:aircraft_id": 1159289965,
    "sfomuseum:airline_id": 1159284929,
    "sfomuseum:arrival_id": 102543707,
    "sfomuseum:departure_id": 102527513,
    "sfomuseum:flight_id": "20160415-D-OAE-230",
    "sfomuseum:flight_number": [
      "OY230", 
      "OAE230"
    ],
    "sfomuseum:placetype": "flight",
    "src:geom": "sfonoise",
    "wof:belongsto": [
      1159396321, 
      85633793, 
      1662210341, 
      85922583, 
      102191575, 
      85688637, 
      102527513, 
      102087579
    ],
    "wof:country": "US",
    "wof:created": 1582924458,
    "wof:geomhash": "a7009499e243854d783b46e567d77554",
    "wof:hierarchy": [
      {
        "building_id": 1159396321,
        "campus_id": 102527513,
        "concourse_id": -1,
        "continent_id": 102191575,
        "country_id": 85633793,
        "county_id": 102087579,
        "event_id": 1662210341,
        "locality_id": 85922583,
        "neighbourhood_id": -1,
        "region_id": 85688637,
        "venue_id": -1,
        "wing_id": -1
      }
    ],
    "wof:id": 1662210341,
    "wof:lastmodified": 1582924458,
    "wof:name": "OAE230 (SFO-MYNN)",
    "wof:parent_id": -1,
    "wof:placetype": "event",
    "wof:repo": "sfomuseum-data-flights-2016",
    "wof:superseded_by": [],
    "wof:supersedes": []
  },
  "bbox": [
    -122.370943, 
    25.047706, 
    -77.464957, 
    37.61799
  ],
  "geometry": {"coordinates":[[-122.370943,37.61799],[-77.464957,25.047706]],"type":"MultiPoint"}
}
