{
  "id": 1662064647,
  "type": "Feature",
  "properties": {
    "edtf:cessation": "2016-01-14T07:22:06",
    "edtf:inception": "2016-01-14~",
    "flysfo:airline": "NZ",
    "flysfo:date": "2016-01-14",
    "flysfo:event": "A",
    "flysfo:flight_number": "NZ14",
    "flysfo:journey": "NZAA-SFO",
    "geom:area": 0,
    "geom:bbox": "-122.370943,-37.005501,174.788678,37.617990",
    "geom:latitude": 0.30624449999999825,
    "geom:longitude": 26.208867500000004,
    "iata:airline": "NZ",
    "icao:aircraft": "B772",
    "icao:airline": "ANZ",
    "mz:is_current": -1,
    "sfomuseum:aircraft_id": 1159289985,
    "sfomuseum:airline_id": 1159283697,
    "sfomuseum:arrival_id": 102527513,
    "sfomuseum:departure_id": 102552389,
    "sfomuseum:flight_id": "20160114-A-ANZ-14",
    "sfomuseum:flight_number": [
      "NZ14", 
      "ANZ14"
    ],
    "sfomuseum:placetype": "flight",
    "src:geom": "sfonoise",
    "wof:belongsto": [
      102087579, 
      85922583, 
      102191575, 
      85633793, 
      1159396321, 
      102527513, 
      85688637, 
      1662064647
    ],
    "wof:country": "US",
    "wof:created": 1582922165,
    "wof:geomhash": "07839d38a937070012f963bfe77eb5da",
    "wof:hierarchy": [
      {
        "building_id": 1159396321,
        "campus_id": 102527513,
        "concourse_id": -1,
        "continent_id": 102191575,
        "country_id": 85633793,
        "county_id": 102087579,
        "event_id": 1662064647,
        "locality_id": 85922583,
        "neighbourhood_id": -1,
        "region_id": 85688637,
        "venue_id": -1,
        "wing_id": -1
      }
    ],
    "wof:id": 1662064647,
    "wof:lastmodified": 1582922165,
    "wof:name": "ANZ14 (NZAA-SFO)",
    "wof:parent_id": -1,
    "wof:placetype": "event",
    "wof:repo": "sfomuseum-data-flights-2016",
    "wof:superseded_by": [],
    "wof:supersedes": []
  },
  "bbox": [
    -122.370943, 
    -37.005501, 
    174.788678, 
    37.61799
  ],
  "geometry": {"coordinates":[[174.788678,-37.005501],[-122.370943,37.61799]],"type":"MultiPoint"}
}
