{
  "id": 1629271903,
  "type": "Feature",
  "properties": {
    "edtf:cessation": "2016-07-27T16:27:56",
    "edtf:inception": "2016-07-27~",
    "flysfo:airline": "UA",
    "flysfo:date": "2016-07-27",
    "flysfo:event": "A",
    "flysfo:flight_number": "UA525",
    "flysfo:journey": "KMCI-SFO",
    "geom:area": 0,
    "geom:bbox": "-122.370943,37.617990,-94.716176,39.304107",
    "geom:latitude": 38.461048500000004,
    "geom:longitude": -108.5435595,
    "iata:airline": "UA",
    "icao:aircraft": "B737",
    "icao:airline": "UAL",
    "mz:is_current": -1,
    "sfomuseum:aircraft_id": 1159289869,
    "sfomuseum:airline_id": 1159285413,
    "sfomuseum:arrival_id": 102527513,
    "sfomuseum:departure_id": 102533051,
    "sfomuseum:flight_id": "20160727-A-UAL-525",
    "sfomuseum:flight_number": [
      "UA525", 
      "UAL525"
    ],
    "sfomuseum:placetype": "flight",
    "src:geom": "sfonoise",
    "wof:belongsto": [
      102087579, 
      102191575, 
      85633793, 
      1159157271, 
      1629271903, 
      102527513, 
      85922583, 
      85688637
    ],
    "wof:country": "US",
    "wof:created": 1582927767,
    "wof:geomhash": "35ddb46351d590846e83b74bc4468cc8",
    "wof:hierarchy": [
      {
        "building_id": 1159157271,
        "campus_id": 102527513,
        "concourse_id": -1,
        "continent_id": 102191575,
        "country_id": 85633793,
        "county_id": 102087579,
        "event_id": 1629271903,
        "locality_id": 85922583,
        "neighbourhood_id": -1,
        "region_id": 85688637,
        "venue_id": -1,
        "wing_id": -1
      }
    ],
    "wof:id": 1629271903,
    "wof:lastmodified": 1582927767,
    "wof:name": "UAL525 (KMCI-SFO)",
    "wof:parent_id": -1,
    "wof:placetype": "event",
    "wof:repo": "sfomuseum-data-flights-2016",
    "wof:superseded_by": [],
    "wof:supersedes": []
  },
  "bbox": [
    -122.370943, 
    37.61799, 
    -94.716176, 
    39.304107
  ],
  "geometry": {"coordinates":[[-94.716176,39.304107],[-122.370943,37.61799]],"type":"MultiPoint"}
}
