{
  "id": 1662230941,
  "type": "Feature",
  "properties": {
    "edtf:cessation": "2016-04-26T22:45:01",
    "edtf:inception": "2016-04-26~",
    "flysfo:airline": "VX",
    "flysfo:date": "2016-04-26",
    "flysfo:event": "A",
    "flysfo:flight_number": "VX283",
    "flysfo:journey": "MMUN-SFO",
    "geom:area": 0,
    "geom:bbox": "-122.370943,21.040317,-86.872856,37.617990",
    "geom:latitude": 29.3291535,
    "geom:longitude": -104.6218995,
    "iata:airline": "VX",
    "icao:aircraft": "A320",
    "icao:airline": "VRD",
    "mz:is_current": -1,
    "sfomuseum:aircraft_id": 1159292085,
    "sfomuseum:airline_id": 1159285481,
    "sfomuseum:arrival_id": 102527513,
    "sfomuseum:departure_id": 102536223,
    "sfomuseum:flight_id": "20160426-A-VRD-283",
    "sfomuseum:flight_number": [
      "VX283", 
      "VRD283"
    ],
    "sfomuseum:placetype": "flight",
    "src:geom": "sfonoise",
    "wof:belongsto": [
      102527513, 
      102191575, 
      102087579, 
      85922583, 
      1662230941, 
      85688637, 
      1159396321, 
      85633793
    ],
    "wof:country": "US",
    "wof:created": 1582924937,
    "wof:geomhash": "c1b858affbd20b2c728ba535a4ce178e",
    "wof:hierarchy": [
      {
        "building_id": 1159396321,
        "campus_id": 102527513,
        "concourse_id": -1,
        "continent_id": 102191575,
        "country_id": 85633793,
        "county_id": 102087579,
        "event_id": 1662230941,
        "locality_id": 85922583,
        "neighbourhood_id": -1,
        "region_id": 85688637,
        "venue_id": -1,
        "wing_id": -1
      }
    ],
    "wof:id": 1662230941,
    "wof:lastmodified": 1582924937,
    "wof:name": "VRD283 (MMUN-SFO)",
    "wof:parent_id": -1,
    "wof:placetype": "event",
    "wof:repo": "sfomuseum-data-flights-2016",
    "wof:superseded_by": [],
    "wof:supersedes": []
  },
  "bbox": [
    -122.370943, 
    21.040317, 
    -86.872856, 
    37.61799
  ],
  "geometry": {"coordinates":[[-86.872856,21.040317],[-122.370943,37.61799]],"type":"MultiPoint"}
}
