{
  "id": 1662302433,
  "type": "Feature",
  "properties": {
    "edtf:cessation": "2016-06-05T16:17:49",
    "edtf:inception": "2016-06-05~",
    "flysfo:airline": "F9",
    "flysfo:date": "2016-06-05",
    "flysfo:event": "A",
    "flysfo:flight_number": "F91193",
    "flysfo:journey": "KCVG-SFO",
    "geom:area": 0,
    "geom:bbox": "-122.370943,37.617990,-84.657144,39.054422",
    "geom:latitude": 38.336206000000004,
    "geom:longitude": -103.5140435,
    "iata:airline": "F9",
    "icao:aircraft": "A320",
    "icao:airline": "FFT",
    "mz:is_current": -1,
    "sfomuseum:aircraft_id": 1159292085,
    "sfomuseum:airline_id": 1159284401,
    "sfomuseum:arrival_id": 102527513,
    "sfomuseum:departure_id": 102528187,
    "sfomuseum:flight_id": "20160605-A-FFT-1193",
    "sfomuseum:flight_number": [
      "F91193", 
      "FFT1193"
    ],
    "sfomuseum:placetype": "flight",
    "src:geom": "sfonoise",
    "wof:belongsto": [
      85922583, 
      102527513, 
      85633793, 
      1662302433, 
      85688637, 
      102191575, 
      1159396321, 
      102087579
    ],
    "wof:country": "US",
    "wof:created": 1582926202,
    "wof:geomhash": "772e5110aaf1e095142ff9199bc6ebaa",
    "wof:hierarchy": [
      {
        "building_id": 1159396321,
        "campus_id": 102527513,
        "concourse_id": -1,
        "continent_id": 102191575,
        "country_id": 85633793,
        "county_id": 102087579,
        "event_id": 1662302433,
        "locality_id": 85922583,
        "neighbourhood_id": -1,
        "region_id": 85688637,
        "venue_id": -1,
        "wing_id": -1
      }
    ],
    "wof:id": 1662302433,
    "wof:lastmodified": 1582926202,
    "wof:name": "FFT1193 (KCVG-SFO)",
    "wof:parent_id": -1,
    "wof:placetype": "event",
    "wof:repo": "sfomuseum-data-flights-2016",
    "wof:superseded_by": [],
    "wof:supersedes": []
  },
  "bbox": [
    -122.370943, 
    37.61799, 
    -84.657144, 
    39.054422
  ],
  "geometry": {"coordinates":[[-84.657144,39.054422],[-122.370943,37.61799]],"type":"MultiPoint"}
}
