{
  "id": 1662131783,
  "type": "Feature",
  "properties": {
    "edtf:cessation": "2016-02-28~",
    "edtf:inception": "2016-02-28T14:21:17",
    "flysfo:airline": "VX",
    "flysfo:date": "2016-02-28",
    "flysfo:event": "D",
    "flysfo:flight_number": "VX025",
    "flysfo:journey": "SFO-KLGB",
    "geom:area": 0,
    "geom:bbox": "-122.370943,33.814039,-118.148993,37.617990",
    "geom:latitude": 35.7160145,
    "geom:longitude": -120.259968,
    "iata:airline": "VX",
    "icao:aircraft": "A320",
    "icao:airline": "VRD",
    "mz:is_current": -1,
    "sfomuseum:aircraft_id": 1159292085,
    "sfomuseum:airline_id": 1159285481,
    "sfomuseum:arrival_id": 102528985,
    "sfomuseum:departure_id": 102527513,
    "sfomuseum:flight_id": "20160228-D-VRD-025",
    "sfomuseum:flight_number": [
      "VX025", 
      "VRD025"
    ],
    "sfomuseum:placetype": "flight",
    "src:geom": "sfonoise",
    "wof:belongsto": [
      1159396321, 
      102527513, 
      102191575, 
      1662131783, 
      85633793, 
      102087579, 
      85922583, 
      85688637
    ],
    "wof:country": "US",
    "wof:created": 1582923248,
    "wof:geomhash": "eb36f7fd50c4e3281bc24d5224da58d3",
    "wof:hierarchy": [
      {
        "building_id": 1159396321,
        "campus_id": 102527513,
        "concourse_id": -1,
        "continent_id": 102191575,
        "country_id": 85633793,
        "county_id": 102087579,
        "event_id": 1662131783,
        "locality_id": 85922583,
        "neighbourhood_id": -1,
        "region_id": 85688637,
        "venue_id": -1,
        "wing_id": -1
      }
    ],
    "wof:id": 1662131783,
    "wof:lastmodified": 1582923248,
    "wof:name": "VRD025 (SFO-KLGB)",
    "wof:parent_id": -1,
    "wof:placetype": "event",
    "wof:repo": "sfomuseum-data-flights-2016",
    "wof:superseded_by": [],
    "wof:supersedes": []
  },
  "bbox": [
    -122.370943, 
    33.814039, 
    -118.148993, 
    37.61799
  ],
  "geometry": {"coordinates":[[-122.370943,37.61799],[-118.148993,33.814039]],"type":"MultiPoint"}
}
