{
  "id": 1678830395,
  "type": "Feature",
  "properties": {
    "edtf:cessation": "2016-08-25T22:35:05",
    "edtf:inception": "2016-08-25~",
    "flysfo:airline": "UA",
    "flysfo:date": "2016-08-25",
    "flysfo:event": "A",
    "flysfo:flight_number": "UA2264",
    "flysfo:journey": "CYOW-SFO",
    "geom:area": 0,
    "geom:bbox": "-122.370943,37.617990,-75.662695,45.323541",
    "geom:latitude": 41.4707655,
    "geom:longitude": -99.016819,
    "iata:airline": "UA",
    "icao:aircraft": "B764",
    "icao:airline": "UAL",
    "mz:is_current": -1,
    "sfomuseum:aircraft_id": 1394298249,
    "sfomuseum:airline_id": 1159285413,
    "sfomuseum:arrival_id": 102527513,
    "sfomuseum:departure_id": 102555497,
    "sfomuseum:flight_id": "20160825-A-UAL-2264",
    "sfomuseum:flight_number": [
      "UA2264", 
      "UAL2264"
    ],
    "sfomuseum:placetype": "flight",
    "src:geom": "sfonoise",
    "wof:belongsto": [
      1159157271, 
      102527513, 
      85688637, 
      85633793, 
      1678830395, 
      102191575, 
      102087579, 
      85922583
    ],
    "wof:country": "US",
    "wof:created": 1582928976,
    "wof:geomhash": "e082a01425e0fb04733d6ff119b8bbc6",
    "wof:hierarchy": [
      {
        "building_id": 1159157271,
        "campus_id": 102527513,
        "concourse_id": -1,
        "continent_id": 102191575,
        "country_id": 85633793,
        "county_id": 102087579,
        "event_id": 1678830395,
        "locality_id": 85922583,
        "neighbourhood_id": -1,
        "region_id": 85688637,
        "venue_id": -1,
        "wing_id": -1
      }
    ],
    "wof:id": 1678830395,
    "wof:lastmodified": 1582928976,
    "wof:name": "UAL2264 (CYOW-SFO)",
    "wof:parent_id": -1,
    "wof:placetype": "event",
    "wof:repo": "sfomuseum-data-flights-2016",
    "wof:superseded_by": [],
    "wof:supersedes": []
  },
  "bbox": [
    -122.370943, 
    37.61799, 
    -75.662695, 
    45.323541
  ],
  "geometry": {"coordinates":[[-75.662695,45.323541],[-122.370943,37.61799]],"type":"MultiPoint"}
}
