{
  "id": 1662158063,
  "type": "Feature",
  "properties": {
    "edtf:cessation": "2016-03-15~",
    "edtf:inception": "2016-03-15T18:58:34",
    "flysfo:airline": "EI",
    "flysfo:date": "2016-03-15",
    "flysfo:event": "D",
    "flysfo:flight_number": "EI2146",
    "flysfo:journey": "SFO-EIDW",
    "geom:area": 0,
    "geom:bbox": "-122.370943,37.617990,-6.246362,53.425842",
    "geom:latitude": 45.521916000000004,
    "geom:longitude": -64.3086525,
    "iata:airline": "EI",
    "icao:aircraft": "A332",
    "icao:airline": "EIN",
    "mz:is_current": -1,
    "sfomuseum:aircraft_id": 1159289421,
    "sfomuseum:airline_id": 1159283495,
    "sfomuseum:arrival_id": 102547639,
    "sfomuseum:departure_id": 102527513,
    "sfomuseum:flight_id": "20160315-D-EIN-2146",
    "sfomuseum:flight_number": [
      "EI2146", 
      "EIN2146"
    ],
    "sfomuseum:placetype": "flight",
    "src:geom": "sfonoise",
    "wof:belongsto": [
      1159396321, 
      85633793, 
      1662158063, 
      102087579, 
      85922583, 
      102191575, 
      102527513, 
      85688637
    ],
    "wof:country": "US",
    "wof:created": 1582923687,
    "wof:geomhash": "3dda75dcf1fae64b97c7a2b018cfa114",
    "wof:hierarchy": [
      {
        "building_id": 1159396321,
        "campus_id": 102527513,
        "concourse_id": -1,
        "continent_id": 102191575,
        "country_id": 85633793,
        "county_id": 102087579,
        "event_id": 1662158063,
        "locality_id": 85922583,
        "neighbourhood_id": -1,
        "region_id": 85688637,
        "venue_id": -1,
        "wing_id": -1
      }
    ],
    "wof:id": 1662158063,
    "wof:lastmodified": 1582923687,
    "wof:name": "EIN2146 (SFO-EIDW)",
    "wof:parent_id": -1,
    "wof:placetype": "event",
    "wof:repo": "sfomuseum-data-flights-2016",
    "wof:superseded_by": [],
    "wof:supersedes": []
  },
  "bbox": [
    -122.370943, 
    37.61799, 
    -6.246362, 
    53.425842
  ],
  "geometry": {"coordinates":[[-122.370943,37.61799],[-6.246362,53.425842]],"type":"MultiPoint"}
}
