{
  "id": 1662115409,
  "type": "Feature",
  "properties": {
    "edtf:cessation": "2016-02-17~",
    "edtf:inception": "2016-02-17T09:15:27",
    "flysfo:airline": "SY",
    "flysfo:date": "2016-02-17",
    "flysfo:event": "D",
    "flysfo:flight_number": "SY8891",
    "flysfo:journey": "SFO-MMPR",
    "geom:area": 0,
    "geom:bbox": "-122.370943,20.660734,-105.250456,37.617990",
    "geom:latitude": 29.139362,
    "geom:longitude": -113.8106995,
    "iata:airline": "SY",
    "icao:aircraft": "B738",
    "icao:airline": "SCX",
    "mz:is_current": -1,
    "sfomuseum:aircraft_id": 1159289871,
    "sfomuseum:airline_id": 1159285227,
    "sfomuseum:arrival_id": 102536481,
    "sfomuseum:departure_id": 102527513,
    "sfomuseum:flight_id": "20160217-D-SCX-8891",
    "sfomuseum:flight_number": [
      "SY8891", 
      "SCX8891"
    ],
    "sfomuseum:placetype": "flight",
    "src:geom": "sfonoise",
    "wof:belongsto": [
      1662115409, 
      85922583, 
      102527513, 
      102087579, 
      85633793, 
      102191575, 
      85688637, 
      1159396321
    ],
    "wof:country": "US",
    "wof:created": 1582922924,
    "wof:geomhash": "ae49e61cad725fa4577f8355bb7297ad",
    "wof:hierarchy": [
      {
        "building_id": 1159396321,
        "campus_id": 102527513,
        "concourse_id": -1,
        "continent_id": 102191575,
        "country_id": 85633793,
        "county_id": 102087579,
        "event_id": 1662115409,
        "locality_id": 85922583,
        "neighbourhood_id": -1,
        "region_id": 85688637,
        "venue_id": -1,
        "wing_id": -1
      }
    ],
    "wof:id": 1662115409,
    "wof:lastmodified": 1582922924,
    "wof:name": "SCX8891 (SFO-MMPR)",
    "wof:parent_id": -1,
    "wof:placetype": "event",
    "wof:repo": "sfomuseum-data-flights-2016",
    "wof:superseded_by": [],
    "wof:supersedes": []
  },
  "bbox": [
    -122.370943, 
    20.660734, 
    -105.250456, 
    37.61799
  ],
  "geometry": {"coordinates":[[-122.370943,37.61799],[-105.250456,20.660734]],"type":"MultiPoint"}
}
