{
  "id": 1629315469,
  "type": "Feature",
  "properties": {
    "edtf:cessation": "2016-08-07T13:00:15",
    "edtf:inception": "2016-08-07~",
    "flysfo:airline": "EK",
    "flysfo:date": "2016-08-07",
    "flysfo:event": "A",
    "flysfo:flight_number": "EK225",
    "flysfo:journey": "KJFK-SFO",
    "geom:area": 0,
    "geom:bbox": "-122.370943,37.617990,-73.787845,40.643286",
    "geom:latitude": 39.130638000000005,
    "geom:longitude": -98.07939400000001,
    "iata:airline": "EK",
    "icao:aircraft": "A388",
    "icao:airline": "UAE",
    "mz:is_current": -1,
    "sfomuseum:aircraft_id": 1159289437,
    "sfomuseum:airline_id": 1159284333,
    "sfomuseum:arrival_id": 102527513,
    "sfomuseum:departure_id": 102534365,
    "sfomuseum:flight_id": "20160807-A-UAE-225",
    "sfomuseum:flight_number": [
      "EK225", 
      "UAE225"
    ],
    "sfomuseum:placetype": "flight",
    "src:geom": "sfonoise",
    "wof:belongsto": [
      1629315469, 
      85922583, 
      85688637, 
      102527513, 
      1159157271, 
      102191575, 
      102087579, 
      85633793
    ],
    "wof:country": "US",
    "wof:created": 1582928116,
    "wof:geomhash": "ba4d31d1826c6198b5ffa8fdb1249c5d",
    "wof:hierarchy": [
      {
        "building_id": 1159157271,
        "campus_id": 102527513,
        "concourse_id": -1,
        "continent_id": 102191575,
        "country_id": 85633793,
        "county_id": 102087579,
        "event_id": 1629315469,
        "locality_id": 85922583,
        "neighbourhood_id": -1,
        "region_id": 85688637,
        "venue_id": -1,
        "wing_id": -1
      }
    ],
    "wof:id": 1629315469,
    "wof:lastmodified": 1582928116,
    "wof:name": "UAE225 (KJFK-SFO)",
    "wof:parent_id": -1,
    "wof:placetype": "event",
    "wof:repo": "sfomuseum-data-flights-2016",
    "wof:superseded_by": [],
    "wof:supersedes": []
  },
  "bbox": [
    -122.370943, 
    37.61799, 
    -73.787845, 
    40.643286
  ],
  "geometry": {"coordinates":[[-73.787845,40.643286],[-122.370943,37.61799]],"type":"MultiPoint"}
}
