{
  "id": 1679284391,
  "type": "Feature",
  "properties": {
    "edtf:cessation": "2016-12-16~",
    "edtf:inception": "2016-12-16T22:06:47",
    "flysfo:airline": "UA",
    "flysfo:date": "2016-12-16",
    "flysfo:event": "D",
    "flysfo:flight_number": "UA2033",
    "flysfo:journey": "SFO-KBWI",
    "geom:area": 0,
    "geom:bbox": "-122.370943,37.617990,-76.671070,39.181319",
    "geom:latitude": 38.3996545,
    "geom:longitude": -99.5210065,
    "iata:airline": "UA",
    "icao:aircraft": "A320",
    "icao:airline": "UAL",
    "mz:is_current": -1,
    "sfomuseum:aircraft_id": 1159292085,
    "sfomuseum:airline_id": 1159285413,
    "sfomuseum:arrival_id": 102532047,
    "sfomuseum:departure_id": 102527513,
    "sfomuseum:flight_id": "20161216-D-UAL-2033",
    "sfomuseum:flight_number": [
      "UA2033", 
      "UAL2033"
    ],
    "sfomuseum:placetype": "flight",
    "src:geom": "sfonoise",
    "wof:belongsto": [
      102087579, 
      1679284391, 
      1159157271, 
      102527513, 
      85922583, 
      85633793, 
      85688637, 
      102191575
    ],
    "wof:country": "US",
    "wof:created": 1582934186,
    "wof:geomhash": "ff243e97b2d4ce40e0a4accb79115371",
    "wof:hierarchy": [
      {
        "building_id": 1159157271,
        "campus_id": 102527513,
        "concourse_id": -1,
        "continent_id": 102191575,
        "country_id": 85633793,
        "county_id": 102087579,
        "event_id": 1679284391,
        "locality_id": 85922583,
        "neighbourhood_id": -1,
        "region_id": 85688637,
        "venue_id": -1,
        "wing_id": -1
      }
    ],
    "wof:id": 1679284391,
    "wof:lastmodified": 1582934186,
    "wof:name": "UAL2033 (SFO-KBWI)",
    "wof:parent_id": -1,
    "wof:placetype": "event",
    "wof:repo": "sfomuseum-data-flights-2016",
    "wof:superseded_by": [],
    "wof:supersedes": []
  },
  "bbox": [
    -122.370943, 
    37.61799, 
    -76.67107, 
    39.181319
  ],
  "geometry": {"coordinates":[[-122.370943,37.61799],[-76.67107,39.181319]],"type":"MultiPoint"}
}
