{
  "id": 1679201533,
  "type": "Feature",
  "properties": {
    "edtf:cessation": "2016-11-21T11:26:10",
    "edtf:inception": "2016-11-21~",
    "flysfo:airline": "AS",
    "flysfo:date": "2016-11-21",
    "flysfo:event": "A",
    "flysfo:flight_number": "AS9460",
    "flysfo:journey": "KGSO-SFO",
    "geom:area": 0,
    "geom:bbox": "-122.370943,36.110092,-79.933581,37.617990",
    "geom:latitude": 36.864041,
    "geom:longitude": -101.15226200000001,
    "iata:airline": "AS",
    "icao:aircraft": "B738",
    "icao:airline": "ASA",
    "mz:is_current": -1,
    "sfomuseum:aircraft_id": 1159289871,
    "sfomuseum:airline_id": 1159283813,
    "sfomuseum:arrival_id": 102527513,
    "sfomuseum:departure_id": 102527849,
    "sfomuseum:flight_id": "20161121-A-ASA-9460",
    "sfomuseum:flight_number": [
      "AS9460", 
      "ASA9460"
    ],
    "sfomuseum:placetype": "flight",
    "src:geom": "sfonoise",
    "wof:belongsto": [
      85633793, 
      1679201533, 
      102087579, 
      1159157271, 
      85922583, 
      85688637, 
      102527513, 
      102191575
    ],
    "wof:country": "US",
    "wof:created": 1582933391,
    "wof:geomhash": "5effdcb6f19e0645c7e31e4e1e42645d",
    "wof:hierarchy": [
      {
        "building_id": 1159157271,
        "campus_id": 102527513,
        "concourse_id": -1,
        "continent_id": 102191575,
        "country_id": 85633793,
        "county_id": 102087579,
        "event_id": 1679201533,
        "locality_id": 85922583,
        "neighbourhood_id": -1,
        "region_id": 85688637,
        "venue_id": -1,
        "wing_id": -1
      }
    ],
    "wof:id": 1679201533,
    "wof:lastmodified": 1582933391,
    "wof:name": "ASA9460 (KGSO-SFO)",
    "wof:parent_id": -1,
    "wof:placetype": "event",
    "wof:repo": "sfomuseum-data-flights-2016",
    "wof:superseded_by": [],
    "wof:supersedes": []
  },
  "bbox": [
    -122.370943, 
    36.110092, 
    -79.933581, 
    37.61799
  ],
  "geometry": {"coordinates":[[-79.933581,36.110092],[-122.370943,37.61799]],"type":"MultiPoint"}
}
