{
  "id": 1679294855,
  "type": "Feature",
  "properties": {
    "edtf:cessation": "2016-12-19T20:03:59",
    "edtf:inception": "2016-12-19~",
    "flysfo:airline": "KZ",
    "flysfo:date": "2016-12-19",
    "flysfo:event": "A",
    "flysfo:flight_number": "KZ6141",
    "flysfo:journey": "EDFH-SFO",
    "geom:area": 0,
    "geom:bbox": "-122.370943,37.617990,7.267284,49.945918",
    "geom:latitude": 43.781954,
    "geom:longitude": -57.5518295,
    "iata:airline": "KZ",
    "icao:aircraft": "B748",
    "icao:airline": "NCA",
    "mz:is_current": -1,
    "sfomuseum:aircraft_id": 1159293239,
    "sfomuseum:airline_id": 1159284873,
    "sfomuseum:arrival_id": 102527513,
    "sfomuseum:departure_id": 102549057,
    "sfomuseum:flight_id": "20161219-A-NCA-6141",
    "sfomuseum:flight_number": [
      "KZ6141", 
      "NCA6141"
    ],
    "sfomuseum:placetype": "flight",
    "src:geom": "sfonoise",
    "wof:belongsto": [
      85688637, 
      102087579, 
      1159157271, 
      85922583, 
      102191575, 
      85633793, 
      102527513, 
      1679294855
    ],
    "wof:country": "US",
    "wof:created": 1582934285,
    "wof:geomhash": "ec6660f1f317e7fe021c7c410168f722",
    "wof:hierarchy": [
      {
        "building_id": 1159157271,
        "campus_id": 102527513,
        "concourse_id": -1,
        "continent_id": 102191575,
        "country_id": 85633793,
        "county_id": 102087579,
        "event_id": 1679294855,
        "locality_id": 85922583,
        "neighbourhood_id": -1,
        "region_id": 85688637,
        "venue_id": -1,
        "wing_id": -1
      }
    ],
    "wof:id": 1679294855,
    "wof:lastmodified": 1582934285,
    "wof:name": "NCA6141 (EDFH-SFO)",
    "wof:parent_id": -1,
    "wof:placetype": "event",
    "wof:repo": "sfomuseum-data-flights-2016",
    "wof:superseded_by": [],
    "wof:supersedes": []
  },
  "bbox": [
    -122.370943, 
    37.61799, 
    7.267284, 
    49.945918
  ],
  "geometry": {"coordinates":[[7.267284,49.945918],[-122.370943,37.61799]],"type":"MultiPoint"}
}
