{
  "id": 1678942649,
  "type": "Feature",
  "properties": {
    "edtf:cessation": "2016-09-16T21:44:25",
    "edtf:inception": "2016-09-16~",
    "flysfo:airline": "UA",
    "flysfo:date": "2016-09-16",
    "flysfo:event": "A",
    "flysfo:flight_number": "UA1762",
    "flysfo:journey": "KABQ-SFO",
    "geom:area": 0,
    "geom:bbox": "-122.370943,35.048762,-106.620586,37.617990",
    "geom:latitude": 36.333376,
    "geom:longitude": -114.4957645,
    "iata:airline": "UA",
    "icao:aircraft": "A320",
    "icao:airline": "UAL",
    "mz:is_current": -1,
    "sfomuseum:aircraft_id": 1159292085,
    "sfomuseum:airline_id": 1159285413,
    "sfomuseum:arrival_id": 102527513,
    "sfomuseum:departure_id": 102529173,
    "sfomuseum:flight_id": "20160916-A-UAL-1762",
    "sfomuseum:flight_number": [
      "UA1762", 
      "UAL1762"
    ],
    "sfomuseum:placetype": "flight",
    "src:geom": "sfonoise",
    "wof:belongsto": [
      85922583, 
      85633793, 
      102527513, 
      102087579, 
      1159157271, 
      102191575, 
      1678942649, 
      85688637
    ],
    "wof:country": "US",
    "wof:created": 1582930462,
    "wof:geomhash": "8fe6791c85dc44fbddffd72416ea0024",
    "wof:hierarchy": [
      {
        "building_id": 1159157271,
        "campus_id": 102527513,
        "concourse_id": -1,
        "continent_id": 102191575,
        "country_id": 85633793,
        "county_id": 102087579,
        "event_id": 1678942649,
        "locality_id": 85922583,
        "neighbourhood_id": -1,
        "region_id": 85688637,
        "venue_id": -1,
        "wing_id": -1
      }
    ],
    "wof:id": 1678942649,
    "wof:lastmodified": 1582930462,
    "wof:name": "UAL1762 (KABQ-SFO)",
    "wof:parent_id": -1,
    "wof:placetype": "event",
    "wof:repo": "sfomuseum-data-flights-2016",
    "wof:superseded_by": [],
    "wof:supersedes": []
  },
  "bbox": [
    -122.370943, 
    35.048762, 
    -106.620586, 
    37.61799
  ],
  "geometry": {"coordinates":[[-106.620586,35.048762],[-122.370943,37.61799]],"type":"MultiPoint"}
}
