{
  "id": 1679106203,
  "type": "Feature",
  "properties": {
    "edtf:cessation": "2016-10-25~",
    "edtf:inception": "2016-10-25T12:51:05",
    "flysfo:airline": "CA",
    "flysfo:date": "2016-10-25",
    "flysfo:event": "D",
    "flysfo:flight_number": "CA830",
    "flysfo:journey": "SFO-ZSPD",
    "geom:area": 0,
    "geom:bbox": "-122.370943,31.145312,121.799307,37.617990",
    "geom:latitude": 34.381651,
    "geom:longitude": -0.285817999999999,
    "iata:airline": "CA",
    "icao:aircraft": "B773",
    "icao:airline": "CCA",
    "mz:is_current": -1,
    "sfomuseum:aircraft_id": 1528104579,
    "sfomuseum:airline_id": 1159283605,
    "sfomuseum:arrival_id": 102550331,
    "sfomuseum:departure_id": 102527513,
    "sfomuseum:flight_id": "20161025-D-CCA-830",
    "sfomuseum:flight_number": [
      "CA830", 
      "CCA830"
    ],
    "sfomuseum:placetype": "flight",
    "src:geom": "sfonoise",
    "wof:belongsto": [
      102191575, 
      85688637, 
      102527513, 
      85633793, 
      85922583, 
      1159157271, 
      102087579, 
      1679106203
    ],
    "wof:country": "US",
    "wof:created": 1582932383,
    "wof:geomhash": "014430cde1a85b033fb3b4a447168595",
    "wof:hierarchy": [
      {
        "building_id": 1159157271,
        "campus_id": 102527513,
        "concourse_id": -1,
        "continent_id": 102191575,
        "country_id": 85633793,
        "county_id": 102087579,
        "event_id": 1679106203,
        "locality_id": 85922583,
        "neighbourhood_id": -1,
        "region_id": 85688637,
        "venue_id": -1,
        "wing_id": -1
      }
    ],
    "wof:id": 1679106203,
    "wof:lastmodified": 1582932383,
    "wof:name": "CCA830 (SFO-ZSPD)",
    "wof:parent_id": -1,
    "wof:placetype": "event",
    "wof:repo": "sfomuseum-data-flights-2016",
    "wof:superseded_by": [],
    "wof:supersedes": []
  },
  "bbox": [
    -122.370943, 
    31.145312, 
    121.799307, 
    37.61799
  ],
  "geometry": {"coordinates":[[-122.370943,37.61799],[121.799307,31.145312]],"type":"MultiPoint"}
}
