{
  "id": 1629156587,
  "type": "Feature",
  "properties": {
    "edtf:cessation": "2016-06-28T11:22:17",
    "edtf:inception": "2016-06-28~",
    "flysfo:airline": "AM",
    "flysfo:date": "2016-06-28",
    "flysfo:event": "A",
    "flysfo:flight_number": "AM668",
    "flysfo:journey": "MMMX-SFO",
    "geom:area": 0,
    "geom:bbox": "-122.370943,19.431302,-99.080804,37.617990",
    "geom:latitude": 28.524645999999997,
    "geom:longitude": -110.7258735,
    "iata:airline": "AM",
    "icao:aircraft": "B738",
    "icao:airline": "AMX",
    "mz:is_current": -1,
    "sfomuseum:aircraft_id": 1159289871,
    "sfomuseum:airline_id": 1159283539,
    "sfomuseum:arrival_id": 102527513,
    "sfomuseum:departure_id": 102536579,
    "sfomuseum:flight_id": "20160628-A-AMX-668",
    "sfomuseum:flight_number": [
      "AM668", 
      "AMX668"
    ],
    "sfomuseum:placetype": "flight",
    "src:geom": "sfonoise",
    "wof:belongsto": [
      85688637, 
      102527513, 
      1159396321, 
      85633793, 
      85922583, 
      102191575, 
      1629156587, 
      102087579
    ],
    "wof:country": "US",
    "wof:created": 1582926883,
    "wof:geomhash": "4224d1c4c9907a232ddfbf90e60373e4",
    "wof:hierarchy": [
      {
        "building_id": 1159396321,
        "campus_id": 102527513,
        "concourse_id": -1,
        "continent_id": 102191575,
        "country_id": 85633793,
        "county_id": 102087579,
        "event_id": 1629156587,
        "locality_id": 85922583,
        "neighbourhood_id": -1,
        "region_id": 85688637,
        "venue_id": -1,
        "wing_id": -1
      }
    ],
    "wof:id": 1629156587,
    "wof:lastmodified": 1582926883,
    "wof:name": "AMX668 (MMMX-SFO)",
    "wof:parent_id": -1,
    "wof:placetype": "event",
    "wof:repo": "sfomuseum-data-flights-2016",
    "wof:superseded_by": [],
    "wof:supersedes": []
  },
  "bbox": [
    -122.370943, 
    19.431302, 
    -99.080804, 
    37.61799
  ],
  "geometry": {"coordinates":[[-99.080804,19.431302],[-122.370943,37.61799]],"type":"MultiPoint"}
}
