{
  "id": 1629082799,
  "type": "Feature",
  "properties": {
    "edtf:cessation": "2016-02-01T19:12:00",
    "edtf:inception": "2016-02-01~",
    "flysfo:airline": "UA",
    "flysfo:date": "2016-02-01",
    "flysfo:event": "A",
    "flysfo:flight_number": "UA2292",
    "flysfo:journey": "VCV-SFO",
    "geom:area": 0,
    "geom:bbox": "-122.370943,34.581613,-117.374502,37.617990",
    "geom:latitude": 36.0998015,
    "geom:longitude": -119.87272250000001,
    "iata:airline": "UA",
    "icao:aircraft": "B744",
    "icao:airline": "UAL",
    "mz:is_current": -1,
    "sfomuseum:aircraft_id": 1159289915,
    "sfomuseum:airline_id": 1159285413,
    "sfomuseum:arrival_id": 102527513,
    "sfomuseum:departure_id": 102530801,
    "sfomuseum:flight_id": "20160201-A-UAL-2292",
    "sfomuseum:flight_number": [
      "UA2292", 
      "UAL2292"
    ],
    "sfomuseum:placetype": "flight",
    "src:geom": "sfonoise",
    "wof:belongsto": [
      85688637, 
      1159396321, 
      102527513, 
      102191575, 
      102087579, 
      1629082799, 
      85922583, 
      85633793
    ],
    "wof:country": "US",
    "wof:created": 1582922555,
    "wof:geomhash": "099d85224c4d6fa8685f2b490939bec5",
    "wof:hierarchy": [
      {
        "building_id": 1159396321,
        "campus_id": 102527513,
        "concourse_id": -1,
        "continent_id": 102191575,
        "country_id": 85633793,
        "county_id": 102087579,
        "event_id": 1629082799,
        "locality_id": 85922583,
        "neighbourhood_id": -1,
        "region_id": 85688637,
        "venue_id": -1,
        "wing_id": -1
      }
    ],
    "wof:id": 1629082799,
    "wof:lastmodified": 1582922555,
    "wof:name": "UAL2292 (VCV-SFO)",
    "wof:parent_id": -1,
    "wof:placetype": "event",
    "wof:repo": "sfomuseum-data-flights-2016",
    "wof:superseded_by": [],
    "wof:supersedes": []
  },
  "bbox": [
    -122.370943, 
    34.581613, 
    -117.374502, 
    37.61799
  ],
  "geometry": {"coordinates":[[-117.374502,34.581613],[-122.370943,37.61799]],"type":"MultiPoint"}
}
