{
  "id": 1679054907,
  "type": "Feature",
  "properties": {
    "edtf:cessation": "2016-10-13T01:17:17",
    "edtf:inception": "2016-10-13~",
    "flysfo:airline": "UA",
    "flysfo:date": "2016-10-13",
    "flysfo:event": "A",
    "flysfo:flight_number": "UA2281",
    "flysfo:journey": "KFOE-SFO",
    "geom:area": 0,
    "geom:bbox": "-122.370943,37.617990,-95.682634,38.948196",
    "geom:latitude": 38.283093,
    "geom:longitude": -109.0267885,
    "iata:airline": "UA",
    "icao:aircraft": "B744",
    "icao:airline": "UAL",
    "mz:is_current": -1,
    "sfomuseum:aircraft_id": 1159289915,
    "sfomuseum:airline_id": 1159285413,
    "sfomuseum:arrival_id": 102527513,
    "sfomuseum:departure_id": 102528461,
    "sfomuseum:flight_id": "20161013-A-UAL-2281",
    "sfomuseum:flight_number": [
      "UA2281", 
      "UAL2281"
    ],
    "sfomuseum:placetype": "flight",
    "src:geom": "sfonoise",
    "wof:belongsto": [
      102527513, 
      102087579, 
      1159157271, 
      85688637, 
      102191575, 
      85633793, 
      1679054907, 
      85922583
    ],
    "wof:country": "US",
    "wof:created": 1582931776,
    "wof:geomhash": "2994590d9e5f5b7eda0830e1a621d4c1",
    "wof:hierarchy": [
      {
        "building_id": 1159157271,
        "campus_id": 102527513,
        "concourse_id": -1,
        "continent_id": 102191575,
        "country_id": 85633793,
        "county_id": 102087579,
        "event_id": 1679054907,
        "locality_id": 85922583,
        "neighbourhood_id": -1,
        "region_id": 85688637,
        "venue_id": -1,
        "wing_id": -1
      }
    ],
    "wof:id": 1679054907,
    "wof:lastmodified": 1582931776,
    "wof:name": "UAL2281 (KFOE-SFO)",
    "wof:parent_id": -1,
    "wof:placetype": "event",
    "wof:repo": "sfomuseum-data-flights-2016",
    "wof:superseded_by": [],
    "wof:supersedes": []
  },
  "bbox": [
    -122.370943, 
    37.61799, 
    -95.682634, 
    38.948196
  ],
  "geometry": {"coordinates":[[-95.682634,38.948196],[-122.370943,37.61799]],"type":"MultiPoint"}
}
