{
  "id": 1662246509,
  "type": "Feature",
  "properties": {
    "edtf:cessation": "2016-05-05~",
    "edtf:inception": "2016-05-05T18:42:25",
    "flysfo:airline": "DL",
    "flysfo:date": "2016-05-05",
    "flysfo:event": "D",
    "flysfo:flight_number": "DL2762",
    "flysfo:journey": "SFO-LAX",
    "geom:area": 0,
    "geom:bbox": "-122.370943,33.942593,-118.389510,37.617990",
    "geom:latitude": 35.780291500000004,
    "geom:longitude": -120.38022649999999,
    "iata:airline": "DL",
    "icao:aircraft": "B712",
    "icao:airline": "DAL",
    "mz:is_current": -1,
    "sfomuseum:aircraft_id": 1159292193,
    "sfomuseum:airline_id": 1159284261,
    "sfomuseum:arrival_id": 102533795,
    "sfomuseum:departure_id": 102527513,
    "sfomuseum:flight_id": "20160505-D-DAL-2762",
    "sfomuseum:flight_number": [
      "DL2762", 
      "DAL2762"
    ],
    "sfomuseum:placetype": "flight",
    "src:geom": "sfonoise",
    "wof:belongsto": [
      102191575, 
      1662246509, 
      102087579, 
      85688637, 
      1159396321, 
      102527513, 
      85922583, 
      85633793
    ],
    "wof:country": "US",
    "wof:created": 1582925272,
    "wof:geomhash": "602be2a828e3460cadf44be5b1c2e36b",
    "wof:hierarchy": [
      {
        "building_id": 1159396321,
        "campus_id": 102527513,
        "concourse_id": -1,
        "continent_id": 102191575,
        "country_id": 85633793,
        "county_id": 102087579,
        "event_id": 1662246509,
        "locality_id": 85922583,
        "neighbourhood_id": -1,
        "region_id": 85688637,
        "venue_id": -1,
        "wing_id": -1
      }
    ],
    "wof:id": 1662246509,
    "wof:lastmodified": 1582925272,
    "wof:name": "DAL2762 (SFO-LAX)",
    "wof:parent_id": -1,
    "wof:placetype": "event",
    "wof:repo": "sfomuseum-data-flights-2016",
    "wof:superseded_by": [],
    "wof:supersedes": []
  },
  "bbox": [
    -122.370943, 
    33.942593, 
    -118.38951, 
    37.61799
  ],
  "geometry": {"coordinates":[[-122.370943,37.61799],[-118.38951,33.942593]],"type":"MultiPoint"}
}
