{
  "id": 1662110403,
  "type": "Feature",
  "properties": {
    "edtf:cessation": "2016-02-14~",
    "edtf:inception": "2016-02-14T00:24:11",
    "flysfo:airline": "HA",
    "flysfo:date": "2016-02-14",
    "flysfo:event": "D",
    "flysfo:flight_number": "HA11A",
    "flysfo:journey": "SFO-PHNL",
    "geom:area": 0,
    "geom:bbox": "-157.918416,21.332508,-122.370943,37.617990",
    "geom:latitude": 29.475248999999998,
    "geom:longitude": -140.1446795,
    "iata:airline": "HA",
    "icao:aircraft": "A332",
    "icao:airline": "HAL",
    "mz:is_current": -1,
    "sfomuseum:aircraft_id": 1159289421,
    "sfomuseum:airline_id": 1159284489,
    "sfomuseum:arrival_id": 102533997,
    "sfomuseum:departure_id": 102527513,
    "sfomuseum:flight_id": "20160214-D-HAL-11A",
    "sfomuseum:flight_number": [
      "HA11A", 
      "HAL11A"
    ],
    "sfomuseum:placetype": "flight",
    "src:geom": "sfonoise",
    "wof:belongsto": [
      102527513, 
      102087579, 
      1662110403, 
      85688637, 
      102191575, 
      1159396321, 
      85633793, 
      85922583
    ],
    "wof:country": "US",
    "wof:created": 1582922827,
    "wof:geomhash": "ff961493fc59fc665836e174da62aa8e",
    "wof:hierarchy": [
      {
        "building_id": 1159396321,
        "campus_id": 102527513,
        "concourse_id": -1,
        "continent_id": 102191575,
        "country_id": 85633793,
        "county_id": 102087579,
        "event_id": 1662110403,
        "locality_id": 85922583,
        "neighbourhood_id": -1,
        "region_id": 85688637,
        "venue_id": -1,
        "wing_id": -1
      }
    ],
    "wof:id": 1662110403,
    "wof:lastmodified": 1582922827,
    "wof:name": "HAL11A (SFO-PHNL)",
    "wof:parent_id": -1,
    "wof:placetype": "event",
    "wof:repo": "sfomuseum-data-flights-2016",
    "wof:superseded_by": [],
    "wof:supersedes": []
  },
  "bbox": [
    -157.918416, 
    21.332508, 
    -122.370943, 
    37.61799
  ],
  "geometry": {"coordinates":[[-122.370943,37.61799],[-157.918416,21.332508]],"type":"MultiPoint"}
}
