{
  "id": 1629125159,
  "type": "Feature",
  "properties": {
    "edtf:cessation": "2016-06-06T20:59:56",
    "edtf:inception": "2016-06-06~",
    "flysfo:airline": "UA",
    "flysfo:date": "2016-06-06",
    "flysfo:event": "A",
    "flysfo:flight_number": "UA1118",
    "flysfo:journey": "MMUN-SFO",
    "geom:area": 0,
    "geom:bbox": "-122.370943,21.040317,-86.872856,37.617990",
    "geom:latitude": 29.3291535,
    "geom:longitude": -104.6218995,
    "iata:airline": "UA",
    "icao:aircraft": "B739",
    "icao:airline": "UAL",
    "mz:is_current": -1,
    "sfomuseum:aircraft_id": 1377564285,
    "sfomuseum:airline_id": 1159285413,
    "sfomuseum:arrival_id": 102527513,
    "sfomuseum:departure_id": 102536223,
    "sfomuseum:flight_id": "20160606-A-UAL-1118",
    "sfomuseum:flight_number": [
      "UA1118", 
      "UAL1118"
    ],
    "sfomuseum:placetype": "flight",
    "src:geom": "sfonoise",
    "wof:belongsto": [
      102087579, 
      102527513, 
      85922583, 
      1159396321, 
      102191575, 
      1629125159, 
      85688637, 
      85633793
    ],
    "wof:country": "US",
    "wof:created": 1582926238,
    "wof:geomhash": "c1b858affbd20b2c728ba535a4ce178e",
    "wof:hierarchy": [
      {
        "building_id": 1159396321,
        "campus_id": 102527513,
        "concourse_id": -1,
        "continent_id": 102191575,
        "country_id": 85633793,
        "county_id": 102087579,
        "event_id": 1629125159,
        "locality_id": 85922583,
        "neighbourhood_id": -1,
        "region_id": 85688637,
        "venue_id": -1,
        "wing_id": -1
      }
    ],
    "wof:id": 1629125159,
    "wof:lastmodified": 1582926238,
    "wof:name": "UAL1118 (MMUN-SFO)",
    "wof:parent_id": -1,
    "wof:placetype": "event",
    "wof:repo": "sfomuseum-data-flights-2016",
    "wof:superseded_by": [],
    "wof:supersedes": []
  },
  "bbox": [
    -122.370943, 
    21.040317, 
    -86.872856, 
    37.61799
  ],
  "geometry": {"coordinates":[[-86.872856,21.040317],[-122.370943,37.61799]],"type":"MultiPoint"}
}
