{
  "id": 1662188429,
  "type": "Feature",
  "properties": {
    "edtf:cessation": "2016-04-02T11:31:08",
    "edtf:inception": "2016-04-02~",
    "flysfo:airline": "UA",
    "flysfo:date": "2016-04-02",
    "flysfo:event": "A",
    "flysfo:flight_number": "UA1662",
    "flysfo:journey": "KDCA-SFO",
    "geom:area": 0,
    "geom:bbox": "-122.370943,37.617990,-77.041643,38.850639",
    "geom:latitude": 38.234314499999996,
    "geom:longitude": -99.70629299999999,
    "iata:airline": "UA",
    "icao:aircraft": "B752",
    "icao:airline": "UAL",
    "mz:is_current": -1,
    "sfomuseum:aircraft_id": 1159289939,
    "sfomuseum:airline_id": 1159285413,
    "sfomuseum:arrival_id": 102527513,
    "sfomuseum:departure_id": 102532159,
    "sfomuseum:flight_id": "20160402-A-UAL-1662",
    "sfomuseum:flight_number": [
      "UA1662", 
      "UAL1662"
    ],
    "sfomuseum:placetype": "flight",
    "src:geom": "sfonoise",
    "wof:belongsto": [
      102191575, 
      1159396321, 
      102087579, 
      1662188429, 
      102527513, 
      85633793, 
      85922583, 
      85688637
    ],
    "wof:country": "US",
    "wof:created": 1582923987,
    "wof:geomhash": "cfff966b0a5de3ca50080923c4337cfe",
    "wof:hierarchy": [
      {
        "building_id": 1159396321,
        "campus_id": 102527513,
        "concourse_id": -1,
        "continent_id": 102191575,
        "country_id": 85633793,
        "county_id": 102087579,
        "event_id": 1662188429,
        "locality_id": 85922583,
        "neighbourhood_id": -1,
        "region_id": 85688637,
        "venue_id": -1,
        "wing_id": -1
      }
    ],
    "wof:id": 1662188429,
    "wof:lastmodified": 1582923987,
    "wof:name": "UAL1662 (KDCA-SFO)",
    "wof:parent_id": -1,
    "wof:placetype": "event",
    "wof:repo": "sfomuseum-data-flights-2016",
    "wof:superseded_by": [],
    "wof:supersedes": []
  },
  "bbox": [
    -122.370943, 
    37.61799, 
    -77.041643, 
    38.850639
  ],
  "geometry": {"coordinates":[[-77.041643,38.850639],[-122.370943,37.61799]],"type":"MultiPoint"}
}
