{
  "id": 1662302005,
  "type": "Feature",
  "properties": {
    "edtf:cessation": "2016-06-05~",
    "edtf:inception": "2016-06-05T12:05:04",
    "flysfo:airline": "MU",
    "flysfo:date": "2016-06-05",
    "flysfo:event": "D",
    "flysfo:flight_number": "MU590",
    "flysfo:journey": "SFO-ZSPD",
    "geom:area": 0,
    "geom:bbox": "-122.370943,31.145312,121.799307,37.617990",
    "geom:latitude": 34.381651,
    "geom:longitude": -0.285817999999999,
    "iata:airline": "MU",
    "icao:aircraft": "A332",
    "icao:airline": "CES",
    "mz:is_current": -1,
    "sfomuseum:aircraft_id": 1159289421,
    "sfomuseum:airline_id": 1159284157,
    "sfomuseum:arrival_id": 102550331,
    "sfomuseum:departure_id": 102527513,
    "sfomuseum:flight_id": "20160605-D-CES-590",
    "sfomuseum:flight_number": [
      "MU590", 
      "CES590"
    ],
    "sfomuseum:placetype": "flight",
    "src:geom": "sfonoise",
    "wof:belongsto": [
      102191575, 
      102087579, 
      85633793, 
      85922583, 
      102527513, 
      1662302005, 
      85688637, 
      1159396321
    ],
    "wof:country": "US",
    "wof:created": 1582926194,
    "wof:geomhash": "014430cde1a85b033fb3b4a447168595",
    "wof:hierarchy": [
      {
        "building_id": 1159396321,
        "campus_id": 102527513,
        "concourse_id": -1,
        "continent_id": 102191575,
        "country_id": 85633793,
        "county_id": 102087579,
        "event_id": 1662302005,
        "locality_id": 85922583,
        "neighbourhood_id": -1,
        "region_id": 85688637,
        "venue_id": -1,
        "wing_id": -1
      }
    ],
    "wof:id": 1662302005,
    "wof:lastmodified": 1582926194,
    "wof:name": "CES590 (SFO-ZSPD)",
    "wof:parent_id": -1,
    "wof:placetype": "event",
    "wof:repo": "sfomuseum-data-flights-2016",
    "wof:superseded_by": [],
    "wof:supersedes": []
  },
  "bbox": [
    -122.370943, 
    31.145312, 
    121.799307, 
    37.61799
  ],
  "geometry": {"coordinates":[[-122.370943,37.61799],[121.799307,31.145312]],"type":"MultiPoint"}
}
