{
  "id": 1662228995,
  "type": "Feature",
  "properties": {
    "edtf:cessation": "2016-04-25~",
    "edtf:inception": "2016-04-25T20:58:06",
    "flysfo:airline": "AA",
    "flysfo:date": "2016-04-25",
    "flysfo:event": "D",
    "flysfo:flight_number": "AA209",
    "flysfo:journey": "SFO-KLAX",
    "geom:area": 0,
    "geom:bbox": "-122.370943,33.942593,-118.389510,37.617990",
    "geom:latitude": 35.780291500000004,
    "geom:longitude": -120.38022649999999,
    "iata:airline": "AA",
    "icao:aircraft": "B738",
    "icao:airline": "AAL",
    "mz:is_current": -1,
    "sfomuseum:aircraft_id": 1159289871,
    "sfomuseum:airline_id": 1159283851,
    "sfomuseum:arrival_id": 102533795,
    "sfomuseum:departure_id": 102527513,
    "sfomuseum:flight_id": "20160425-D-AAL-209",
    "sfomuseum:flight_number": [
      "AA209", 
      "AAL209"
    ],
    "sfomuseum:placetype": "flight",
    "src:geom": "sfonoise",
    "wof:belongsto": [
      102191575, 
      85633793, 
      1159396321, 
      102087579, 
      102527513, 
      85922583, 
      1662228995, 
      85688637
    ],
    "wof:country": "US",
    "wof:created": 1582924892,
    "wof:geomhash": "602be2a828e3460cadf44be5b1c2e36b",
    "wof:hierarchy": [
      {
        "building_id": 1159396321,
        "campus_id": 102527513,
        "concourse_id": -1,
        "continent_id": 102191575,
        "country_id": 85633793,
        "county_id": 102087579,
        "event_id": 1662228995,
        "locality_id": 85922583,
        "neighbourhood_id": -1,
        "region_id": 85688637,
        "venue_id": -1,
        "wing_id": -1
      }
    ],
    "wof:id": 1662228995,
    "wof:lastmodified": 1582924892,
    "wof:name": "AAL209 (SFO-KLAX)",
    "wof:parent_id": -1,
    "wof:placetype": "event",
    "wof:repo": "sfomuseum-data-flights-2016",
    "wof:superseded_by": [],
    "wof:supersedes": []
  },
  "bbox": [
    -122.370943, 
    33.942593, 
    -118.38951, 
    37.61799
  ],
  "geometry": {"coordinates":[[-122.370943,37.61799],[-118.38951,33.942593]],"type":"MultiPoint"}
}
