{
  "id": 1678863407,
  "type": "Feature",
  "properties": {
    "edtf:cessation": "2016-09-01~",
    "edtf:inception": "2016-09-01T13:07:14",
    "flysfo:airline": "DL",
    "flysfo:date": "2016-09-01",
    "flysfo:event": "D",
    "flysfo:flight_number": "DL1445",
    "flysfo:journey": "SFO-KMSP",
    "geom:area": 0,
    "geom:bbox": "-122.370943,37.617990,-93.200317,44.883321",
    "geom:latitude": 41.2506555,
    "geom:longitude": -107.78563,
    "iata:airline": "DL",
    "icao:aircraft": "B739",
    "icao:airline": "DAL",
    "mz:is_current": -1,
    "sfomuseum:aircraft_id": 1377564285,
    "sfomuseum:airline_id": 1159284261,
    "sfomuseum:arrival_id": 102531131,
    "sfomuseum:departure_id": 102527513,
    "sfomuseum:flight_id": "20160901-D-DAL-1445",
    "sfomuseum:flight_number": [
      "DL1445", 
      "DAL1445"
    ],
    "sfomuseum:placetype": "flight",
    "src:geom": "sfonoise",
    "wof:belongsto": [
      85688637, 
      85633793, 
      1159157271, 
      102527513, 
      102191575, 
      102087579, 
      1678863407, 
      85922583
    ],
    "wof:country": "US",
    "wof:created": 1582929422,
    "wof:geomhash": "bbdc3c5edf2b2678c807f6144214d82c",
    "wof:hierarchy": [
      {
        "building_id": 1159157271,
        "campus_id": 102527513,
        "concourse_id": -1,
        "continent_id": 102191575,
        "country_id": 85633793,
        "county_id": 102087579,
        "event_id": 1678863407,
        "locality_id": 85922583,
        "neighbourhood_id": -1,
        "region_id": 85688637,
        "venue_id": -1,
        "wing_id": -1
      }
    ],
    "wof:id": 1678863407,
    "wof:lastmodified": 1582929422,
    "wof:name": "DAL1445 (SFO-KMSP)",
    "wof:parent_id": -1,
    "wof:placetype": "event",
    "wof:repo": "sfomuseum-data-flights-2016",
    "wof:superseded_by": [],
    "wof:supersedes": []
  },
  "bbox": [
    -122.370943, 
    37.61799, 
    -93.200317, 
    44.883321
  ],
  "geometry": {"coordinates":[[-122.370943,37.61799],[-93.200317,44.883321]],"type":"MultiPoint"}
}
