{
  "id": 1662188641,
  "type": "Feature",
  "properties": {
    "edtf:cessation": "2016-04-02~",
    "edtf:inception": "2016-04-02T13:55:59",
    "flysfo:airline": "WN",
    "flysfo:date": "2016-04-02",
    "flysfo:event": "D",
    "flysfo:flight_number": "WN4505",
    "flysfo:journey": "SFO-KSAN",
    "geom:area": 0,
    "geom:bbox": "-122.370943,32.733534,-117.185927,37.617990",
    "geom:latitude": 35.175762,
    "geom:longitude": -119.778435,
    "iata:airline": "WN",
    "icao:aircraft": "B733",
    "icao:airline": "SWA",
    "mz:is_current": -1,
    "sfomuseum:aircraft_id": 1159289851,
    "sfomuseum:airline_id": 1159285591,
    "sfomuseum:arrival_id": 102528997,
    "sfomuseum:departure_id": 102527513,
    "sfomuseum:flight_id": "20160402-D-SWA-4505",
    "sfomuseum:flight_number": [
      "WN4505", 
      "SWA4505"
    ],
    "sfomuseum:placetype": "flight",
    "src:geom": "sfonoise",
    "wof:belongsto": [
      102191575, 
      85633793, 
      1662188641, 
      85688637, 
      102087579, 
      1159396321, 
      102527513, 
      85922583
    ],
    "wof:country": "US",
    "wof:created": 1582923989,
    "wof:geomhash": "25f5345529d944df781e36098260a435",
    "wof:hierarchy": [
      {
        "building_id": 1159396321,
        "campus_id": 102527513,
        "concourse_id": -1,
        "continent_id": 102191575,
        "country_id": 85633793,
        "county_id": 102087579,
        "event_id": 1662188641,
        "locality_id": 85922583,
        "neighbourhood_id": -1,
        "region_id": 85688637,
        "venue_id": -1,
        "wing_id": -1
      }
    ],
    "wof:id": 1662188641,
    "wof:lastmodified": 1582923989,
    "wof:name": "SWA4505 (SFO-KSAN)",
    "wof:parent_id": -1,
    "wof:placetype": "event",
    "wof:repo": "sfomuseum-data-flights-2016",
    "wof:superseded_by": [],
    "wof:supersedes": []
  },
  "bbox": [
    -122.370943, 
    32.733534, 
    -117.185927, 
    37.61799
  ],
  "geometry": {"coordinates":[[-122.370943,37.61799],[-117.185927,32.733534]],"type":"MultiPoint"}
}
