{
  "id": 1679061509,
  "type": "Feature",
  "properties": {
    "edtf:cessation": "2016-10-14T19:37:36",
    "edtf:inception": "2016-10-14~",
    "flysfo:airline": "WN",
    "flysfo:date": "2016-10-14",
    "flysfo:event": "A",
    "flysfo:flight_number": "WN3085",
    "flysfo:journey": "KPHX-SFO",
    "geom:area": 0,
    "geom:bbox": "-122.370943,33.432684,-112.017392,37.617990",
    "geom:latitude": 35.525337,
    "geom:longitude": -117.19416749999999,
    "iata:airline": "WN",
    "icao:aircraft": "B737",
    "icao:airline": "SWA",
    "mz:is_current": -1,
    "sfomuseum:aircraft_id": 1159289869,
    "sfomuseum:airline_id": 1159285591,
    "sfomuseum:arrival_id": 102527513,
    "sfomuseum:departure_id": 102526751,
    "sfomuseum:flight_id": "20161014-A-SWA-3085",
    "sfomuseum:flight_number": [
      "WN3085", 
      "SWA3085"
    ],
    "sfomuseum:placetype": "flight",
    "src:geom": "sfonoise",
    "wof:belongsto": [
      102087579, 
      1159157271, 
      85633793, 
      85688637, 
      102527513, 
      102191575, 
      85922583, 
      1679061509
    ],
    "wof:country": "US",
    "wof:created": 1582931869,
    "wof:geomhash": "c9fdc5df38b6a105de4fe30ae6ada830",
    "wof:hierarchy": [
      {
        "building_id": 1159157271,
        "campus_id": 102527513,
        "concourse_id": -1,
        "continent_id": 102191575,
        "country_id": 85633793,
        "county_id": 102087579,
        "event_id": 1679061509,
        "locality_id": 85922583,
        "neighbourhood_id": -1,
        "region_id": 85688637,
        "venue_id": -1,
        "wing_id": -1
      }
    ],
    "wof:id": 1679061509,
    "wof:lastmodified": 1582931869,
    "wof:name": "SWA3085 (KPHX-SFO)",
    "wof:parent_id": -1,
    "wof:placetype": "event",
    "wof:repo": "sfomuseum-data-flights-2016",
    "wof:superseded_by": [],
    "wof:supersedes": []
  },
  "bbox": [
    -122.370943, 
    33.432684, 
    -112.017392, 
    37.61799
  ],
  "geometry": {"coordinates":[[-112.017392,33.432684],[-122.370943,37.61799]],"type":"MultiPoint"}
}
