{
  "id": 1662274285,
  "type": "Feature",
  "properties": {
    "edtf:cessation": "2016-05-20~",
    "edtf:inception": "2016-05-20T23:42:09",
    "flysfo:airline": "F9",
    "flysfo:date": "2016-05-20",
    "flysfo:event": "D",
    "flysfo:flight_number": "F91416",
    "flysfo:journey": "SFO-CLE",
    "geom:area": 0,
    "geom:bbox": "-122.370943,37.617990,-81.835629,41.406844",
    "geom:latitude": 39.512417,
    "geom:longitude": -102.103286,
    "iata:airline": "F9",
    "icao:aircraft": "A320",
    "icao:airline": "FFT",
    "mz:is_current": -1,
    "sfomuseum:aircraft_id": 1159292085,
    "sfomuseum:airline_id": 1159284401,
    "sfomuseum:arrival_id": 102534019,
    "sfomuseum:departure_id": 102527513,
    "sfomuseum:flight_id": "20160520-D-FFT-1416",
    "sfomuseum:flight_number": [
      "F91416", 
      "FFT1416"
    ],
    "sfomuseum:placetype": "flight",
    "src:geom": "sfonoise",
    "wof:belongsto": [
      102527513, 
      102191575, 
      1662274285, 
      85633793, 
      102087579, 
      85922583, 
      85688637, 
      1159396321
    ],
    "wof:country": "US",
    "wof:created": 1582925708,
    "wof:geomhash": "f65caf98d316e6ee4a43fdc3ee688d07",
    "wof:hierarchy": [
      {
        "building_id": 1159396321,
        "campus_id": 102527513,
        "concourse_id": -1,
        "continent_id": 102191575,
        "country_id": 85633793,
        "county_id": 102087579,
        "event_id": 1662274285,
        "locality_id": 85922583,
        "neighbourhood_id": -1,
        "region_id": 85688637,
        "venue_id": -1,
        "wing_id": -1
      }
    ],
    "wof:id": 1662274285,
    "wof:lastmodified": 1582925708,
    "wof:name": "FFT1416 (SFO-CLE)",
    "wof:parent_id": -1,
    "wof:placetype": "event",
    "wof:repo": "sfomuseum-data-flights-2016",
    "wof:superseded_by": [],
    "wof:supersedes": []
  },
  "bbox": [
    -122.370943, 
    37.61799, 
    -81.835629, 
    41.406844
  ],
  "geometry": {"coordinates":[[-122.370943,37.61799],[-81.835629,41.406844]],"type":"MultiPoint"}
}
