{
  "id": 1679133571,
  "type": "Feature",
  "properties": {
    "edtf:cessation": "2016-11-01T22:53:46",
    "edtf:inception": "2016-11-01~",
    "flysfo:airline": "UA",
    "flysfo:date": "2016-11-01",
    "flysfo:event": "A",
    "flysfo:flight_number": "UA2156",
    "flysfo:journey": "LFPG-SFO",
    "geom:area": 0,
    "geom:bbox": "-122.370943,37.617990,2.542809,49.007854",
    "geom:latitude": 43.312922,
    "geom:longitude": -59.914066999999996,
    "iata:airline": "UA",
    "icao:aircraft": "B789",
    "icao:airline": "UAL",
    "mz:is_current": -1,
    "sfomuseum:aircraft_id": 1159293215,
    "sfomuseum:airline_id": 1159285413,
    "sfomuseum:arrival_id": 102527513,
    "sfomuseum:departure_id": 102544459,
    "sfomuseum:flight_id": "20161101-A-UAL-2156",
    "sfomuseum:flight_number": [
      "UA2156", 
      "UAL2156"
    ],
    "sfomuseum:placetype": "flight",
    "src:geom": "sfonoise",
    "wof:belongsto": [
      1159157271, 
      102527513, 
      1679133571, 
      85633793, 
      102191575, 
      102087579, 
      85922583, 
      85688637
    ],
    "wof:country": "US",
    "wof:created": 1582932716,
    "wof:geomhash": "07d689097487ceb3bc0a07973d8c4b93",
    "wof:hierarchy": [
      {
        "building_id": 1159157271,
        "campus_id": 102527513,
        "concourse_id": -1,
        "continent_id": 102191575,
        "country_id": 85633793,
        "county_id": 102087579,
        "event_id": 1679133571,
        "locality_id": 85922583,
        "neighbourhood_id": -1,
        "region_id": 85688637,
        "venue_id": -1,
        "wing_id": -1
      }
    ],
    "wof:id": 1679133571,
    "wof:lastmodified": 1582932716,
    "wof:name": "UAL2156 (LFPG-SFO)",
    "wof:parent_id": -1,
    "wof:placetype": "event",
    "wof:repo": "sfomuseum-data-flights-2016",
    "wof:superseded_by": [],
    "wof:supersedes": []
  },
  "bbox": [
    -122.370943, 
    37.61799, 
    2.542809, 
    49.007854
  ],
  "geometry": {"coordinates":[[2.542809,49.007854],[-122.370943,37.61799]],"type":"MultiPoint"}
}
