{
  "id": 1629239647,
  "type": "Feature",
  "properties": {
    "edtf:cessation": "2016-07-19T12:43:13",
    "edtf:inception": "2016-07-19~",
    "flysfo:airline": "AA",
    "flysfo:date": "2016-07-19",
    "flysfo:event": "A",
    "flysfo:flight_number": "AA2438",
    "flysfo:journey": "KLAX-SFO",
    "geom:area": 0,
    "geom:bbox": "-122.370943,33.942593,-118.389510,37.617990",
    "geom:latitude": 35.780291500000004,
    "geom:longitude": -120.38022649999999,
    "iata:airline": "AA",
    "icao:aircraft": "A319",
    "icao:airline": "AAL",
    "mz:is_current": -1,
    "sfomuseum:aircraft_id": 1159289407,
    "sfomuseum:airline_id": 1159283851,
    "sfomuseum:arrival_id": 102527513,
    "sfomuseum:departure_id": 102533795,
    "sfomuseum:flight_id": "20160719-A-AAL-2438",
    "sfomuseum:flight_number": [
      "AA2438", 
      "AAL2438"
    ],
    "sfomuseum:placetype": "flight",
    "src:geom": "sfonoise",
    "wof:belongsto": [
      102527513, 
      85633793, 
      85922583, 
      1159157271, 
      102191575, 
      1629239647, 
      102087579, 
      85688637
    ],
    "wof:country": "US",
    "wof:created": 1582927520,
    "wof:geomhash": "f16008bc2ad68c6d1bc593247c6c74a9",
    "wof:hierarchy": [
      {
        "building_id": 1159157271,
        "campus_id": 102527513,
        "concourse_id": -1,
        "continent_id": 102191575,
        "country_id": 85633793,
        "county_id": 102087579,
        "event_id": 1629239647,
        "locality_id": 85922583,
        "neighbourhood_id": -1,
        "region_id": 85688637,
        "venue_id": -1,
        "wing_id": -1
      }
    ],
    "wof:id": 1629239647,
    "wof:lastmodified": 1582927520,
    "wof:name": "AAL2438 (KLAX-SFO)",
    "wof:parent_id": -1,
    "wof:placetype": "event",
    "wof:repo": "sfomuseum-data-flights-2016",
    "wof:superseded_by": [],
    "wof:supersedes": []
  },
  "bbox": [
    -122.370943, 
    33.942593, 
    -118.38951, 
    37.61799
  ],
  "geometry": {"coordinates":[[-118.38951,33.942593],[-122.370943,37.61799]],"type":"MultiPoint"}
}
