{
  "id": 1662326495,
  "type": "Feature",
  "properties": {
    "edtf:cessation": "2016-06-17~",
    "edtf:inception": "2016-06-17T23:19:53",
    "flysfo:airline": "PR",
    "flysfo:date": "2016-06-17",
    "flysfo:event": "D",
    "flysfo:flight_number": "PR115",
    "flysfo:journey": "SFO-RPLL",
    "geom:area": 0,
    "geom:bbox": "-122.370943,14.517768,121.015152,37.617990",
    "geom:latitude": 26.067878999999998,
    "geom:longitude": -0.6778954999999982,
    "iata:airline": "PR",
    "icao:aircraft": "A343",
    "icao:airline": "PAL",
    "mz:is_current": -1,
    "sfomuseum:aircraft_id": 1159289429,
    "sfomuseum:airline_id": 1159285015,
    "sfomuseum:arrival_id": 102553219,
    "sfomuseum:departure_id": 102527513,
    "sfomuseum:flight_id": "20160617-D-PAL-115",
    "sfomuseum:flight_number": [
      "PR115", 
      "PAL115"
    ],
    "sfomuseum:placetype": "flight",
    "src:geom": "sfonoise",
    "wof:belongsto": [
      102191575, 
      1662326495, 
      102087579, 
      1159396321, 
      102527513, 
      85633793, 
      85688637, 
      85922583
    ],
    "wof:country": "US",
    "wof:created": 1582926582,
    "wof:geomhash": "d86898d5d90d953f6630362144c30ee0",
    "wof:hierarchy": [
      {
        "building_id": 1159396321,
        "campus_id": 102527513,
        "concourse_id": -1,
        "continent_id": 102191575,
        "country_id": 85633793,
        "county_id": 102087579,
        "event_id": 1662326495,
        "locality_id": 85922583,
        "neighbourhood_id": -1,
        "region_id": 85688637,
        "venue_id": -1,
        "wing_id": -1
      }
    ],
    "wof:id": 1662326495,
    "wof:lastmodified": 1582926582,
    "wof:name": "PAL115 (SFO-RPLL)",
    "wof:parent_id": -1,
    "wof:placetype": "event",
    "wof:repo": "sfomuseum-data-flights-2016",
    "wof:superseded_by": [],
    "wof:supersedes": []
  },
  "bbox": [
    -122.370943, 
    14.517768, 
    121.015152, 
    37.61799
  ],
  "geometry": {"coordinates":[[-122.370943,37.61799],[121.015152,14.517768]],"type":"MultiPoint"}
}
