{
  "id": 1629204323,
  "type": "Feature",
  "properties": {
    "edtf:cessation": "2016-07-10~",
    "edtf:inception": "2016-07-10T18:54:40",
    "flysfo:airline": "UA",
    "flysfo:date": "2016-07-10",
    "flysfo:event": "D",
    "flysfo:flight_number": "UA1196",
    "flysfo:journey": "SFO-KIAD",
    "geom:area": 0,
    "geom:bbox": "-122.370943,37.617990,-77.453702,38.949246",
    "geom:latitude": 38.283618000000004,
    "geom:longitude": -99.9123225,
    "iata:airline": "UA",
    "icao:aircraft": "A320",
    "icao:airline": "UAL",
    "mz:is_current": -1,
    "sfomuseum:aircraft_id": 1159292085,
    "sfomuseum:airline_id": 1159285413,
    "sfomuseum:arrival_id": 102528817,
    "sfomuseum:departure_id": 102527513,
    "sfomuseum:flight_id": "20160710-D-UAL-1196",
    "sfomuseum:flight_number": [
      "UA1196", 
      "UAL1196"
    ],
    "sfomuseum:placetype": "flight",
    "src:geom": "sfonoise",
    "wof:belongsto": [
      102087579, 
      85922583, 
      85633793, 
      1629204323, 
      102527513, 
      85688637, 
      1159157271, 
      102191575
    ],
    "wof:country": "US",
    "wof:created": 1582927249,
    "wof:geomhash": "1c4ce661f6692034a082b31062a17f5e",
    "wof:hierarchy": [
      {
        "building_id": 1159157271,
        "campus_id": 102527513,
        "concourse_id": -1,
        "continent_id": 102191575,
        "country_id": 85633793,
        "county_id": 102087579,
        "event_id": 1629204323,
        "locality_id": 85922583,
        "neighbourhood_id": -1,
        "region_id": 85688637,
        "venue_id": -1,
        "wing_id": -1
      }
    ],
    "wof:id": 1629204323,
    "wof:lastmodified": 1582927249,
    "wof:name": "UAL1196 (SFO-KIAD)",
    "wof:parent_id": -1,
    "wof:placetype": "event",
    "wof:repo": "sfomuseum-data-flights-2016",
    "wof:superseded_by": [],
    "wof:supersedes": []
  },
  "bbox": [
    -122.370943, 
    37.61799, 
    -77.453702, 
    38.949246
  ],
  "geometry": {"coordinates":[[-122.370943,37.61799],[-77.453702,38.949246]],"type":"MultiPoint"}
}
