{
  "id": 1629259967,
  "type": "Feature",
  "properties": {
    "edtf:cessation": "2016-07-24~",
    "edtf:inception": "2016-07-24T16:58:36",
    "flysfo:airline": "UA",
    "flysfo:date": "2016-07-24",
    "flysfo:event": "D",
    "flysfo:flight_number": "UA8184",
    "flysfo:journey": "SFO-PHLI",
    "geom:area": 0,
    "geom:bbox": "-159.347789,21.981539,-122.370943,37.617990",
    "geom:latitude": 29.799764500000002,
    "geom:longitude": -140.859366,
    "iata:airline": "UA",
    "icao:aircraft": "B738",
    "icao:airline": "UAL",
    "mz:is_current": -1,
    "sfomuseum:aircraft_id": 1159289871,
    "sfomuseum:airline_id": 1159285413,
    "sfomuseum:arrival_id": 102528943,
    "sfomuseum:departure_id": 102527513,
    "sfomuseum:flight_id": "20160724-D-UAL-8184",
    "sfomuseum:flight_number": [
      "UA8184", 
      "UAL8184"
    ],
    "sfomuseum:placetype": "flight",
    "src:geom": "sfonoise",
    "wof:belongsto": [
      102191575, 
      85633793, 
      85688637, 
      102087579, 
      1629259967, 
      102527513, 
      1159157271, 
      85922583
    ],
    "wof:country": "US",
    "wof:created": 1582927680,
    "wof:geomhash": "a2498fe603884edb23014f03e0e3c121",
    "wof:hierarchy": [
      {
        "building_id": 1159157271,
        "campus_id": 102527513,
        "concourse_id": -1,
        "continent_id": 102191575,
        "country_id": 85633793,
        "county_id": 102087579,
        "event_id": 1629259967,
        "locality_id": 85922583,
        "neighbourhood_id": -1,
        "region_id": 85688637,
        "venue_id": -1,
        "wing_id": -1
      }
    ],
    "wof:id": 1629259967,
    "wof:lastmodified": 1582927680,
    "wof:name": "UAL8184 (SFO-PHLI)",
    "wof:parent_id": -1,
    "wof:placetype": "event",
    "wof:repo": "sfomuseum-data-flights-2016",
    "wof:superseded_by": [],
    "wof:supersedes": []
  },
  "bbox": [
    -159.347789, 
    21.981539, 
    -122.370943, 
    37.61799
  ],
  "geometry": {"coordinates":[[-122.370943,37.61799],[-159.347789,21.981539]],"type":"MultiPoint"}
}
