{
  "id": 1662072753,
  "type": "Feature",
  "properties": {
    "edtf:cessation": "2016-01-19~",
    "edtf:inception": "2016-01-19T13:08:46",
    "flysfo:airline": "CZ",
    "flysfo:date": "2016-01-19",
    "flysfo:event": "D",
    "flysfo:flight_number": "CZ660",
    "flysfo:journey": "SFO-WUH",
    "geom:area": 0,
    "geom:bbox": "-122.370943,30.783800,114.208000,37.617990",
    "geom:latitude": 34.200895,
    "geom:longitude": -4.081471499999999,
    "iata:airline": "CZ",
    "icao:aircraft": "B788",
    "icao:airline": "CSN",
    "mz:is_current": -1,
    "sfomuseum:aircraft_id": 1159289995,
    "sfomuseum:airline_id": 1159284165,
    "sfomuseum:arrival_id": 102550529,
    "sfomuseum:departure_id": 102527513,
    "sfomuseum:flight_id": "20160119-D-CSN-660",
    "sfomuseum:flight_number": [
      "CZ660", 
      "CSN660"
    ],
    "sfomuseum:placetype": "flight",
    "src:geom": "sfonoise",
    "wof:belongsto": [
      1662072753, 
      85633793, 
      102527513, 
      85688637, 
      85922583, 
      102087579, 
      1159396321, 
      102191575
    ],
    "wof:country": "US",
    "wof:created": 1582922268,
    "wof:geomhash": "45e7108794d81a2dcecee3acf14ea6a4",
    "wof:hierarchy": [
      {
        "building_id": 1159396321,
        "campus_id": 102527513,
        "concourse_id": -1,
        "continent_id": 102191575,
        "country_id": 85633793,
        "county_id": 102087579,
        "event_id": 1662072753,
        "locality_id": 85922583,
        "neighbourhood_id": -1,
        "region_id": 85688637,
        "venue_id": -1,
        "wing_id": -1
      }
    ],
    "wof:id": 1662072753,
    "wof:lastmodified": 1582922268,
    "wof:name": "CSN660 (SFO-WUH)",
    "wof:parent_id": -1,
    "wof:placetype": "event",
    "wof:repo": "sfomuseum-data-flights-2016",
    "wof:superseded_by": [],
    "wof:supersedes": []
  },
  "bbox": [
    -122.370943, 
    30.7838, 
    114.208, 
    37.61799
  ],
  "geometry": {"coordinates":[[-122.370943,37.61799],[114.208,30.7838]],"type":"MultiPoint"}
}
