{
  "id": 1629193819,
  "type": "Feature",
  "properties": {
    "edtf:cessation": "2016-07-08~",
    "edtf:inception": "2016-07-08T00:18:51",
    "flysfo:airline": "OO",
    "flysfo:date": "2016-07-08",
    "flysfo:event": "D",
    "flysfo:flight_number": "OO5134",
    "flysfo:journey": "SFO-KSBP",
    "geom:area": 0,
    "geom:bbox": "-122.370943,35.236920,-120.643230,37.617990",
    "geom:latitude": 36.427454999999995,
    "geom:longitude": -121.5070865,
    "iata:airline": "OO",
    "icao:aircraft": "CRJ2",
    "icao:airline": "SKW",
    "mz:is_current": -1,
    "sfomuseum:aircraft_id": 1159290137,
    "sfomuseum:airline_id": 1159285179,
    "sfomuseum:arrival_id": 102527351,
    "sfomuseum:departure_id": 102527513,
    "sfomuseum:flight_id": "20160708-D-SKW-5134",
    "sfomuseum:flight_number": [
      "OO5134", 
      "SKW5134"
    ],
    "sfomuseum:placetype": "flight",
    "src:geom": "sfonoise",
    "wof:belongsto": [
      85922583, 
      85688637, 
      1629193819, 
      102527513, 
      102191575, 
      1159157271, 
      102087579, 
      85633793
    ],
    "wof:country": "US",
    "wof:created": 1582927167,
    "wof:geomhash": "6ee4dc6f06435306541ac2ffbe1ad823",
    "wof:hierarchy": [
      {
        "building_id": 1159157271,
        "campus_id": 102527513,
        "concourse_id": -1,
        "continent_id": 102191575,
        "country_id": 85633793,
        "county_id": 102087579,
        "event_id": 1629193819,
        "locality_id": 85922583,
        "neighbourhood_id": -1,
        "region_id": 85688637,
        "venue_id": -1,
        "wing_id": -1
      }
    ],
    "wof:id": 1629193819,
    "wof:lastmodified": 1582927167,
    "wof:name": "SKW5134 (SFO-KSBP)",
    "wof:parent_id": -1,
    "wof:placetype": "event",
    "wof:repo": "sfomuseum-data-flights-2016",
    "wof:superseded_by": [],
    "wof:supersedes": []
  },
  "bbox": [
    -122.370943, 
    35.23692, 
    -120.64323, 
    37.61799
  ],
  "geometry": {"coordinates":[[-122.370943,37.61799],[-120.64323,35.23692]],"type":"MultiPoint"}
}
