{
  "id": 1629350295,
  "type": "Feature",
  "properties": {
    "edtf:cessation": "2016-08-16T02:03:00",
    "edtf:inception": "2016-08-16~",
    "flysfo:airline": "UA",
    "flysfo:date": "2016-08-16",
    "flysfo:event": "A",
    "flysfo:flight_number": "UA460",
    "flysfo:journey": "KSBA-SFO",
    "geom:area": 0,
    "geom:bbox": "-122.370943,34.427974,-119.837133,37.617990",
    "geom:latitude": 36.022982,
    "geom:longitude": -121.104038,
    "iata:airline": "UA",
    "icao:aircraft": "A320",
    "icao:airline": "UAL",
    "mz:is_current": -1,
    "sfomuseum:aircraft_id": 1159292085,
    "sfomuseum:airline_id": 1159285413,
    "sfomuseum:arrival_id": 102527513,
    "sfomuseum:departure_id": 102527337,
    "sfomuseum:flight_id": "20160816-A-UAL-460",
    "sfomuseum:flight_number": [
      "UA460", 
      "UAL460"
    ],
    "sfomuseum:placetype": "flight",
    "src:geom": "sfonoise",
    "wof:belongsto": [
      102191575, 
      85633793, 
      85922583, 
      1159157271, 
      85688637, 
      102527513, 
      102087579, 
      1629350295
    ],
    "wof:country": "US",
    "wof:created": 1582928425,
    "wof:geomhash": "aae625247f3652ef8a50cae9f49d2791",
    "wof:hierarchy": [
      {
        "building_id": 1159157271,
        "campus_id": 102527513,
        "concourse_id": -1,
        "continent_id": 102191575,
        "country_id": 85633793,
        "county_id": 102087579,
        "event_id": 1629350295,
        "locality_id": 85922583,
        "neighbourhood_id": -1,
        "region_id": 85688637,
        "venue_id": -1,
        "wing_id": -1
      }
    ],
    "wof:id": 1629350295,
    "wof:lastmodified": 1582928425,
    "wof:name": "UAL460 (KSBA-SFO)",
    "wof:parent_id": -1,
    "wof:placetype": "event",
    "wof:repo": "sfomuseum-data-flights-2016",
    "wof:superseded_by": [],
    "wof:supersedes": []
  },
  "bbox": [
    -122.370943, 
    34.427974, 
    -119.837133, 
    37.61799
  ],
  "geometry": {"coordinates":[[-119.837133,34.427974],[-122.370943,37.61799]],"type":"MultiPoint"}
}
