{
  "id": 1629149381,
  "type": "Feature",
  "properties": {
    "edtf:cessation": "2016-06-26T14:59:07",
    "edtf:inception": "2016-06-26~",
    "flysfo:airline": "UA",
    "flysfo:date": "2016-06-26",
    "flysfo:event": "A",
    "flysfo:flight_number": "UA1762",
    "flysfo:journey": "CYYC-SFO",
    "geom:area": 0,
    "geom:bbox": "-122.370943,37.617990,-114.020920,51.119526",
    "geom:latitude": 44.368758,
    "geom:longitude": -118.1959315,
    "iata:airline": "UA",
    "icao:aircraft": "A319",
    "icao:airline": "UAL",
    "mz:is_current": -1,
    "sfomuseum:aircraft_id": 1159289407,
    "sfomuseum:airline_id": 1159285413,
    "sfomuseum:arrival_id": 102527513,
    "sfomuseum:departure_id": 102554947,
    "sfomuseum:flight_id": "20160626-A-UAL-1762",
    "sfomuseum:flight_number": [
      "UA1762", 
      "UAL1762"
    ],
    "sfomuseum:placetype": "flight",
    "src:geom": "sfonoise",
    "wof:belongsto": [
      1629149381, 
      1159396321, 
      102087579, 
      85688637, 
      102191575, 
      85633793, 
      85922583, 
      102527513
    ],
    "wof:country": "US",
    "wof:created": 1582926828,
    "wof:geomhash": "4b8d850891e12dfac0a460ee51cd363b",
    "wof:hierarchy": [
      {
        "building_id": 1159396321,
        "campus_id": 102527513,
        "concourse_id": -1,
        "continent_id": 102191575,
        "country_id": 85633793,
        "county_id": 102087579,
        "event_id": 1629149381,
        "locality_id": 85922583,
        "neighbourhood_id": -1,
        "region_id": 85688637,
        "venue_id": -1,
        "wing_id": -1
      }
    ],
    "wof:id": 1629149381,
    "wof:lastmodified": 1582926828,
    "wof:name": "UAL1762 (CYYC-SFO)",
    "wof:parent_id": -1,
    "wof:placetype": "event",
    "wof:repo": "sfomuseum-data-flights-2016",
    "wof:superseded_by": [],
    "wof:supersedes": []
  },
  "bbox": [
    -122.370943, 
    37.61799, 
    -114.02092, 
    51.119526
  ],
  "geometry": {"coordinates":[[-114.02092,51.119526],[-122.370943,37.61799]],"type":"MultiPoint"}
}
