{
  "id": 1662330875,
  "type": "Feature",
  "properties": {
    "edtf:cessation": "2016-06-20T10:40:17",
    "edtf:inception": "2016-06-20~",
    "flysfo:airline": "BR",
    "flysfo:date": "2016-06-20",
    "flysfo:event": "A",
    "flysfo:flight_number": "BR691",
    "flysfo:journey": "KDFW-SFO",
    "geom:area": 0,
    "geom:bbox": "-122.370943,32.903660,-97.050966,37.617990",
    "geom:latitude": 35.260825,
    "geom:longitude": -109.7109545,
    "iata:airline": "BR",
    "icao:aircraft": "B744",
    "icao:airline": "EVA",
    "mz:is_current": -1,
    "sfomuseum:aircraft_id": 1159289915,
    "sfomuseum:airline_id": 1159284349,
    "sfomuseum:arrival_id": 102527513,
    "sfomuseum:departure_id": 102528541,
    "sfomuseum:flight_id": "20160620-A-EVA-691",
    "sfomuseum:flight_number": [
      "BR691", 
      "EVA691"
    ],
    "sfomuseum:placetype": "flight",
    "src:geom": "sfonoise",
    "wof:belongsto": [
      1159396321, 
      102527513, 
      102087579, 
      102191575, 
      85633793, 
      1662330875, 
      85922583, 
      85688637
    ],
    "wof:country": "US",
    "wof:created": 1582926650,
    "wof:geomhash": "865973335526f09b753756c305bf4946",
    "wof:hierarchy": [
      {
        "building_id": 1159396321,
        "campus_id": 102527513,
        "concourse_id": -1,
        "continent_id": 102191575,
        "country_id": 85633793,
        "county_id": 102087579,
        "event_id": 1662330875,
        "locality_id": 85922583,
        "neighbourhood_id": -1,
        "region_id": 85688637,
        "venue_id": -1,
        "wing_id": -1
      }
    ],
    "wof:id": 1662330875,
    "wof:lastmodified": 1582926650,
    "wof:name": "EVA691 (KDFW-SFO)",
    "wof:parent_id": -1,
    "wof:placetype": "event",
    "wof:repo": "sfomuseum-data-flights-2016",
    "wof:superseded_by": [],
    "wof:supersedes": []
  },
  "bbox": [
    -122.370943, 
    32.90366, 
    -97.050966, 
    37.61799
  ],
  "geometry": {"coordinates":[[-97.050966,32.90366],[-122.370943,37.61799]],"type":"MultiPoint"}
}
