{
  "id": 1629260713,
  "type": "Feature",
  "properties": {
    "edtf:cessation": "2016-07-24T20:33:16",
    "edtf:inception": "2016-07-24~",
    "flysfo:airline": "UA",
    "flysfo:date": "2016-07-24",
    "flysfo:event": "A",
    "flysfo:flight_number": "UA2212",
    "flysfo:journey": "KCVG-SFO",
    "geom:area": 0,
    "geom:bbox": "-122.370943,37.617990,-84.657144,39.054422",
    "geom:latitude": 38.336206000000004,
    "geom:longitude": -103.5140435,
    "iata:airline": "UA",
    "icao:aircraft": "B738",
    "icao:airline": "UAL",
    "mz:is_current": -1,
    "sfomuseum:aircraft_id": 1159289871,
    "sfomuseum:airline_id": 1159285413,
    "sfomuseum:arrival_id": 102527513,
    "sfomuseum:departure_id": 102528187,
    "sfomuseum:flight_id": "20160724-A-UAL-2212",
    "sfomuseum:flight_number": [
      "UA2212", 
      "UAL2212"
    ],
    "sfomuseum:placetype": "flight",
    "src:geom": "sfonoise",
    "wof:belongsto": [
      1159157271, 
      102527513, 
      102087579, 
      1629260713, 
      102191575, 
      85688637, 
      85922583, 
      85633793
    ],
    "wof:country": "US",
    "wof:created": 1582927687,
    "wof:geomhash": "772e5110aaf1e095142ff9199bc6ebaa",
    "wof:hierarchy": [
      {
        "building_id": 1159157271,
        "campus_id": 102527513,
        "concourse_id": -1,
        "continent_id": 102191575,
        "country_id": 85633793,
        "county_id": 102087579,
        "event_id": 1629260713,
        "locality_id": 85922583,
        "neighbourhood_id": -1,
        "region_id": 85688637,
        "venue_id": -1,
        "wing_id": -1
      }
    ],
    "wof:id": 1629260713,
    "wof:lastmodified": 1582927687,
    "wof:name": "UAL2212 (KCVG-SFO)",
    "wof:parent_id": -1,
    "wof:placetype": "event",
    "wof:repo": "sfomuseum-data-flights-2016",
    "wof:superseded_by": [],
    "wof:supersedes": []
  },
  "bbox": [
    -122.370943, 
    37.61799, 
    -84.657144, 
    39.054422
  ],
  "geometry": {"coordinates":[[-84.657144,39.054422],[-122.370943,37.61799]],"type":"MultiPoint"}
}
