{
  "id": 1629351861,
  "type": "Feature",
  "properties": {
    "edtf:cessation": "2016-08-16~",
    "edtf:inception": "2016-08-16T13:06:31",
    "flysfo:airline": "WW",
    "flysfo:date": "2016-08-16",
    "flysfo:event": "D",
    "flysfo:flight_number": "WW162",
    "flysfo:journey": "SFO-BIKF",
    "geom:area": 0,
    "geom:bbox": "-122.370943,37.617990,-22.585315,63.983414",
    "geom:latitude": 50.800702,
    "geom:longitude": -72.478129,
    "iata:airline": "WW",
    "icao:aircraft": "A333",
    "icao:airline": "WOW",
    "mz:is_current": -1,
    "sfomuseum:aircraft_id": 1159289423,
    "sfomuseum:airline_id": 1360700747,
    "sfomuseum:arrival_id": 102553077,
    "sfomuseum:departure_id": 102527513,
    "sfomuseum:flight_id": "20160816-D-WOW-162",
    "sfomuseum:flight_number": [
      "WW162", 
      "WOW162"
    ],
    "sfomuseum:placetype": "flight",
    "src:geom": "sfonoise",
    "wof:belongsto": [
      102191575, 
      85633793, 
      102527513, 
      102087579, 
      1629351861, 
      85922583, 
      1159157271, 
      85688637
    ],
    "wof:country": "US",
    "wof:created": 1582928439,
    "wof:geomhash": "55e5e176133bf6b0c62f4ca281333724",
    "wof:hierarchy": [
      {
        "building_id": 1159157271,
        "campus_id": 102527513,
        "concourse_id": -1,
        "continent_id": 102191575,
        "country_id": 85633793,
        "county_id": 102087579,
        "event_id": 1629351861,
        "locality_id": 85922583,
        "neighbourhood_id": -1,
        "region_id": 85688637,
        "venue_id": -1,
        "wing_id": -1
      }
    ],
    "wof:id": 1629351861,
    "wof:lastmodified": 1582928439,
    "wof:name": "WOW162 (SFO-BIKF)",
    "wof:parent_id": -1,
    "wof:placetype": "event",
    "wof:repo": "sfomuseum-data-flights-2016",
    "wof:superseded_by": [],
    "wof:supersedes": []
  },
  "bbox": [
    -122.370943, 
    37.61799, 
    -22.585315, 
    63.983414
  ],
  "geometry": {"coordinates":[[-122.370943,37.61799],[-22.585315,63.983414]],"type":"MultiPoint"}
}
