{
  "id": 1679211677,
  "type": "Feature",
  "properties": {
    "edtf:cessation": "2016-11-24T11:58:21",
    "edtf:inception": "2016-11-24~",
    "flysfo:airline": "UA",
    "flysfo:date": "2016-11-24",
    "flysfo:event": "A",
    "flysfo:flight_number": "UA754",
    "flysfo:journey": "KIAH-SFO",
    "geom:area": 0,
    "geom:bbox": "-122.370943,29.977186,-95.338444,37.617990",
    "geom:latitude": 33.797588,
    "geom:longitude": -108.8546935,
    "iata:airline": "UA",
    "icao:aircraft": "A319",
    "icao:airline": "UAL",
    "mz:is_current": -1,
    "sfomuseum:aircraft_id": 1159289407,
    "sfomuseum:airline_id": 1159285413,
    "sfomuseum:arrival_id": 102527513,
    "sfomuseum:departure_id": 102534097,
    "sfomuseum:flight_id": "20161124-A-UAL-754",
    "sfomuseum:flight_number": [
      "UA754", 
      "UAL754"
    ],
    "sfomuseum:placetype": "flight",
    "src:geom": "sfonoise",
    "wof:belongsto": [
      1679211677, 
      102191575, 
      85633793, 
      85688637, 
      1159157271, 
      102527513, 
      85922583, 
      102087579
    ],
    "wof:country": "US",
    "wof:created": 1582933488,
    "wof:geomhash": "25dc9d98eae1cd54f40654c6c4fb6929",
    "wof:hierarchy": [
      {
        "building_id": 1159157271,
        "campus_id": 102527513,
        "concourse_id": -1,
        "continent_id": 102191575,
        "country_id": 85633793,
        "county_id": 102087579,
        "event_id": 1679211677,
        "locality_id": 85922583,
        "neighbourhood_id": -1,
        "region_id": 85688637,
        "venue_id": -1,
        "wing_id": -1
      }
    ],
    "wof:id": 1679211677,
    "wof:lastmodified": 1582933488,
    "wof:name": "UAL754 (KIAH-SFO)",
    "wof:parent_id": -1,
    "wof:placetype": "event",
    "wof:repo": "sfomuseum-data-flights-2016",
    "wof:superseded_by": [],
    "wof:supersedes": []
  },
  "bbox": [
    -122.370943, 
    29.977186, 
    -95.338444, 
    37.61799
  ],
  "geometry": {"coordinates":[[-95.338444,29.977186],[-122.370943,37.61799]],"type":"MultiPoint"}
}
