{
  "id": 1679265217,
  "type": "Feature",
  "properties": {
    "edtf:cessation": "2016-12-11~",
    "edtf:inception": "2016-12-11T08:06:06",
    "flysfo:airline": "VX",
    "flysfo:date": "2016-12-11",
    "flysfo:event": "D",
    "flysfo:flight_number": "VX051",
    "flysfo:journey": "SFO-PHNL",
    "geom:area": 0,
    "geom:bbox": "-157.918416,21.332508,-122.370943,37.617990",
    "geom:latitude": 29.475248999999998,
    "geom:longitude": -140.1446795,
    "iata:airline": "VX",
    "icao:aircraft": "A320",
    "icao:airline": "VRD",
    "mz:is_current": -1,
    "sfomuseum:aircraft_id": 1159292085,
    "sfomuseum:airline_id": 1159285481,
    "sfomuseum:arrival_id": 102533997,
    "sfomuseum:departure_id": 102527513,
    "sfomuseum:flight_id": "20161211-D-VRD-051",
    "sfomuseum:flight_number": [
      "VX051", 
      "VRD051"
    ],
    "sfomuseum:placetype": "flight",
    "src:geom": "sfonoise",
    "wof:belongsto": [
      1159157271, 
      102527513, 
      102191575, 
      85633793, 
      85922583, 
      85688637, 
      102087579, 
      1679265217
    ],
    "wof:country": "US",
    "wof:created": 1582934003,
    "wof:geomhash": "ff961493fc59fc665836e174da62aa8e",
    "wof:hierarchy": [
      {
        "building_id": 1159157271,
        "campus_id": 102527513,
        "concourse_id": -1,
        "continent_id": 102191575,
        "country_id": 85633793,
        "county_id": 102087579,
        "event_id": 1679265217,
        "locality_id": 85922583,
        "neighbourhood_id": -1,
        "region_id": 85688637,
        "venue_id": -1,
        "wing_id": -1
      }
    ],
    "wof:id": 1679265217,
    "wof:lastmodified": 1582934003,
    "wof:name": "VRD051 (SFO-PHNL)",
    "wof:parent_id": -1,
    "wof:placetype": "event",
    "wof:repo": "sfomuseum-data-flights-2016",
    "wof:superseded_by": [],
    "wof:supersedes": []
  },
  "bbox": [
    -157.918416, 
    21.332508, 
    -122.370943, 
    37.61799
  ],
  "geometry": {"coordinates":[[-122.370943,37.61799],[-157.918416,21.332508]],"type":"MultiPoint"}
}
