{
  "id": 1662326229,
  "type": "Feature",
  "properties": {
    "edtf:cessation": "2016-06-17T19:46:23",
    "edtf:inception": "2016-06-17~",
    "flysfo:airline": "WW",
    "flysfo:date": "2016-06-17",
    "flysfo:event": "A",
    "flysfo:flight_number": "WW162P",
    "flysfo:journey": "LPPT-SFO",
    "geom:area": 0,
    "geom:bbox": "-122.370943,37.617990,-9.135591,38.772844",
    "geom:latitude": 38.195417,
    "geom:longitude": -65.753267,
    "iata:airline": "WW",
    "icao:aircraft": "A343",
    "icao:airline": "WOW",
    "mz:is_current": -1,
    "sfomuseum:aircraft_id": 1159289429,
    "sfomuseum:airline_id": 1360700747,
    "sfomuseum:arrival_id": 102527513,
    "sfomuseum:departure_id": 102535643,
    "sfomuseum:flight_id": "20160617-A-WOW-162P",
    "sfomuseum:flight_number": [
      "WW162P", 
      "WOW162P"
    ],
    "sfomuseum:placetype": "flight",
    "src:geom": "sfonoise",
    "wof:belongsto": [
      1159396321, 
      102527513, 
      85922583, 
      102191575, 
      102087579, 
      1662326229, 
      85633793, 
      85688637
    ],
    "wof:country": "US",
    "wof:created": 1582926573,
    "wof:geomhash": "d927879de9f350bec45f63af3f2c3973",
    "wof:hierarchy": [
      {
        "building_id": 1159396321,
        "campus_id": 102527513,
        "concourse_id": -1,
        "continent_id": 102191575,
        "country_id": 85633793,
        "county_id": 102087579,
        "event_id": 1662326229,
        "locality_id": 85922583,
        "neighbourhood_id": -1,
        "region_id": 85688637,
        "venue_id": -1,
        "wing_id": -1
      }
    ],
    "wof:id": 1662326229,
    "wof:lastmodified": 1582926573,
    "wof:name": "WOW162P (LPPT-SFO)",
    "wof:parent_id": -1,
    "wof:placetype": "event",
    "wof:repo": "sfomuseum-data-flights-2016",
    "wof:superseded_by": [],
    "wof:supersedes": []
  },
  "bbox": [
    -122.370943, 
    37.61799, 
    -9.135591, 
    38.772844
  ],
  "geometry": {"coordinates":[[-9.135591,38.772844],[-122.370943,37.61799]],"type":"MultiPoint"}
}
