{
  "id": 1629262587,
  "type": "Feature",
  "properties": {
    "edtf:cessation": "2016-07-25~",
    "edtf:inception": "2016-07-25T10:19:12",
    "flysfo:airline": "UA",
    "flysfo:date": "2016-07-25",
    "flysfo:event": "D",
    "flysfo:flight_number": "UA895A",
    "flysfo:journey": "SFO-VHHH",
    "geom:area": 0,
    "geom:bbox": "-122.370943,22.307471,113.927436,37.617990",
    "geom:latitude": 29.9627305,
    "geom:longitude": -4.221753499999998,
    "iata:airline": "UA",
    "icao:aircraft": "B772",
    "icao:airline": "UAL",
    "mz:is_current": -1,
    "sfomuseum:aircraft_id": 1159289985,
    "sfomuseum:airline_id": 1159285413,
    "sfomuseum:arrival_id": 102541737,
    "sfomuseum:departure_id": 102527513,
    "sfomuseum:flight_id": "20160725-D-UAL-895A",
    "sfomuseum:flight_number": [
      "UA895A", 
      "UAL895A"
    ],
    "sfomuseum:placetype": "flight",
    "src:geom": "sfonoise",
    "wof:belongsto": [
      1159157271, 
      85922583, 
      85633793, 
      1629262587, 
      85688637, 
      102191575, 
      102087579, 
      102527513
    ],
    "wof:country": "US",
    "wof:created": 1582927700,
    "wof:geomhash": "b8fc8d95bb44b1c6b9f6cb201e4d2ca9",
    "wof:hierarchy": [
      {
        "building_id": 1159157271,
        "campus_id": 102527513,
        "concourse_id": -1,
        "continent_id": 102191575,
        "country_id": 85633793,
        "county_id": 102087579,
        "event_id": 1629262587,
        "locality_id": 85922583,
        "neighbourhood_id": -1,
        "region_id": 85688637,
        "venue_id": -1,
        "wing_id": -1
      }
    ],
    "wof:id": 1629262587,
    "wof:lastmodified": 1582927700,
    "wof:name": "UAL895A (SFO-VHHH)",
    "wof:parent_id": -1,
    "wof:placetype": "event",
    "wof:repo": "sfomuseum-data-flights-2016",
    "wof:superseded_by": [],
    "wof:supersedes": []
  },
  "bbox": [
    -122.370943, 
    22.307471, 
    113.927436, 
    37.61799
  ],
  "geometry": {"coordinates":[[-122.370943,37.61799],[113.927436,22.307471]],"type":"MultiPoint"}
}
