{
  "id": 1662288189,
  "type": "Feature",
  "properties": {
    "edtf:cessation": "2016-05-28T16:05:10",
    "edtf:inception": "2016-05-28~",
    "flysfo:airline": "UA",
    "flysfo:date": "2016-05-28",
    "flysfo:event": "A",
    "flysfo:flight_number": "UA783",
    "flysfo:journey": "BOS-SFO",
    "geom:area": 0,
    "geom:bbox": "-122.370943,37.617990,-71.014750,42.362322",
    "geom:latitude": 39.990156,
    "geom:longitude": -96.6928465,
    "iata:airline": "UA",
    "icao:aircraft": "B739",
    "icao:airline": "UAL",
    "mz:is_current": -1,
    "sfomuseum:aircraft_id": 1377564285,
    "sfomuseum:airline_id": 1159285413,
    "sfomuseum:arrival_id": 102527513,
    "sfomuseum:departure_id": 102530741,
    "sfomuseum:flight_id": "20160528-A-UAL-783",
    "sfomuseum:flight_number": [
      "UA783", 
      "UAL783"
    ],
    "sfomuseum:placetype": "flight",
    "src:geom": "sfonoise",
    "wof:belongsto": [
      1662288189, 
      102191575, 
      85633793, 
      102527513, 
      85922583, 
      85688637, 
      1159396321, 
      102087579
    ],
    "wof:country": "US",
    "wof:created": 1582925905,
    "wof:geomhash": "9cccd37636918a32bc446a92e7ba93ba",
    "wof:hierarchy": [
      {
        "building_id": 1159396321,
        "campus_id": 102527513,
        "concourse_id": -1,
        "continent_id": 102191575,
        "country_id": 85633793,
        "county_id": 102087579,
        "event_id": 1662288189,
        "locality_id": 85922583,
        "neighbourhood_id": -1,
        "region_id": 85688637,
        "venue_id": -1,
        "wing_id": -1
      }
    ],
    "wof:id": 1662288189,
    "wof:lastmodified": 1582925905,
    "wof:name": "UAL783 (BOS-SFO)",
    "wof:parent_id": -1,
    "wof:placetype": "event",
    "wof:repo": "sfomuseum-data-flights-2016",
    "wof:superseded_by": [],
    "wof:supersedes": []
  },
  "bbox": [
    -122.370943, 
    37.61799, 
    -71.01475, 
    42.362322
  ],
  "geometry": {"coordinates":[[-71.01475,42.362322],[-122.370943,37.61799]],"type":"MultiPoint"}
}
