{
  "id": 1662212939,
  "type": "Feature",
  "properties": {
    "edtf:cessation": "2016-04-16~",
    "edtf:inception": "2016-04-16T17:51:17",
    "flysfo:airline": "VS",
    "flysfo:date": "2016-04-16",
    "flysfo:event": "D",
    "flysfo:flight_number": "VS20V",
    "flysfo:journey": "SFO-KDAL",
    "geom:area": 0,
    "geom:bbox": "-122.370943,32.845849,-96.850523,37.617990",
    "geom:latitude": 35.231919500000004,
    "geom:longitude": -109.610733,
    "iata:airline": "VS",
    "icao:aircraft": "A346",
    "icao:airline": "VIR",
    "mz:is_current": -1,
    "sfomuseum:aircraft_id": 1159289431,
    "sfomuseum:airline_id": 1159285483,
    "sfomuseum:arrival_id": 102525799,
    "sfomuseum:departure_id": 102527513,
    "sfomuseum:flight_id": "20160416-D-VIR-20V",
    "sfomuseum:flight_number": [
      "VS20V", 
      "VIR20V"
    ],
    "sfomuseum:placetype": "flight",
    "src:geom": "sfonoise",
    "wof:belongsto": [
      1662212939, 
      102191575, 
      102087579, 
      1159396321, 
      85633793, 
      85688637, 
      102527513, 
      85922583
    ],
    "wof:country": "US",
    "wof:created": 1582924523,
    "wof:geomhash": "a08c5b1a6c329f228ec453404f254a51",
    "wof:hierarchy": [
      {
        "building_id": 1159396321,
        "campus_id": 102527513,
        "concourse_id": -1,
        "continent_id": 102191575,
        "country_id": 85633793,
        "county_id": 102087579,
        "event_id": 1662212939,
        "locality_id": 85922583,
        "neighbourhood_id": -1,
        "region_id": 85688637,
        "venue_id": -1,
        "wing_id": -1
      }
    ],
    "wof:id": 1662212939,
    "wof:lastmodified": 1582924523,
    "wof:name": "VIR20V (SFO-KDAL)",
    "wof:parent_id": -1,
    "wof:placetype": "event",
    "wof:repo": "sfomuseum-data-flights-2016",
    "wof:superseded_by": [],
    "wof:supersedes": []
  },
  "bbox": [
    -122.370943, 
    32.845849, 
    -96.850523, 
    37.61799
  ],
  "geometry": {"coordinates":[[-122.370943,37.61799],[-96.850523,32.845849]],"type":"MultiPoint"}
}
