{
  "id": 1662115647,
  "type": "Feature",
  "properties": {
    "edtf:cessation": "2016-02-17~",
    "edtf:inception": "2016-02-17T11:45:20",
    "flysfo:airline": "UA",
    "flysfo:date": "2016-02-17",
    "flysfo:event": "D",
    "flysfo:flight_number": "UA2006",
    "flysfo:journey": "SFO-PSP",
    "geom:area": 0,
    "geom:bbox": "-122.370943,33.824619,-116.506042,37.617990",
    "geom:latitude": 35.7213045,
    "geom:longitude": -119.4384925,
    "iata:airline": "UA",
    "icao:aircraft": "B738",
    "icao:airline": "UAL",
    "mz:is_current": -1,
    "sfomuseum:aircraft_id": 1159289871,
    "sfomuseum:airline_id": 1159285413,
    "sfomuseum:arrival_id": 102533591,
    "sfomuseum:departure_id": 102527513,
    "sfomuseum:flight_id": "20160217-D-UAL-2006",
    "sfomuseum:flight_number": [
      "UA2006", 
      "UAL2006"
    ],
    "sfomuseum:placetype": "flight",
    "src:geom": "sfonoise",
    "wof:belongsto": [
      1159396321, 
      102191575, 
      85922583, 
      85688637, 
      102527513, 
      102087579, 
      1662115647, 
      85633793
    ],
    "wof:country": "US",
    "wof:created": 1582922927,
    "wof:geomhash": "e84c3ec216fbaf9440bbf99d412a1253",
    "wof:hierarchy": [
      {
        "building_id": 1159396321,
        "campus_id": 102527513,
        "concourse_id": -1,
        "continent_id": 102191575,
        "country_id": 85633793,
        "county_id": 102087579,
        "event_id": 1662115647,
        "locality_id": 85922583,
        "neighbourhood_id": -1,
        "region_id": 85688637,
        "venue_id": -1,
        "wing_id": -1
      }
    ],
    "wof:id": 1662115647,
    "wof:lastmodified": 1582922927,
    "wof:name": "UAL2006 (SFO-PSP)",
    "wof:parent_id": -1,
    "wof:placetype": "event",
    "wof:repo": "sfomuseum-data-flights-2016",
    "wof:superseded_by": [],
    "wof:supersedes": []
  },
  "bbox": [
    -122.370943, 
    33.824619, 
    -116.506042, 
    37.61799
  ],
  "geometry": {"coordinates":[[-122.370943,37.61799],[-116.506042,33.824619]],"type":"MultiPoint"}
}
