{
  "id": 1662285829,
  "type": "Feature",
  "properties": {
    "edtf:cessation": "2016-05-27T10:48:38",
    "edtf:inception": "2016-05-27~",
    "flysfo:airline": "UA",
    "flysfo:date": "2016-05-27",
    "flysfo:event": "A",
    "flysfo:flight_number": "UA761",
    "flysfo:journey": "ORD-SFO",
    "geom:area": 0,
    "geom:bbox": "-122.370943,37.617990,-87.894364,41.983038",
    "geom:latitude": 39.800514,
    "geom:longitude": -105.1326535,
    "iata:airline": "UA",
    "icao:aircraft": "B738",
    "icao:airline": "UAL",
    "mz:is_current": -1,
    "sfomuseum:aircraft_id": 1159289871,
    "sfomuseum:airline_id": 1159285413,
    "sfomuseum:arrival_id": 102527513,
    "sfomuseum:departure_id": 102533631,
    "sfomuseum:flight_id": "20160527-A-UAL-761",
    "sfomuseum:flight_number": [
      "UA761", 
      "UAL761"
    ],
    "sfomuseum:placetype": "flight",
    "src:geom": "sfonoise",
    "wof:belongsto": [
      85922583, 
      102527513, 
      85633793, 
      102191575, 
      1662285829, 
      1159396321, 
      102087579, 
      85688637
    ],
    "wof:country": "US",
    "wof:created": 1582925871,
    "wof:geomhash": "81d390dcf2582f737869c573200abb8f",
    "wof:hierarchy": [
      {
        "building_id": 1159396321,
        "campus_id": 102527513,
        "concourse_id": -1,
        "continent_id": 102191575,
        "country_id": 85633793,
        "county_id": 102087579,
        "event_id": 1662285829,
        "locality_id": 85922583,
        "neighbourhood_id": -1,
        "region_id": 85688637,
        "venue_id": -1,
        "wing_id": -1
      }
    ],
    "wof:id": 1662285829,
    "wof:lastmodified": 1582925871,
    "wof:name": "UAL761 (ORD-SFO)",
    "wof:parent_id": -1,
    "wof:placetype": "event",
    "wof:repo": "sfomuseum-data-flights-2016",
    "wof:superseded_by": [],
    "wof:supersedes": []
  },
  "bbox": [
    -122.370943, 
    37.61799, 
    -87.894364, 
    41.983038
  ],
  "geometry": {"coordinates":[[-87.894364,41.983038],[-122.370943,37.61799]],"type":"MultiPoint"}
}
