{
  "id": 1678951663,
  "type": "Feature",
  "properties": {
    "edtf:cessation": "2016-09-19T05:08:49",
    "edtf:inception": "2016-09-19~",
    "flysfo:airline": "UA",
    "flysfo:date": "2016-09-19",
    "flysfo:event": "A",
    "flysfo:flight_number": "UA1",
    "flysfo:journey": "KSFO-SFO",
    "geom:area": 0,
    "geom:bbox": "-122.370943,37.617990,-122.370943,37.617990",
    "geom:latitude": 37.61799,
    "geom:longitude": -122.370943,
    "iata:airline": "UA",
    "icao:aircraft": "B789",
    "icao:airline": "UAL",
    "mz:is_current": -1,
    "sfomuseum:aircraft_id": 1159293215,
    "sfomuseum:airline_id": 1159285413,
    "sfomuseum:arrival_id": 102527513,
    "sfomuseum:departure_id": 102527513,
    "sfomuseum:flight_id": "20160919-A-UAL-1",
    "sfomuseum:flight_number": [
      "UA1", 
      "UAL1"
    ],
    "sfomuseum:placetype": "flight",
    "src:geom": "sfonoise",
    "wof:belongsto": [
      102191575, 
      102087579, 
      1678951663, 
      1159157271, 
      85688637, 
      85633793, 
      85922583, 
      102527513
    ],
    "wof:country": "US",
    "wof:created": 1582930604,
    "wof:geomhash": "f780d59ec1f4d1acb53d14db45159ea5",
    "wof:hierarchy": [
      {
        "building_id": 1159157271,
        "campus_id": 102527513,
        "concourse_id": -1,
        "continent_id": 102191575,
        "country_id": 85633793,
        "county_id": 102087579,
        "event_id": 1678951663,
        "locality_id": 85922583,
        "neighbourhood_id": -1,
        "region_id": 85688637,
        "venue_id": -1,
        "wing_id": -1
      }
    ],
    "wof:id": 1678951663,
    "wof:lastmodified": 1582930604,
    "wof:name": "UAL1 (KSFO-SFO)",
    "wof:parent_id": -1,
    "wof:placetype": "event",
    "wof:repo": "sfomuseum-data-flights-2016",
    "wof:superseded_by": [],
    "wof:supersedes": []
  },
  "bbox": [
    -122.370943, 
    37.61799, 
    -122.370943, 
    37.61799
  ],
  "geometry": {"coordinates":[[-122.370943,37.61799],[-122.370943,37.61799]],"type":"MultiPoint"}
}
