{
  "id": 1662145805,
  "type": "Feature",
  "properties": {
    "edtf:cessation": "2016-03-08~",
    "edtf:inception": "2016-03-08T11:10:52",
    "flysfo:airline": "UA",
    "flysfo:date": "2016-03-08",
    "flysfo:event": "D",
    "flysfo:flight_number": "UA834",
    "flysfo:journey": "SFO-SAT",
    "geom:area": 0,
    "geom:bbox": "-122.370943,29.534838,-98.472784,37.617990",
    "geom:latitude": 33.576414,
    "geom:longitude": -110.4218635,
    "iata:airline": "UA",
    "icao:aircraft": "A320",
    "icao:airline": "UAL",
    "mz:is_current": -1,
    "sfomuseum:aircraft_id": 1159292085,
    "sfomuseum:airline_id": 1159285413,
    "sfomuseum:arrival_id": 102527373,
    "sfomuseum:departure_id": 102527513,
    "sfomuseum:flight_id": "20160308-D-UAL-834",
    "sfomuseum:flight_number": [
      "UA834", 
      "UAL834"
    ],
    "sfomuseum:placetype": "flight",
    "src:geom": "sfonoise",
    "wof:belongsto": [
      85688637, 
      85633793, 
      102087579, 
      1662145805, 
      85922583, 
      1159396321, 
      102527513, 
      102191575
    ],
    "wof:country": "US",
    "wof:created": 1582923500,
    "wof:geomhash": "3d1812cb234aac8b643ea0201167e576",
    "wof:hierarchy": [
      {
        "building_id": 1159396321,
        "campus_id": 102527513,
        "concourse_id": -1,
        "continent_id": 102191575,
        "country_id": 85633793,
        "county_id": 102087579,
        "event_id": 1662145805,
        "locality_id": 85922583,
        "neighbourhood_id": -1,
        "region_id": 85688637,
        "venue_id": -1,
        "wing_id": -1
      }
    ],
    "wof:id": 1662145805,
    "wof:lastmodified": 1582923500,
    "wof:name": "UAL834 (SFO-SAT)",
    "wof:parent_id": -1,
    "wof:placetype": "event",
    "wof:repo": "sfomuseum-data-flights-2016",
    "wof:superseded_by": [],
    "wof:supersedes": []
  },
  "bbox": [
    -122.370943, 
    29.534838, 
    -98.472784, 
    37.61799
  ],
  "geometry": {"coordinates":[[-122.370943,37.61799],[-98.472784,29.534838]],"type":"MultiPoint"}
}
