{
  "id": 1662137803,
  "type": "Feature",
  "properties": {
    "edtf:cessation": "2016-03-03~",
    "edtf:inception": "2016-03-03T08:53:17",
    "flysfo:airline": "UA",
    "flysfo:date": "2016-03-03",
    "flysfo:event": "D",
    "flysfo:flight_number": "UA2294",
    "flysfo:journey": "SFO-KAEX",
    "geom:area": 0,
    "geom:bbox": "-122.370943,31.323891,-92.531954,37.617990",
    "geom:latitude": 34.4709405,
    "geom:longitude": -107.4514485,
    "iata:airline": "UA",
    "icao:aircraft": "B744",
    "icao:airline": "UAL",
    "mz:is_current": -1,
    "sfomuseum:aircraft_id": 1159289915,
    "sfomuseum:airline_id": 1159285413,
    "sfomuseum:arrival_id": 102524745,
    "sfomuseum:departure_id": 102527513,
    "sfomuseum:flight_id": "20160303-D-UAL-2294",
    "sfomuseum:flight_number": [
      "UA2294", 
      "UAL2294"
    ],
    "sfomuseum:placetype": "flight",
    "src:geom": "sfonoise",
    "wof:belongsto": [
      102191575, 
      85688637, 
      1159396321, 
      85633793, 
      102087579, 
      85922583, 
      102527513, 
      1662137803
    ],
    "wof:country": "US",
    "wof:created": 1582923357,
    "wof:geomhash": "2485c4a9235e43e0be0040f1282ffd1a",
    "wof:hierarchy": [
      {
        "building_id": 1159396321,
        "campus_id": 102527513,
        "concourse_id": -1,
        "continent_id": 102191575,
        "country_id": 85633793,
        "county_id": 102087579,
        "event_id": 1662137803,
        "locality_id": 85922583,
        "neighbourhood_id": -1,
        "region_id": 85688637,
        "venue_id": -1,
        "wing_id": -1
      }
    ],
    "wof:id": 1662137803,
    "wof:lastmodified": 1582923357,
    "wof:name": "UAL2294 (SFO-KAEX)",
    "wof:parent_id": -1,
    "wof:placetype": "event",
    "wof:repo": "sfomuseum-data-flights-2016",
    "wof:superseded_by": [],
    "wof:supersedes": []
  },
  "bbox": [
    -122.370943, 
    31.323891, 
    -92.531954, 
    37.61799
  ],
  "geometry": {"coordinates":[[-122.370943,37.61799],[-92.531954,31.323891]],"type":"MultiPoint"}
}
