{
  "id": 1662313979,
  "type": "Feature",
  "properties": {
    "edtf:cessation": "2016-06-11T15:36:49",
    "edtf:inception": "2016-06-11~",
    "flysfo:airline": "EI",
    "flysfo:date": "2016-06-11",
    "flysfo:event": "A",
    "flysfo:flight_number": "EI147",
    "flysfo:journey": "EIDW-SFO",
    "geom:area": 0,
    "geom:bbox": "-122.370943,37.617990,-6.246362,53.425842",
    "geom:latitude": 45.521916000000004,
    "geom:longitude": -64.3086525,
    "iata:airline": "EI",
    "icao:aircraft": "A332",
    "icao:airline": "EIN",
    "mz:is_current": -1,
    "sfomuseum:aircraft_id": 1159289421,
    "sfomuseum:airline_id": 1159283495,
    "sfomuseum:arrival_id": 102527513,
    "sfomuseum:departure_id": 102547639,
    "sfomuseum:flight_id": "20160611-A-EIN-147",
    "sfomuseum:flight_number": [
      "EI147", 
      "EIN147"
    ],
    "sfomuseum:placetype": "flight",
    "src:geom": "sfonoise",
    "wof:belongsto": [
      102087579, 
      102527513, 
      85688637, 
      85633793, 
      102191575, 
      1662313979, 
      85922583, 
      1159396321
    ],
    "wof:country": "US",
    "wof:created": 1582926366,
    "wof:geomhash": "aecdd4fa1f8944d2eefd3273b1547edd",
    "wof:hierarchy": [
      {
        "building_id": 1159396321,
        "campus_id": 102527513,
        "concourse_id": -1,
        "continent_id": 102191575,
        "country_id": 85633793,
        "county_id": 102087579,
        "event_id": 1662313979,
        "locality_id": 85922583,
        "neighbourhood_id": -1,
        "region_id": 85688637,
        "venue_id": -1,
        "wing_id": -1
      }
    ],
    "wof:id": 1662313979,
    "wof:lastmodified": 1582926366,
    "wof:name": "EIN147 (EIDW-SFO)",
    "wof:parent_id": -1,
    "wof:placetype": "event",
    "wof:repo": "sfomuseum-data-flights-2016",
    "wof:superseded_by": [],
    "wof:supersedes": []
  },
  "bbox": [
    -122.370943, 
    37.61799, 
    -6.246362, 
    53.425842
  ],
  "geometry": {"coordinates":[[-6.246362,53.425842],[-122.370943,37.61799]],"type":"MultiPoint"}
}
