{
  "id": 1662320939,
  "type": "Feature",
  "properties": {
    "edtf:cessation": "2016-06-15T09:03:30",
    "edtf:inception": "2016-06-15~",
    "flysfo:airline": "UA",
    "flysfo:date": "2016-06-15",
    "flysfo:event": "A",
    "flysfo:flight_number": "UA1483",
    "flysfo:journey": "KEWR-SFO",
    "geom:area": 0,
    "geom:bbox": "-122.370943,37.617990,-74.177526,40.691243",
    "geom:latitude": 39.1546165,
    "geom:longitude": -98.2742345,
    "iata:airline": "UA",
    "icao:aircraft": "B752",
    "icao:airline": "UAL",
    "mz:is_current": -1,
    "sfomuseum:aircraft_id": 1159289939,
    "sfomuseum:airline_id": 1159285413,
    "sfomuseum:arrival_id": 102527513,
    "sfomuseum:departure_id": 102530049,
    "sfomuseum:flight_id": "20160615-A-UAL-1483",
    "sfomuseum:flight_number": [
      "UA1483", 
      "UAL1483"
    ],
    "sfomuseum:placetype": "flight",
    "src:geom": "sfonoise",
    "wof:belongsto": [
      85633793, 
      102527513, 
      102087579, 
      85922583, 
      1662320939, 
      85688637, 
      1159396321, 
      102191575
    ],
    "wof:country": "US",
    "wof:created": 1582926456,
    "wof:geomhash": "5afbf99c4360a00cfc0890f48cccf304",
    "wof:hierarchy": [
      {
        "building_id": 1159396321,
        "campus_id": 102527513,
        "concourse_id": -1,
        "continent_id": 102191575,
        "country_id": 85633793,
        "county_id": 102087579,
        "event_id": 1662320939,
        "locality_id": 85922583,
        "neighbourhood_id": -1,
        "region_id": 85688637,
        "venue_id": -1,
        "wing_id": -1
      }
    ],
    "wof:id": 1662320939,
    "wof:lastmodified": 1582926456,
    "wof:name": "UAL1483 (KEWR-SFO)",
    "wof:parent_id": -1,
    "wof:placetype": "event",
    "wof:repo": "sfomuseum-data-flights-2016",
    "wof:superseded_by": [],
    "wof:supersedes": []
  },
  "bbox": [
    -122.370943, 
    37.61799, 
    -74.177526, 
    40.691243
  ],
  "geometry": {"coordinates":[[-74.177526,40.691243],[-122.370943,37.61799]],"type":"MultiPoint"}
}
