{
  "id": 1678864699,
  "type": "Feature",
  "properties": {
    "edtf:cessation": "2016-09-01T18:50:41",
    "edtf:inception": "2016-09-01~",
    "flysfo:airline": "UA",
    "flysfo:date": "2016-09-01",
    "flysfo:event": "A",
    "flysfo:flight_number": "UA2207",
    "flysfo:journey": "KMHK-SFO",
    "geom:area": 0,
    "geom:bbox": "-122.370943,37.617990,-96.670799,39.140999",
    "geom:latitude": 38.3794945,
    "geom:longitude": -109.520871,
    "iata:airline": "UA",
    "icao:aircraft": "B739",
    "icao:airline": "UAL",
    "mz:is_current": -1,
    "sfomuseum:aircraft_id": 1377564285,
    "sfomuseum:airline_id": 1159285413,
    "sfomuseum:arrival_id": 102527513,
    "sfomuseum:departure_id": 102533817,
    "sfomuseum:flight_id": "20160901-A-UAL-2207",
    "sfomuseum:flight_number": [
      "UA2207", 
      "UAL2207"
    ],
    "sfomuseum:placetype": "flight",
    "src:geom": "sfonoise",
    "wof:belongsto": [
      102527513, 
      85922583, 
      85688637, 
      1678864699, 
      1159157271, 
      102087579, 
      102191575, 
      85633793
    ],
    "wof:country": "US",
    "wof:created": 1582929437,
    "wof:geomhash": "53b9501583ecd5da1b6dfe2c1844f433",
    "wof:hierarchy": [
      {
        "building_id": 1159157271,
        "campus_id": 102527513,
        "concourse_id": -1,
        "continent_id": 102191575,
        "country_id": 85633793,
        "county_id": 102087579,
        "event_id": 1678864699,
        "locality_id": 85922583,
        "neighbourhood_id": -1,
        "region_id": 85688637,
        "venue_id": -1,
        "wing_id": -1
      }
    ],
    "wof:id": 1678864699,
    "wof:lastmodified": 1582929437,
    "wof:name": "UAL2207 (KMHK-SFO)",
    "wof:parent_id": -1,
    "wof:placetype": "event",
    "wof:repo": "sfomuseum-data-flights-2016",
    "wof:superseded_by": [],
    "wof:supersedes": []
  },
  "bbox": [
    -122.370943, 
    37.61799, 
    -96.670799, 
    39.140999
  ],
  "geometry": {"coordinates":[[-96.670799,39.140999],[-122.370943,37.61799]],"type":"MultiPoint"}
}
