{
  "id": 1662179109,
  "type": "Feature",
  "properties": {
    "edtf:cessation": "2016-03-28~",
    "edtf:inception": "2016-03-28T04:13:24",
    "flysfo:airline": "UA",
    "flysfo:date": "2016-03-28",
    "flysfo:event": "D",
    "flysfo:flight_number": "UA2245",
    "flysfo:journey": "SFO-KBNA",
    "geom:area": 0,
    "geom:bbox": "-122.370943,36.126387,-86.676652,37.617990",
    "geom:latitude": 36.8721885,
    "geom:longitude": -104.5237975,
    "iata:airline": "UA",
    "icao:aircraft": "B744",
    "icao:airline": "UAL",
    "mz:is_current": -1,
    "sfomuseum:aircraft_id": 1159289915,
    "sfomuseum:airline_id": 1159285413,
    "sfomuseum:arrival_id": 102525035,
    "sfomuseum:departure_id": 102527513,
    "sfomuseum:flight_id": "20160328-D-UAL-2245",
    "sfomuseum:flight_number": [
      "UA2245", 
      "UAL2245"
    ],
    "sfomuseum:placetype": "flight",
    "src:geom": "sfonoise",
    "wof:belongsto": [
      85633793, 
      102087579, 
      85688637, 
      102191575, 
      102527513, 
      1159396321, 
      85922583, 
      1662179109
    ],
    "wof:country": "US",
    "wof:created": 1582923896,
    "wof:geomhash": "36f645f844d4838b633d7fed3f06d4a5",
    "wof:hierarchy": [
      {
        "building_id": 1159396321,
        "campus_id": 102527513,
        "concourse_id": -1,
        "continent_id": 102191575,
        "country_id": 85633793,
        "county_id": 102087579,
        "event_id": 1662179109,
        "locality_id": 85922583,
        "neighbourhood_id": -1,
        "region_id": 85688637,
        "venue_id": -1,
        "wing_id": -1
      }
    ],
    "wof:id": 1662179109,
    "wof:lastmodified": 1582923896,
    "wof:name": "UAL2245 (SFO-KBNA)",
    "wof:parent_id": -1,
    "wof:placetype": "event",
    "wof:repo": "sfomuseum-data-flights-2016",
    "wof:superseded_by": [],
    "wof:supersedes": []
  },
  "bbox": [
    -122.370943, 
    36.126387, 
    -86.676652, 
    37.61799
  ],
  "geometry": {"coordinates":[[-122.370943,37.61799],[-86.676652,36.126387]],"type":"MultiPoint"}
}
