{
  "id": 1662330301,
  "type": "Feature",
  "properties": {
    "edtf:cessation": "2016-06-20~",
    "edtf:inception": "2016-06-20T00:25:46",
    "flysfo:airline": "FJ",
    "flysfo:date": "2016-06-20",
    "flysfo:event": "D",
    "flysfo:flight_number": "FJ871",
    "flysfo:journey": "SFO-NFFN",
    "geom:area": 0,
    "geom:bbox": "-122.370943,-17.806865,177.376360,37.617990",
    "geom:latitude": 9.9055625,
    "geom:longitude": 27.502708500000004,
    "iata:airline": "FJ",
    "icao:aircraft": "A332",
    "icao:airline": "FJI",
    "mz:is_current": -1,
    "sfomuseum:aircraft_id": 1159289421,
    "sfomuseum:airline_id": 1159283717,
    "sfomuseum:arrival_id": 102555575,
    "sfomuseum:departure_id": 102527513,
    "sfomuseum:flight_id": "20160620-D-FJI-871",
    "sfomuseum:flight_number": [
      "FJ871", 
      "FJI871"
    ],
    "sfomuseum:placetype": "flight",
    "src:geom": "sfonoise",
    "wof:belongsto": [
      85922583, 
      102191575, 
      1159396321, 
      85633793, 
      1662330301, 
      85688637, 
      102527513, 
      102087579
    ],
    "wof:country": "US",
    "wof:created": 1582926642,
    "wof:geomhash": "ac04d12b9bb720d89a4c8027fbef35a5",
    "wof:hierarchy": [
      {
        "building_id": 1159396321,
        "campus_id": 102527513,
        "concourse_id": -1,
        "continent_id": 102191575,
        "country_id": 85633793,
        "county_id": 102087579,
        "event_id": 1662330301,
        "locality_id": 85922583,
        "neighbourhood_id": -1,
        "region_id": 85688637,
        "venue_id": -1,
        "wing_id": -1
      }
    ],
    "wof:id": 1662330301,
    "wof:lastmodified": 1582926642,
    "wof:name": "FJI871 (SFO-NFFN)",
    "wof:parent_id": -1,
    "wof:placetype": "event",
    "wof:repo": "sfomuseum-data-flights-2016",
    "wof:superseded_by": [],
    "wof:supersedes": []
  },
  "bbox": [
    -122.370943, 
    -17.806865, 
    177.37636, 
    37.61799
  ],
  "geometry": {"coordinates":[[-122.370943,37.61799],[177.37636,-17.806865]],"type":"MultiPoint"}
}
