{
  "id": 1628929939,
  "type": "Feature",
  "properties": {
    "edtf:cessation": "2016-05-02~",
    "edtf:inception": "2016-05-02T07:04:44",
    "flysfo:airline": "AA",
    "flysfo:date": "2016-05-02",
    "flysfo:event": "D",
    "flysfo:flight_number": "AA559",
    "flysfo:journey": "SFO-CLT",
    "geom:area": 0,
    "geom:bbox": "-122.370943,35.220744,-80.942777,37.617990",
    "geom:latitude": 36.419367,
    "geom:longitude": -101.65686,
    "iata:airline": "AA",
    "icao:aircraft": "A321",
    "icao:airline": "AAL",
    "mz:is_current": -1,
    "sfomuseum:aircraft_id": 1159289411,
    "sfomuseum:airline_id": 1159283851,
    "sfomuseum:arrival_id": 102528659,
    "sfomuseum:departure_id": 102527513,
    "sfomuseum:flight_id": "20160502-D-AAL-559",
    "sfomuseum:flight_number": [
      "AA559", 
      "AAL559"
    ],
    "sfomuseum:placetype": "flight",
    "src:geom": "sfonoise",
    "wof:belongsto": [
      102087579, 
      1628929939, 
      85922583, 
      102191575, 
      1159396321, 
      85688637, 
      102527513, 
      85633793
    ],
    "wof:country": "US",
    "wof:created": 1582925131,
    "wof:geomhash": "6d7202e034534315a50103622977ef57",
    "wof:hierarchy": [
      {
        "building_id": 1159396321,
        "campus_id": 102527513,
        "concourse_id": -1,
        "continent_id": 102191575,
        "country_id": 85633793,
        "county_id": 102087579,
        "event_id": 1628929939,
        "locality_id": 85922583,
        "neighbourhood_id": -1,
        "region_id": 85688637,
        "venue_id": -1,
        "wing_id": -1
      }
    ],
    "wof:id": 1628929939,
    "wof:lastmodified": 1582925131,
    "wof:name": "AAL559 (SFO-CLT)",
    "wof:parent_id": -1,
    "wof:placetype": "event",
    "wof:repo": "sfomuseum-data-flights-2016",
    "wof:superseded_by": [],
    "wof:supersedes": []
  },
  "bbox": [
    -122.370943, 
    35.220744, 
    -80.942777, 
    37.61799
  ],
  "geometry": {"coordinates":[[-122.370943,37.61799],[-80.942777,35.220744]],"type":"MultiPoint"}
}
