{
  "id": 1629138481,
  "type": "Feature",
  "properties": {
    "edtf:cessation": "2016-06-23~",
    "edtf:inception": "2016-06-23T17:32:37",
    "flysfo:airline": "BA",
    "flysfo:date": "2016-06-23",
    "flysfo:event": "D",
    "flysfo:flight_number": "BA71F",
    "flysfo:journey": "SFO-LHR",
    "geom:area": 0,
    "geom:bbox": "-122.370943,37.617990,-0.450443,51.470087",
    "geom:latitude": 44.5440385,
    "geom:longitude": -61.410693,
    "iata:airline": "BA",
    "icao:aircraft": "B772",
    "icao:airline": "BAW",
    "mz:is_current": -1,
    "sfomuseum:aircraft_id": 1159289985,
    "sfomuseum:airline_id": 1159284021,
    "sfomuseum:arrival_id": 102556703,
    "sfomuseum:departure_id": 102527513,
    "sfomuseum:flight_id": "20160623-D-BAW-71F",
    "sfomuseum:flight_number": [
      "BA71F", 
      "BAW71F"
    ],
    "sfomuseum:placetype": "flight",
    "src:geom": "sfonoise",
    "wof:belongsto": [
      1159396321, 
      1629138481, 
      102191575, 
      102527513, 
      102087579, 
      85922583, 
      85688637, 
      85633793
    ],
    "wof:country": "US",
    "wof:created": 1582926741,
    "wof:geomhash": "86f41e039827d60bcd1a72801f72cbc2",
    "wof:hierarchy": [
      {
        "building_id": 1159396321,
        "campus_id": 102527513,
        "concourse_id": -1,
        "continent_id": 102191575,
        "country_id": 85633793,
        "county_id": 102087579,
        "event_id": 1629138481,
        "locality_id": 85922583,
        "neighbourhood_id": -1,
        "region_id": 85688637,
        "venue_id": -1,
        "wing_id": -1
      }
    ],
    "wof:id": 1629138481,
    "wof:lastmodified": 1582926741,
    "wof:name": "BAW71F (SFO-LHR)",
    "wof:parent_id": -1,
    "wof:placetype": "event",
    "wof:repo": "sfomuseum-data-flights-2016",
    "wof:superseded_by": [],
    "wof:supersedes": []
  },
  "bbox": [
    -122.370943, 
    37.61799, 
    -0.450443, 
    51.470087
  ],
  "geometry": {"coordinates":[[-122.370943,37.61799],[-0.450443,51.470087]],"type":"MultiPoint"}
}
