{
  "id": 1679333307,
  "type": "Feature",
  "properties": {
    "edtf:cessation": "2016-12-31~",
    "edtf:inception": "2016-12-31T00:09:01",
    "flysfo:airline": "UA",
    "flysfo:date": "2016-12-31",
    "flysfo:event": "D",
    "flysfo:flight_number": "UA2254",
    "flysfo:journey": "SFO-KMDT",
    "geom:area": 0,
    "geom:bbox": "-122.370943,37.617990,-76.755645,40.197358",
    "geom:latitude": 38.907674,
    "geom:longitude": -99.563294,
    "iata:airline": "UA",
    "icao:aircraft": "B744",
    "icao:airline": "UAL",
    "mz:is_current": -1,
    "sfomuseum:aircraft_id": 1159289915,
    "sfomuseum:airline_id": 1159285413,
    "sfomuseum:arrival_id": 102529873,
    "sfomuseum:departure_id": 102527513,
    "sfomuseum:flight_id": "20161231-D-UAL-2254",
    "sfomuseum:flight_number": [
      "UA2254", 
      "UAL2254"
    ],
    "sfomuseum:placetype": "flight",
    "src:geom": "sfonoise",
    "wof:belongsto": [
      1679333307, 
      85922583, 
      1159157271, 
      102191575, 
      85688637, 
      102527513, 
      85633793, 
      102087579
    ],
    "wof:country": "US",
    "wof:created": 1582934666,
    "wof:geomhash": "598c632b9e5745a038a5b8f2b3f5b6f0",
    "wof:hierarchy": [
      {
        "building_id": 1159157271,
        "campus_id": 102527513,
        "concourse_id": -1,
        "continent_id": 102191575,
        "country_id": 85633793,
        "county_id": 102087579,
        "event_id": 1679333307,
        "locality_id": 85922583,
        "neighbourhood_id": -1,
        "region_id": 85688637,
        "venue_id": -1,
        "wing_id": -1
      }
    ],
    "wof:id": 1679333307,
    "wof:lastmodified": 1582934666,
    "wof:name": "UAL2254 (SFO-KMDT)",
    "wof:parent_id": -1,
    "wof:placetype": "event",
    "wof:repo": "sfomuseum-data-flights-2016",
    "wof:superseded_by": [],
    "wof:supersedes": []
  },
  "bbox": [
    -122.370943, 
    37.61799, 
    -76.755645, 
    40.197358
  ],
  "geometry": {"coordinates":[[-122.370943,37.61799],[-76.755645,40.197358]],"type":"MultiPoint"}
}
