{
  "id": 1628930413,
  "type": "Feature",
  "properties": {
    "edtf:cessation": "2016-05-15~",
    "edtf:inception": "2016-05-15T09:22:50",
    "flysfo:airline": "VX",
    "flysfo:date": "2016-05-15",
    "flysfo:event": "D",
    "flysfo:flight_number": "VX352",
    "flysfo:journey": "SFO-KAPN",
    "geom:area": 0,
    "geom:bbox": "-122.370943,37.617990,-83.560303,45.078098",
    "geom:latitude": 41.348044,
    "geom:longitude": -102.965623,
    "iata:airline": "VX",
    "icao:aircraft": "A320",
    "icao:airline": "VRD",
    "mz:is_current": -1,
    "sfomuseum:aircraft_id": 1159292085,
    "sfomuseum:airline_id": 1159285481,
    "sfomuseum:arrival_id": 102529307,
    "sfomuseum:departure_id": 102527513,
    "sfomuseum:flight_id": "20160515-D-VRD-352",
    "sfomuseum:flight_number": [
      "VX352", 
      "VRD352"
    ],
    "sfomuseum:placetype": "flight",
    "src:geom": "sfonoise",
    "wof:belongsto": [
      85633793, 
      102087579, 
      1628930413, 
      102527513, 
      85922583, 
      1159396321, 
      102191575, 
      85688637
    ],
    "wof:country": "US",
    "wof:created": 1582925553,
    "wof:geomhash": "4ae65a45cf680a34b14fef15060218c1",
    "wof:hierarchy": [
      {
        "building_id": 1159396321,
        "campus_id": 102527513,
        "concourse_id": -1,
        "continent_id": 102191575,
        "country_id": 85633793,
        "county_id": 102087579,
        "event_id": 1628930413,
        "locality_id": 85922583,
        "neighbourhood_id": -1,
        "region_id": 85688637,
        "venue_id": -1,
        "wing_id": -1
      }
    ],
    "wof:id": 1628930413,
    "wof:lastmodified": 1582925553,
    "wof:name": "VRD352 (SFO-KAPN)",
    "wof:parent_id": -1,
    "wof:placetype": "event",
    "wof:repo": "sfomuseum-data-flights-2016",
    "wof:superseded_by": [],
    "wof:supersedes": []
  },
  "bbox": [
    -122.370943, 
    37.61799, 
    -83.560303, 
    45.078098
  ],
  "geometry": {"coordinates":[[-122.370943,37.61799],[-83.560303,45.078098]],"type":"MultiPoint"}
}
