{
  "id": 1629176497,
  "type": "Feature",
  "properties": {
    "edtf:cessation": "2016-07-03~",
    "edtf:inception": "2016-07-03T14:23:13",
    "flysfo:airline": "UA",
    "flysfo:date": "2016-07-03",
    "flysfo:event": "D",
    "flysfo:flight_number": "UA2247",
    "flysfo:journey": "SFO-KBFI",
    "geom:area": 0,
    "geom:bbox": "-122.370943,37.617990,-122.301589,47.536582",
    "geom:latitude": 42.577286,
    "geom:longitude": -122.336266,
    "iata:airline": "UA",
    "icao:aircraft": "B739",
    "icao:airline": "UAL",
    "mz:is_current": -1,
    "sfomuseum:aircraft_id": 1377564285,
    "sfomuseum:airline_id": 1159285413,
    "sfomuseum:arrival_id": 102527671,
    "sfomuseum:departure_id": 102527513,
    "sfomuseum:flight_id": "20160703-D-UAL-2247",
    "sfomuseum:flight_number": [
      "UA2247", 
      "UAL2247"
    ],
    "sfomuseum:placetype": "flight",
    "src:geom": "sfonoise",
    "wof:belongsto": [
      85922583, 
      102527513, 
      102087579, 
      1629176497, 
      1159157271, 
      102191575, 
      85633793, 
      85688637
    ],
    "wof:country": "US",
    "wof:created": 1582927032,
    "wof:geomhash": "02eb21027b428b31b3a49fca7e3fb60f",
    "wof:hierarchy": [
      {
        "building_id": 1159157271,
        "campus_id": 102527513,
        "concourse_id": -1,
        "continent_id": 102191575,
        "country_id": 85633793,
        "county_id": 102087579,
        "event_id": 1629176497,
        "locality_id": 85922583,
        "neighbourhood_id": -1,
        "region_id": 85688637,
        "venue_id": -1,
        "wing_id": -1
      }
    ],
    "wof:id": 1629176497,
    "wof:lastmodified": 1582927032,
    "wof:name": "UAL2247 (SFO-KBFI)",
    "wof:parent_id": -1,
    "wof:placetype": "event",
    "wof:repo": "sfomuseum-data-flights-2016",
    "wof:superseded_by": [],
    "wof:supersedes": []
  },
  "bbox": [
    -122.370943, 
    37.61799, 
    -122.301589, 
    47.536582
  ],
  "geometry": {"coordinates":[[-122.370943,37.61799],[-122.301589,47.536582]],"type":"MultiPoint"}
}
