{
  "id": 1629149493,
  "type": "Feature",
  "properties": {
    "edtf:cessation": "2016-06-26T15:27:09",
    "edtf:inception": "2016-06-26~",
    "flysfo:airline": "UA",
    "flysfo:date": "2016-06-26",
    "flysfo:event": "A",
    "flysfo:flight_number": "UA1922",
    "flysfo:journey": "KMCO-SFO",
    "geom:area": 0,
    "geom:bbox": "-122.370943,28.431495,-81.307537,37.617990",
    "geom:latitude": 33.0247425,
    "geom:longitude": -101.83923999999999,
    "iata:airline": "UA",
    "icao:aircraft": "B738",
    "icao:airline": "UAL",
    "mz:is_current": -1,
    "sfomuseum:aircraft_id": 1159289871,
    "sfomuseum:airline_id": 1159285413,
    "sfomuseum:arrival_id": 102527513,
    "sfomuseum:departure_id": 102533657,
    "sfomuseum:flight_id": "20160626-A-UAL-1922",
    "sfomuseum:flight_number": [
      "UA1922", 
      "UAL1922"
    ],
    "sfomuseum:placetype": "flight",
    "src:geom": "sfonoise",
    "wof:belongsto": [
      1159396321, 
      85633793, 
      85688637, 
      1629149493, 
      102527513, 
      102087579, 
      85922583, 
      102191575
    ],
    "wof:country": "US",
    "wof:created": 1582926829,
    "wof:geomhash": "5fe9a4073f558f5d433cae4f846ab71e",
    "wof:hierarchy": [
      {
        "building_id": 1159396321,
        "campus_id": 102527513,
        "concourse_id": -1,
        "continent_id": 102191575,
        "country_id": 85633793,
        "county_id": 102087579,
        "event_id": 1629149493,
        "locality_id": 85922583,
        "neighbourhood_id": -1,
        "region_id": 85688637,
        "venue_id": -1,
        "wing_id": -1
      }
    ],
    "wof:id": 1629149493,
    "wof:lastmodified": 1582926829,
    "wof:name": "UAL1922 (KMCO-SFO)",
    "wof:parent_id": -1,
    "wof:placetype": "event",
    "wof:repo": "sfomuseum-data-flights-2016",
    "wof:superseded_by": [],
    "wof:supersedes": []
  },
  "bbox": [
    -122.370943, 
    28.431495, 
    -81.307537, 
    37.61799
  ],
  "geometry": {"coordinates":[[-81.307537,28.431495],[-122.370943,37.61799]],"type":"MultiPoint"}
}
