{
  "id": 1662130311,
  "type": "Feature",
  "properties": {
    "edtf:cessation": "2016-02-27~",
    "edtf:inception": "2016-02-27T13:27:11",
    "flysfo:airline": "DL",
    "flysfo:date": "2016-02-27",
    "flysfo:event": "D",
    "flysfo:flight_number": "DL1360",
    "flysfo:journey": "SFO-SEA",
    "geom:area": 0,
    "geom:bbox": "-122.370943,37.617990,-122.304268,47.441823",
    "geom:latitude": 42.529906499999996,
    "geom:longitude": -122.3376055,
    "iata:airline": "DL",
    "icao:aircraft": "B752",
    "icao:airline": "DAL",
    "mz:is_current": -1,
    "sfomuseum:aircraft_id": 1159289939,
    "sfomuseum:airline_id": 1159284261,
    "sfomuseum:arrival_id": 102533269,
    "sfomuseum:departure_id": 102527513,
    "sfomuseum:flight_id": "20160227-D-DAL-1360",
    "sfomuseum:flight_number": [
      "DL1360", 
      "DAL1360"
    ],
    "sfomuseum:placetype": "flight",
    "src:geom": "sfonoise",
    "wof:belongsto": [
      85922583, 
      1159396321, 
      102527513, 
      102087579, 
      102191575, 
      1662130311, 
      85633793, 
      85688637
    ],
    "wof:country": "US",
    "wof:created": 1582923222,
    "wof:geomhash": "4036ee3c983703867dbe0486453848b1",
    "wof:hierarchy": [
      {
        "building_id": 1159396321,
        "campus_id": 102527513,
        "concourse_id": -1,
        "continent_id": 102191575,
        "country_id": 85633793,
        "county_id": 102087579,
        "event_id": 1662130311,
        "locality_id": 85922583,
        "neighbourhood_id": -1,
        "region_id": 85688637,
        "venue_id": -1,
        "wing_id": -1
      }
    ],
    "wof:id": 1662130311,
    "wof:lastmodified": 1582923222,
    "wof:name": "DAL1360 (SFO-SEA)",
    "wof:parent_id": -1,
    "wof:placetype": "event",
    "wof:repo": "sfomuseum-data-flights-2016",
    "wof:superseded_by": [],
    "wof:supersedes": []
  },
  "bbox": [
    -122.370943, 
    37.61799, 
    -122.304268, 
    47.441823
  ],
  "geometry": {"coordinates":[[-122.370943,37.61799],[-122.304268,47.441823]],"type":"MultiPoint"}
}
