{
  "id": 1662091027,
  "type": "Feature",
  "properties": {
    "edtf:cessation": "2016-01-31T16:15:06",
    "edtf:inception": "2016-01-31~",
    "flysfo:airline": "UA",
    "flysfo:date": "2016-01-31",
    "flysfo:event": "A",
    "flysfo:flight_number": "UA2247",
    "flysfo:journey": "KSJC-SFO",
    "geom:area": 0,
    "geom:bbox": "-122.370943,37.363728,-121.928755,37.617990",
    "geom:latitude": 37.490859,
    "geom:longitude": -122.14984899999999,
    "iata:airline": "UA",
    "icao:aircraft": "B764",
    "icao:airline": "UAL",
    "mz:is_current": -1,
    "sfomuseum:aircraft_id": 1394298249,
    "sfomuseum:airline_id": 1159285413,
    "sfomuseum:arrival_id": 102527513,
    "sfomuseum:departure_id": 102527529,
    "sfomuseum:flight_id": "20160131-A-UAL-2247",
    "sfomuseum:flight_number": [
      "UA2247", 
      "UAL2247"
    ],
    "sfomuseum:placetype": "flight",
    "src:geom": "sfonoise",
    "wof:belongsto": [
      102087579, 
      85922583, 
      85688637, 
      102527513, 
      102191575, 
      1159396321, 
      85633793, 
      1662091027
    ],
    "wof:country": "US",
    "wof:created": 1582922528,
    "wof:geomhash": "5aa704d308ccde2b747329ebb6ffcf42",
    "wof:hierarchy": [
      {
        "building_id": 1159396321,
        "campus_id": 102527513,
        "concourse_id": -1,
        "continent_id": 102191575,
        "country_id": 85633793,
        "county_id": 102087579,
        "event_id": 1662091027,
        "locality_id": 85922583,
        "neighbourhood_id": -1,
        "region_id": 85688637,
        "venue_id": -1,
        "wing_id": -1
      }
    ],
    "wof:id": 1662091027,
    "wof:lastmodified": 1582922528,
    "wof:name": "UAL2247 (KSJC-SFO)",
    "wof:parent_id": -1,
    "wof:placetype": "event",
    "wof:repo": "sfomuseum-data-flights-2016",
    "wof:superseded_by": [],
    "wof:supersedes": []
  },
  "bbox": [
    -122.370943, 
    37.363728, 
    -121.928755, 
    37.61799
  ],
  "geometry": {"coordinates":[[-121.928755,37.363728],[-122.370943,37.61799]],"type":"MultiPoint"}
}
