{
  "id": 1662193387,
  "type": "Feature",
  "properties": {
    "edtf:cessation": "2016-04-05~",
    "edtf:inception": "2016-04-05T11:35:40",
    "flysfo:airline": "F9",
    "flysfo:date": "2016-04-05",
    "flysfo:event": "D",
    "flysfo:flight_number": "F91108",
    "flysfo:journey": "SFO-KIAH",
    "geom:area": 0,
    "geom:bbox": "-122.370943,29.977186,-95.338444,37.617990",
    "geom:latitude": 33.797588,
    "geom:longitude": -108.8546935,
    "iata:airline": "F9",
    "icao:aircraft": "A319",
    "icao:airline": "FFT",
    "mz:is_current": -1,
    "sfomuseum:aircraft_id": 1159289407,
    "sfomuseum:airline_id": 1159284401,
    "sfomuseum:arrival_id": 102534097,
    "sfomuseum:departure_id": 102527513,
    "sfomuseum:flight_id": "20160405-D-FFT-1108",
    "sfomuseum:flight_number": [
      "F91108", 
      "FFT1108"
    ],
    "sfomuseum:placetype": "flight",
    "src:geom": "sfonoise",
    "wof:belongsto": [
      102191575, 
      1159396321, 
      102527513, 
      85633793, 
      102087579, 
      85922583, 
      1662193387, 
      85688637
    ],
    "wof:country": "US",
    "wof:created": 1582924055,
    "wof:geomhash": "4d8eca8dfd12d13a56951180b27dbf13",
    "wof:hierarchy": [
      {
        "building_id": 1159396321,
        "campus_id": 102527513,
        "concourse_id": -1,
        "continent_id": 102191575,
        "country_id": 85633793,
        "county_id": 102087579,
        "event_id": 1662193387,
        "locality_id": 85922583,
        "neighbourhood_id": -1,
        "region_id": 85688637,
        "venue_id": -1,
        "wing_id": -1
      }
    ],
    "wof:id": 1662193387,
    "wof:lastmodified": 1582924055,
    "wof:name": "FFT1108 (SFO-KIAH)",
    "wof:parent_id": -1,
    "wof:placetype": "event",
    "wof:repo": "sfomuseum-data-flights-2016",
    "wof:superseded_by": [],
    "wof:supersedes": []
  },
  "bbox": [
    -122.370943, 
    29.977186, 
    -95.338444, 
    37.61799
  ],
  "geometry": {"coordinates":[[-122.370943,37.61799],[-95.338444,29.977186]],"type":"MultiPoint"}
}
