{
  "id": 1662181039,
  "type": "Feature",
  "properties": {
    "edtf:cessation": "2016-03-29~",
    "edtf:inception": "2016-03-29T07:58:21",
    "flysfo:airline": "VX",
    "flysfo:date": "2016-03-29",
    "flysfo:event": "D",
    "flysfo:flight_number": "VX039",
    "flysfo:journey": "SFO-PHOG",
    "geom:area": 0,
    "geom:bbox": "-156.437877,20.894952,-122.370943,37.617990",
    "geom:latitude": 29.256470999999998,
    "geom:longitude": -139.40440999999998,
    "iata:airline": "VX",
    "icao:aircraft": "A320",
    "icao:airline": "VRD",
    "mz:is_current": -1,
    "sfomuseum:aircraft_id": 1159292085,
    "sfomuseum:airline_id": 1159285481,
    "sfomuseum:arrival_id": 102532929,
    "sfomuseum:departure_id": 102527513,
    "sfomuseum:flight_id": "20160329-D-VRD-039",
    "sfomuseum:flight_number": [
      "VX039", 
      "VRD039"
    ],
    "sfomuseum:placetype": "flight",
    "src:geom": "sfonoise",
    "wof:belongsto": [
      102527513, 
      85633793, 
      85922583, 
      1159396321, 
      1662181039, 
      102087579, 
      85688637, 
      102191575
    ],
    "wof:country": "US",
    "wof:created": 1582923914,
    "wof:geomhash": "8c8f659fbae3cc58419f360e0abfbe56",
    "wof:hierarchy": [
      {
        "building_id": 1159396321,
        "campus_id": 102527513,
        "concourse_id": -1,
        "continent_id": 102191575,
        "country_id": 85633793,
        "county_id": 102087579,
        "event_id": 1662181039,
        "locality_id": 85922583,
        "neighbourhood_id": -1,
        "region_id": 85688637,
        "venue_id": -1,
        "wing_id": -1
      }
    ],
    "wof:id": 1662181039,
    "wof:lastmodified": 1582923914,
    "wof:name": "VRD039 (SFO-PHOG)",
    "wof:parent_id": -1,
    "wof:placetype": "event",
    "wof:repo": "sfomuseum-data-flights-2016",
    "wof:superseded_by": [],
    "wof:supersedes": []
  },
  "bbox": [
    -156.437877, 
    20.894952, 
    -122.370943, 
    37.61799
  ],
  "geometry": {"coordinates":[[-122.370943,37.61799],[-156.437877,20.894952]],"type":"MultiPoint"}
}
