{
  "id": 1662269849,
  "type": "Feature",
  "properties": {
    "edtf:cessation": "2016-05-18T15:51:09",
    "edtf:inception": "2016-05-18~",
    "flysfo:airline": "AB",
    "flysfo:date": "2016-05-18",
    "flysfo:event": "A",
    "flysfo:flight_number": "AB7392",
    "flysfo:journey": "DUS-SFO",
    "geom:area": 0,
    "geom:bbox": "-122.370943,37.617990,6.763227,51.260024",
    "geom:latitude": 44.439007000000004,
    "geom:longitude": -57.803858,
    "iata:airline": "AB",
    "icao:aircraft": "A332",
    "icao:airline": "BER",
    "mz:is_current": -1,
    "sfomuseum:aircraft_id": 1159289421,
    "sfomuseum:airline_id": 1159283591,
    "sfomuseum:arrival_id": 102527513,
    "sfomuseum:departure_id": 102549121,
    "sfomuseum:flight_id": "20160518-A-BER-7392",
    "sfomuseum:flight_number": [
      "AB7392", 
      "BER7392"
    ],
    "sfomuseum:placetype": "flight",
    "src:geom": "sfonoise",
    "wof:belongsto": [
      1159396321, 
      85633793, 
      102191575, 
      102087579, 
      85922583, 
      85688637, 
      102527513, 
      1662269849
    ],
    "wof:country": "US",
    "wof:created": 1582925646,
    "wof:geomhash": "71fbb665dfe5f5dbbed9b31c6e472e5d",
    "wof:hierarchy": [
      {
        "building_id": 1159396321,
        "campus_id": 102527513,
        "concourse_id": -1,
        "continent_id": 102191575,
        "country_id": 85633793,
        "county_id": 102087579,
        "event_id": 1662269849,
        "locality_id": 85922583,
        "neighbourhood_id": -1,
        "region_id": 85688637,
        "venue_id": -1,
        "wing_id": -1
      }
    ],
    "wof:id": 1662269849,
    "wof:lastmodified": 1582925646,
    "wof:name": "BER7392 (DUS-SFO)",
    "wof:parent_id": -1,
    "wof:placetype": "event",
    "wof:repo": "sfomuseum-data-flights-2016",
    "wof:superseded_by": [],
    "wof:supersedes": []
  },
  "bbox": [
    -122.370943, 
    37.61799, 
    6.763227, 
    51.260024
  ],
  "geometry": {"coordinates":[[6.763227,51.260024],[-122.370943,37.61799]],"type":"MultiPoint"}
}
