{
  "id": 1679302459,
  "type": "Feature",
  "properties": {
    "edtf:cessation": "2016-12-21T22:39:04",
    "edtf:inception": "2016-12-21~",
    "flysfo:airline": "AA",
    "flysfo:date": "2016-12-21",
    "flysfo:event": "A",
    "flysfo:flight_number": "AA1709",
    "flysfo:journey": "KABQ-SFO",
    "geom:area": 0,
    "geom:bbox": "-122.370943,35.048762,-106.620586,37.617990",
    "geom:latitude": 36.333376,
    "geom:longitude": -114.4957645,
    "iata:airline": "AA",
    "icao:aircraft": "A321",
    "icao:airline": "AAL",
    "mz:is_current": -1,
    "sfomuseum:aircraft_id": 1159289411,
    "sfomuseum:airline_id": 1159283851,
    "sfomuseum:arrival_id": 102527513,
    "sfomuseum:departure_id": 102529173,
    "sfomuseum:flight_id": "20161221-A-AAL-1709",
    "sfomuseum:flight_number": [
      "AA1709", 
      "AAL1709"
    ],
    "sfomuseum:placetype": "flight",
    "src:geom": "sfonoise",
    "wof:belongsto": [
      1679302459, 
      102527513, 
      102191575, 
      102087579, 
      85688637, 
      1159157271, 
      85633793, 
      85922583
    ],
    "wof:country": "US",
    "wof:created": 1582934363,
    "wof:geomhash": "8fe6791c85dc44fbddffd72416ea0024",
    "wof:hierarchy": [
      {
        "building_id": 1159157271,
        "campus_id": 102527513,
        "concourse_id": -1,
        "continent_id": 102191575,
        "country_id": 85633793,
        "county_id": 102087579,
        "event_id": 1679302459,
        "locality_id": 85922583,
        "neighbourhood_id": -1,
        "region_id": 85688637,
        "venue_id": -1,
        "wing_id": -1
      }
    ],
    "wof:id": 1679302459,
    "wof:lastmodified": 1582934363,
    "wof:name": "AAL1709 (KABQ-SFO)",
    "wof:parent_id": -1,
    "wof:placetype": "event",
    "wof:repo": "sfomuseum-data-flights-2016",
    "wof:superseded_by": [],
    "wof:supersedes": []
  },
  "bbox": [
    -122.370943, 
    35.048762, 
    -106.620586, 
    37.61799
  ],
  "geometry": {"coordinates":[[-106.620586,35.048762],[-122.370943,37.61799]],"type":"MultiPoint"}
}
