{
  "id": 1662139361,
  "type": "Feature",
  "properties": {
    "edtf:cessation": "2016-03-04~",
    "edtf:inception": "2016-03-04T05:53:47",
    "flysfo:airline": "WN",
    "flysfo:date": "2016-03-04",
    "flysfo:event": "D",
    "flysfo:flight_number": "WN726",
    "flysfo:journey": "SFO-DEN",
    "geom:area": 0,
    "geom:bbox": "-122.370943,37.617990,-104.672219,39.864939",
    "geom:latitude": 38.7414645,
    "geom:longitude": -113.521581,
    "iata:airline": "WN",
    "icao:aircraft": "B737",
    "icao:airline": "SWA",
    "mz:is_current": -1,
    "sfomuseum:aircraft_id": 1159289869,
    "sfomuseum:airline_id": 1159285591,
    "sfomuseum:arrival_id": 102531189,
    "sfomuseum:departure_id": 102527513,
    "sfomuseum:flight_id": "20160304-D-SWA-726",
    "sfomuseum:flight_number": [
      "WN726", 
      "SWA726"
    ],
    "sfomuseum:placetype": "flight",
    "src:geom": "sfonoise",
    "wof:belongsto": [
      85688637, 
      102191575, 
      85633793, 
      102527513, 
      102087579, 
      1662139361, 
      85922583, 
      1159396321
    ],
    "wof:country": "US",
    "wof:created": 1582923384,
    "wof:geomhash": "976937653dbac6c9c27dd23670ba89bf",
    "wof:hierarchy": [
      {
        "building_id": 1159396321,
        "campus_id": 102527513,
        "concourse_id": -1,
        "continent_id": 102191575,
        "country_id": 85633793,
        "county_id": 102087579,
        "event_id": 1662139361,
        "locality_id": 85922583,
        "neighbourhood_id": -1,
        "region_id": 85688637,
        "venue_id": -1,
        "wing_id": -1
      }
    ],
    "wof:id": 1662139361,
    "wof:lastmodified": 1582923384,
    "wof:name": "SWA726 (SFO-DEN)",
    "wof:parent_id": -1,
    "wof:placetype": "event",
    "wof:repo": "sfomuseum-data-flights-2016",
    "wof:superseded_by": [],
    "wof:supersedes": []
  },
  "bbox": [
    -122.370943, 
    37.61799, 
    -104.672219, 
    39.864939
  ],
  "geometry": {"coordinates":[[-122.370943,37.61799],[-104.672219,39.864939]],"type":"MultiPoint"}
}
