{
  "id": 1679261125,
  "type": "Feature",
  "properties": {
    "edtf:cessation": "2016-12-09~",
    "edtf:inception": "2016-12-09T14:30:27",
    "flysfo:airline": "UA",
    "flysfo:date": "2016-12-09",
    "flysfo:event": "D",
    "flysfo:flight_number": "UA2161",
    "flysfo:journey": "SFO-KMIA",
    "geom:area": 0,
    "geom:bbox": "-122.370943,25.790470,-80.296006,37.617990",
    "geom:latitude": 31.70423,
    "geom:longitude": -101.3334745,
    "iata:airline": "UA",
    "icao:aircraft": "B763",
    "icao:airline": "UAL",
    "mz:is_current": -1,
    "sfomuseum:aircraft_id": 1159289965,
    "sfomuseum:airline_id": 1159285413,
    "sfomuseum:arrival_id": 102531023,
    "sfomuseum:departure_id": 102527513,
    "sfomuseum:flight_id": "20161209-D-UAL-2161",
    "sfomuseum:flight_number": [
      "UA2161", 
      "UAL2161"
    ],
    "sfomuseum:placetype": "flight",
    "src:geom": "sfonoise",
    "wof:belongsto": [
      102087579, 
      1679261125, 
      102527513, 
      85688637, 
      85633793, 
      85922583, 
      102191575, 
      1159157271
    ],
    "wof:country": "US",
    "wof:created": 1582933963,
    "wof:geomhash": "05e474f4bf1eb5ae110c20d94aac828f",
    "wof:hierarchy": [
      {
        "building_id": 1159157271,
        "campus_id": 102527513,
        "concourse_id": -1,
        "continent_id": 102191575,
        "country_id": 85633793,
        "county_id": 102087579,
        "event_id": 1679261125,
        "locality_id": 85922583,
        "neighbourhood_id": -1,
        "region_id": 85688637,
        "venue_id": -1,
        "wing_id": -1
      }
    ],
    "wof:id": 1679261125,
    "wof:lastmodified": 1582933963,
    "wof:name": "UAL2161 (SFO-KMIA)",
    "wof:parent_id": -1,
    "wof:placetype": "event",
    "wof:repo": "sfomuseum-data-flights-2016",
    "wof:superseded_by": [],
    "wof:supersedes": []
  },
  "bbox": [
    -122.370943, 
    25.79047, 
    -80.296006, 
    37.61799
  ],
  "geometry": {"coordinates":[[-122.370943,37.61799],[-80.296006,25.79047]],"type":"MultiPoint"}
}
