{
  "id": 1662185467,
  "type": "Feature",
  "properties": {
    "edtf:cessation": "2016-03-31T17:22:33",
    "edtf:inception": "2016-03-31~",
    "flysfo:airline": "UA",
    "flysfo:date": "2016-03-31",
    "flysfo:event": "A",
    "flysfo:flight_number": "UA2139",
    "flysfo:journey": "PANC-SFO",
    "geom:area": 0,
    "geom:bbox": "-149.968401,37.617990,-122.370943,61.173606",
    "geom:latitude": 49.395798,
    "geom:longitude": -136.169672,
    "iata:airline": "UA",
    "icao:aircraft": "B772",
    "icao:airline": "UAL",
    "mz:is_current": -1,
    "sfomuseum:aircraft_id": 1159289985,
    "sfomuseum:airline_id": 1159285413,
    "sfomuseum:arrival_id": 102527513,
    "sfomuseum:departure_id": 102531979,
    "sfomuseum:flight_id": "20160331-A-UAL-2139",
    "sfomuseum:flight_number": [
      "UA2139", 
      "UAL2139"
    ],
    "sfomuseum:placetype": "flight",
    "src:geom": "sfonoise",
    "wof:belongsto": [
      102087579, 
      1159396321, 
      102527513, 
      85633793, 
      1662185467, 
      85922583, 
      102191575, 
      85688637
    ],
    "wof:country": "US",
    "wof:created": 1582923957,
    "wof:geomhash": "40576486fbb454d3a66da49d62a0ae33",
    "wof:hierarchy": [
      {
        "building_id": 1159396321,
        "campus_id": 102527513,
        "concourse_id": -1,
        "continent_id": 102191575,
        "country_id": 85633793,
        "county_id": 102087579,
        "event_id": 1662185467,
        "locality_id": 85922583,
        "neighbourhood_id": -1,
        "region_id": 85688637,
        "venue_id": -1,
        "wing_id": -1
      }
    ],
    "wof:id": 1662185467,
    "wof:lastmodified": 1582923957,
    "wof:name": "UAL2139 (PANC-SFO)",
    "wof:parent_id": -1,
    "wof:placetype": "event",
    "wof:repo": "sfomuseum-data-flights-2016",
    "wof:superseded_by": [],
    "wof:supersedes": []
  },
  "bbox": [
    -149.968401, 
    37.61799, 
    -122.370943, 
    61.173606
  ],
  "geometry": {"coordinates":[[-149.968401,61.173606],[-122.370943,37.61799]],"type":"MultiPoint"}
}
