{
  "id": 1679242323,
  "type": "Feature",
  "properties": {
    "edtf:cessation": "2016-12-03T16:52:30",
    "edtf:inception": "2016-12-03~",
    "flysfo:airline": "WN",
    "flysfo:date": "2016-12-03",
    "flysfo:event": "A",
    "flysfo:flight_number": "WN5326",
    "flysfo:journey": "KDAL-SFO",
    "geom:area": 0,
    "geom:bbox": "-122.370943,32.845849,-96.850523,37.617990",
    "geom:latitude": 35.231919500000004,
    "geom:longitude": -109.610733,
    "iata:airline": "WN",
    "icao:aircraft": "B737",
    "icao:airline": "SWA",
    "mz:is_current": -1,
    "sfomuseum:aircraft_id": 1159289869,
    "sfomuseum:airline_id": 1159285591,
    "sfomuseum:arrival_id": 102527513,
    "sfomuseum:departure_id": 102525799,
    "sfomuseum:flight_id": "20161203-A-SWA-5326",
    "sfomuseum:flight_number": [
      "WN5326", 
      "SWA5326"
    ],
    "sfomuseum:placetype": "flight",
    "src:geom": "sfonoise",
    "wof:belongsto": [
      102527513, 
      1679242323, 
      1159157271, 
      85688637, 
      102087579, 
      85633793, 
      85922583, 
      102191575
    ],
    "wof:country": "US",
    "wof:created": 1582933780,
    "wof:geomhash": "ecfc64ce72b903780fc129f985c12eef",
    "wof:hierarchy": [
      {
        "building_id": 1159157271,
        "campus_id": 102527513,
        "concourse_id": -1,
        "continent_id": 102191575,
        "country_id": 85633793,
        "county_id": 102087579,
        "event_id": 1679242323,
        "locality_id": 85922583,
        "neighbourhood_id": -1,
        "region_id": 85688637,
        "venue_id": -1,
        "wing_id": -1
      }
    ],
    "wof:id": 1679242323,
    "wof:lastmodified": 1582933780,
    "wof:name": "SWA5326 (KDAL-SFO)",
    "wof:parent_id": -1,
    "wof:placetype": "event",
    "wof:repo": "sfomuseum-data-flights-2016",
    "wof:superseded_by": [],
    "wof:supersedes": []
  },
  "bbox": [
    -122.370943, 
    32.845849, 
    -96.850523, 
    37.61799
  ],
  "geometry": {"coordinates":[[-96.850523,32.845849],[-122.370943,37.61799]],"type":"MultiPoint"}
}
