{
  "id": 1679314261,
  "type": "Feature",
  "properties": {
    "edtf:cessation": "2016-12-25~",
    "edtf:inception": "2016-12-25T17:06:26",
    "flysfo:airline": "UA",
    "flysfo:date": "2016-12-25",
    "flysfo:event": "D",
    "flysfo:flight_number": "UA2150",
    "flysfo:journey": "SFO-ZSAM",
    "geom:area": 0,
    "geom:bbox": "-122.370943,24.540839,118.135698,37.617990",
    "geom:latitude": 31.0794145,
    "geom:longitude": -2.117622499999996,
    "iata:airline": "UA",
    "icao:aircraft": "B772",
    "icao:airline": "UAL",
    "mz:is_current": -1,
    "sfomuseum:aircraft_id": 1159289985,
    "sfomuseum:airline_id": 1159285413,
    "sfomuseum:arrival_id": 102550865,
    "sfomuseum:departure_id": 102527513,
    "sfomuseum:flight_id": "20161225-D-UAL-2150",
    "sfomuseum:flight_number": [
      "UA2150", 
      "UAL2150"
    ],
    "sfomuseum:placetype": "flight",
    "src:geom": "sfonoise",
    "wof:belongsto": [
      102191575, 
      85688637, 
      85922583, 
      1159157271, 
      102087579, 
      1679314261, 
      102527513, 
      85633793
    ],
    "wof:country": "US",
    "wof:created": 1582934478,
    "wof:geomhash": "325a27079583eb22ad4e829d7b21e0b3",
    "wof:hierarchy": [
      {
        "building_id": 1159157271,
        "campus_id": 102527513,
        "concourse_id": -1,
        "continent_id": 102191575,
        "country_id": 85633793,
        "county_id": 102087579,
        "event_id": 1679314261,
        "locality_id": 85922583,
        "neighbourhood_id": -1,
        "region_id": 85688637,
        "venue_id": -1,
        "wing_id": -1
      }
    ],
    "wof:id": 1679314261,
    "wof:lastmodified": 1582934478,
    "wof:name": "UAL2150 (SFO-ZSAM)",
    "wof:parent_id": -1,
    "wof:placetype": "event",
    "wof:repo": "sfomuseum-data-flights-2016",
    "wof:superseded_by": [],
    "wof:supersedes": []
  },
  "bbox": [
    -122.370943, 
    24.540839, 
    118.135698, 
    37.61799
  ],
  "geometry": {"coordinates":[[-122.370943,37.61799],[118.135698,24.540839]],"type":"MultiPoint"}
}
