{
  "id": 1662226979,
  "type": "Feature",
  "properties": {
    "edtf:cessation": "2016-04-24~",
    "edtf:inception": "2016-04-24T19:41:28",
    "flysfo:airline": "XP",
    "flysfo:date": "2016-04-24",
    "flysfo:event": "D",
    "flysfo:flight_number": "XP8798",
    "flysfo:journey": "SFO-KENV",
    "geom:area": 0,
    "geom:bbox": "-122.370943,37.617990,-114.029486,40.729692",
    "geom:latitude": 39.173840999999996,
    "geom:longitude": -118.2002145,
    "iata:airline": "XP",
    "icao:aircraft": "B734",
    "icao:airline": "CXP",
    "mz:is_current": -1,
    "sfomuseum:aircraft_id": 1159289859,
    "sfomuseum:airline_id": 1159284117,
    "sfomuseum:arrival_id": 102532037,
    "sfomuseum:departure_id": 102527513,
    "sfomuseum:flight_id": "20160424-D-CXP-8798",
    "sfomuseum:flight_number": [
      "XP8798", 
      "CXP8798"
    ],
    "sfomuseum:placetype": "flight",
    "src:geom": "sfonoise",
    "wof:belongsto": [
      1662226979, 
      1159396321, 
      102527513, 
      85922583, 
      85688637, 
      102191575, 
      85633793, 
      102087579
    ],
    "wof:country": "US",
    "wof:created": 1582924847,
    "wof:geomhash": "227025f2f802e60d997d1ad502116030",
    "wof:hierarchy": [
      {
        "building_id": 1159396321,
        "campus_id": 102527513,
        "concourse_id": -1,
        "continent_id": 102191575,
        "country_id": 85633793,
        "county_id": 102087579,
        "event_id": 1662226979,
        "locality_id": 85922583,
        "neighbourhood_id": -1,
        "region_id": 85688637,
        "venue_id": -1,
        "wing_id": -1
      }
    ],
    "wof:id": 1662226979,
    "wof:lastmodified": 1582924847,
    "wof:name": "CXP8798 (SFO-KENV)",
    "wof:parent_id": -1,
    "wof:placetype": "event",
    "wof:repo": "sfomuseum-data-flights-2016",
    "wof:superseded_by": [],
    "wof:supersedes": []
  },
  "bbox": [
    -122.370943, 
    37.61799, 
    -114.029486, 
    40.729692
  ],
  "geometry": {"coordinates":[[-122.370943,37.61799],[-114.029486,40.729692]],"type":"MultiPoint"}
}
