{
  "id": 1678853181,
  "type": "Feature",
  "properties": {
    "edtf:cessation": "2016-08-30T12:06:44",
    "edtf:inception": "2016-08-30~",
    "flysfo:airline": "AA",
    "flysfo:date": "2016-08-30",
    "flysfo:event": "A",
    "flysfo:flight_number": "AA1572",
    "flysfo:journey": "KACV-SFO",
    "geom:area": 0,
    "geom:bbox": "-124.108020,37.617990,-122.370943,40.971689",
    "geom:latitude": 39.294839499999995,
    "geom:longitude": -123.2394815,
    "iata:airline": "AA",
    "icao:aircraft": "B738",
    "icao:airline": "AAL",
    "mz:is_current": -1,
    "sfomuseum:aircraft_id": 1159289871,
    "sfomuseum:airline_id": 1159283851,
    "sfomuseum:arrival_id": 102527513,
    "sfomuseum:departure_id": 102531997,
    "sfomuseum:flight_id": "20160830-A-AAL-1572",
    "sfomuseum:flight_number": [
      "AA1572", 
      "AAL1572"
    ],
    "sfomuseum:placetype": "flight",
    "src:geom": "sfonoise",
    "wof:belongsto": [
      102087579, 
      1678853181, 
      1159157271, 
      102527513, 
      102191575, 
      85688637, 
      85922583, 
      85633793
    ],
    "wof:country": "US",
    "wof:created": 1582929281,
    "wof:geomhash": "dcc7d5812c5708e8b42757f5054e75d6",
    "wof:hierarchy": [
      {
        "building_id": 1159157271,
        "campus_id": 102527513,
        "concourse_id": -1,
        "continent_id": 102191575,
        "country_id": 85633793,
        "county_id": 102087579,
        "event_id": 1678853181,
        "locality_id": 85922583,
        "neighbourhood_id": -1,
        "region_id": 85688637,
        "venue_id": -1,
        "wing_id": -1
      }
    ],
    "wof:id": 1678853181,
    "wof:lastmodified": 1582929281,
    "wof:name": "AAL1572 (KACV-SFO)",
    "wof:parent_id": -1,
    "wof:placetype": "event",
    "wof:repo": "sfomuseum-data-flights-2016",
    "wof:superseded_by": [],
    "wof:supersedes": []
  },
  "bbox": [
    -124.10802, 
    37.61799, 
    -122.370943, 
    40.971689
  ],
  "geometry": {"coordinates":[[-124.10802,40.971689],[-122.370943,37.61799]],"type":"MultiPoint"}
}
