{
  "id": 1679212747,
  "type": "Feature",
  "properties": {
    "edtf:cessation": "2016-11-24~",
    "edtf:inception": "2016-11-24T18:37:35",
    "flysfo:airline": "SY",
    "flysfo:date": "2016-11-24",
    "flysfo:event": "D",
    "flysfo:flight_number": "SY8874",
    "flysfo:journey": "SFO-KMSN",
    "geom:area": 0,
    "geom:bbox": "-122.370943,37.617990,-89.338240,43.133477",
    "geom:latitude": 40.375733499999996,
    "geom:longitude": -105.8545915,
    "iata:airline": "SY",
    "icao:aircraft": "B738",
    "icao:airline": "SCX",
    "mz:is_current": -1,
    "sfomuseum:aircraft_id": 1159289871,
    "sfomuseum:airline_id": 1159285227,
    "sfomuseum:arrival_id": 102525659,
    "sfomuseum:departure_id": 102527513,
    "sfomuseum:flight_id": "20161124-D-SCX-8874",
    "sfomuseum:flight_number": [
      "SY8874", 
      "SCX8874"
    ],
    "sfomuseum:placetype": "flight",
    "src:geom": "sfonoise",
    "wof:belongsto": [
      102527513, 
      1159157271, 
      102191575, 
      102087579, 
      85922583, 
      85633793, 
      85688637, 
      1679212747
    ],
    "wof:country": "US",
    "wof:created": 1582933499,
    "wof:geomhash": "40b0b0eb9a2216ca79008cabcd236dce",
    "wof:hierarchy": [
      {
        "building_id": 1159157271,
        "campus_id": 102527513,
        "concourse_id": -1,
        "continent_id": 102191575,
        "country_id": 85633793,
        "county_id": 102087579,
        "event_id": 1679212747,
        "locality_id": 85922583,
        "neighbourhood_id": -1,
        "region_id": 85688637,
        "venue_id": -1,
        "wing_id": -1
      }
    ],
    "wof:id": 1679212747,
    "wof:lastmodified": 1582933499,
    "wof:name": "SCX8874 (SFO-KMSN)",
    "wof:parent_id": -1,
    "wof:placetype": "event",
    "wof:repo": "sfomuseum-data-flights-2016",
    "wof:superseded_by": [],
    "wof:supersedes": []
  },
  "bbox": [
    -122.370943, 
    37.61799, 
    -89.33824, 
    43.133477
  ],
  "geometry": {"coordinates":[[-122.370943,37.61799],[-89.33824,43.133477]],"type":"MultiPoint"}
}
