{
  "id": 1629151471,
  "type": "Feature",
  "properties": {
    "edtf:cessation": "2016-06-27~",
    "edtf:inception": "2016-06-27T06:01:56",
    "flysfo:airline": "F9",
    "flysfo:date": "2016-06-27",
    "flysfo:event": "D",
    "flysfo:flight_number": "F9660",
    "flysfo:journey": "SFO-KDEN",
    "geom:area": 0,
    "geom:bbox": "-122.370943,37.617990,-104.672219,39.864939",
    "geom:latitude": 38.7414645,
    "geom:longitude": -113.521581,
    "iata:airline": "F9",
    "icao:aircraft": "A319",
    "icao:airline": "FFT",
    "mz:is_current": -1,
    "sfomuseum:aircraft_id": 1159289407,
    "sfomuseum:airline_id": 1159284401,
    "sfomuseum:arrival_id": 102531189,
    "sfomuseum:departure_id": 102527513,
    "sfomuseum:flight_id": "20160627-D-FFT-660",
    "sfomuseum:flight_number": [
      "F9660", 
      "FFT660"
    ],
    "sfomuseum:placetype": "flight",
    "src:geom": "sfonoise",
    "wof:belongsto": [
      85633793, 
      85688637, 
      102087579, 
      85922583, 
      1159396321, 
      102527513, 
      1629151471, 
      102191575
    ],
    "wof:country": "US",
    "wof:created": 1582926845,
    "wof:geomhash": "976937653dbac6c9c27dd23670ba89bf",
    "wof:hierarchy": [
      {
        "building_id": 1159396321,
        "campus_id": 102527513,
        "concourse_id": -1,
        "continent_id": 102191575,
        "country_id": 85633793,
        "county_id": 102087579,
        "event_id": 1629151471,
        "locality_id": 85922583,
        "neighbourhood_id": -1,
        "region_id": 85688637,
        "venue_id": -1,
        "wing_id": -1
      }
    ],
    "wof:id": 1629151471,
    "wof:lastmodified": 1582926845,
    "wof:name": "FFT660 (SFO-KDEN)",
    "wof:parent_id": -1,
    "wof:placetype": "event",
    "wof:repo": "sfomuseum-data-flights-2016",
    "wof:superseded_by": [],
    "wof:supersedes": []
  },
  "bbox": [
    -122.370943, 
    37.61799, 
    -104.672219, 
    39.864939
  ],
  "geometry": {"coordinates":[[-122.370943,37.61799],[-104.672219,39.864939]],"type":"MultiPoint"}
}
