{
  "id": 1679218463,
  "type": "Feature",
  "properties": {
    "edtf:cessation": "2016-11-26~",
    "edtf:inception": "2016-11-26T18:45:13",
    "flysfo:airline": "UA",
    "flysfo:date": "2016-11-26",
    "flysfo:event": "D",
    "flysfo:flight_number": "UA2254",
    "flysfo:journey": "SFO-KOAK",
    "geom:area": 0,
    "geom:bbox": "-122.370943,37.617990,-122.212464,37.721310",
    "geom:latitude": 37.669650000000004,
    "geom:longitude": -122.2917035,
    "iata:airline": "UA",
    "icao:aircraft": "B753",
    "icao:airline": "UAL",
    "mz:is_current": -1,
    "sfomuseum:aircraft_id": 1159289945,
    "sfomuseum:airline_id": 1159285413,
    "sfomuseum:arrival_id": 102531041,
    "sfomuseum:departure_id": 102527513,
    "sfomuseum:flight_id": "20161126-D-UAL-2254",
    "sfomuseum:flight_number": [
      "UA2254", 
      "UAL2254"
    ],
    "sfomuseum:placetype": "flight",
    "src:geom": "sfonoise",
    "wof:belongsto": [
      1679218463, 
      85688637, 
      102191575, 
      102527513, 
      85633793, 
      102087579, 
      85922583, 
      1159157271
    ],
    "wof:country": "US",
    "wof:created": 1582933548,
    "wof:geomhash": "8933d78fb39ee159acf7eb0738f97ef5",
    "wof:hierarchy": [
      {
        "building_id": 1159157271,
        "campus_id": 102527513,
        "concourse_id": -1,
        "continent_id": 102191575,
        "country_id": 85633793,
        "county_id": 102087579,
        "event_id": 1679218463,
        "locality_id": 85922583,
        "neighbourhood_id": -1,
        "region_id": 85688637,
        "venue_id": -1,
        "wing_id": -1
      }
    ],
    "wof:id": 1679218463,
    "wof:lastmodified": 1582933548,
    "wof:name": "UAL2254 (SFO-KOAK)",
    "wof:parent_id": -1,
    "wof:placetype": "event",
    "wof:repo": "sfomuseum-data-flights-2016",
    "wof:superseded_by": [],
    "wof:supersedes": []
  },
  "bbox": [
    -122.370943, 
    37.61799, 
    -122.212464, 
    37.72131
  ],
  "geometry": {"coordinates":[[-122.370943,37.61799],[-122.212464,37.72131]],"type":"MultiPoint"}
}
