{
  "id": 1662201371,
  "type": "Feature",
  "properties": {
    "edtf:cessation": "2016-04-09T21:32:18",
    "edtf:inception": "2016-04-09~",
    "flysfo:airline": "DL",
    "flysfo:date": "2016-04-09",
    "flysfo:event": "A",
    "flysfo:flight_number": "DL1343",
    "flysfo:journey": "KDTW-SFO",
    "geom:area": 0,
    "geom:bbox": "-122.370943,37.617990,-83.351709,42.218860",
    "geom:latitude": 39.918425,
    "geom:longitude": -102.86132599999999,
    "iata:airline": "DL",
    "icao:aircraft": "B763",
    "icao:airline": "DAL",
    "mz:is_current": -1,
    "sfomuseum:aircraft_id": 1159289965,
    "sfomuseum:airline_id": 1159284261,
    "sfomuseum:arrival_id": 102527513,
    "sfomuseum:departure_id": 102525635,
    "sfomuseum:flight_id": "20160409-A-DAL-1343",
    "sfomuseum:flight_number": [
      "DL1343", 
      "DAL1343"
    ],
    "sfomuseum:placetype": "flight",
    "src:geom": "sfonoise",
    "wof:belongsto": [
      102087579, 
      85922583, 
      102527513, 
      85688637, 
      1662201371, 
      1159396321, 
      102191575, 
      85633793
    ],
    "wof:country": "US",
    "wof:created": 1582924198,
    "wof:geomhash": "a23858bb4e93419105e139a22bd92749",
    "wof:hierarchy": [
      {
        "building_id": 1159396321,
        "campus_id": 102527513,
        "concourse_id": -1,
        "continent_id": 102191575,
        "country_id": 85633793,
        "county_id": 102087579,
        "event_id": 1662201371,
        "locality_id": 85922583,
        "neighbourhood_id": -1,
        "region_id": 85688637,
        "venue_id": -1,
        "wing_id": -1
      }
    ],
    "wof:id": 1662201371,
    "wof:lastmodified": 1582924198,
    "wof:name": "DAL1343 (KDTW-SFO)",
    "wof:parent_id": -1,
    "wof:placetype": "event",
    "wof:repo": "sfomuseum-data-flights-2016",
    "wof:superseded_by": [],
    "wof:supersedes": []
  },
  "bbox": [
    -122.370943, 
    37.61799, 
    -83.351709, 
    42.21886
  ],
  "geometry": {"coordinates":[[-83.351709,42.21886],[-122.370943,37.61799]],"type":"MultiPoint"}
}
