{
  "id": 1662228847,
  "type": "Feature",
  "properties": {
    "edtf:cessation": "2016-04-25T19:32:52",
    "edtf:inception": "2016-04-25~",
    "flysfo:airline": "UA",
    "flysfo:date": "2016-04-25",
    "flysfo:event": "A",
    "flysfo:flight_number": "UA2295",
    "flysfo:journey": "KRIV-SFO",
    "geom:area": 0,
    "geom:bbox": "-122.370943,33.896471,-117.254857,37.617990",
    "geom:latitude": 35.7572305,
    "geom:longitude": -119.8129,
    "iata:airline": "UA",
    "icao:aircraft": "B744",
    "icao:airline": "UAL",
    "mz:is_current": -1,
    "sfomuseum:aircraft_id": 1159289915,
    "sfomuseum:airline_id": 1159285413,
    "sfomuseum:arrival_id": 102527513,
    "sfomuseum:departure_id": 102533771,
    "sfomuseum:flight_id": "20160425-A-UAL-2295",
    "sfomuseum:flight_number": [
      "UA2295", 
      "UAL2295"
    ],
    "sfomuseum:placetype": "flight",
    "src:geom": "sfonoise",
    "wof:belongsto": [
      85922583, 
      102527513, 
      85688637, 
      85633793, 
      102087579, 
      1662228847, 
      1159396321, 
      102191575
    ],
    "wof:country": "US",
    "wof:created": 1582924889,
    "wof:geomhash": "c888892536f476de40ea9a710a0261ab",
    "wof:hierarchy": [
      {
        "building_id": 1159396321,
        "campus_id": 102527513,
        "concourse_id": -1,
        "continent_id": 102191575,
        "country_id": 85633793,
        "county_id": 102087579,
        "event_id": 1662228847,
        "locality_id": 85922583,
        "neighbourhood_id": -1,
        "region_id": 85688637,
        "venue_id": -1,
        "wing_id": -1
      }
    ],
    "wof:id": 1662228847,
    "wof:lastmodified": 1582924889,
    "wof:name": "UAL2295 (KRIV-SFO)",
    "wof:parent_id": -1,
    "wof:placetype": "event",
    "wof:repo": "sfomuseum-data-flights-2016",
    "wof:superseded_by": [],
    "wof:supersedes": []
  },
  "bbox": [
    -122.370943, 
    33.896471, 
    -117.254857, 
    37.61799
  ],
  "geometry": {"coordinates":[[-117.254857,33.896471],[-122.370943,37.61799]],"type":"MultiPoint"}
}
