{
  "id": 1662303207,
  "type": "Feature",
  "properties": {
    "edtf:cessation": "2016-06-05T00:28:28",
    "edtf:inception": "2016-06-05~",
    "flysfo:airline": "UA",
    "flysfo:date": "2016-06-05",
    "flysfo:event": "A",
    "flysfo:flight_number": "UA2246",
    "flysfo:journey": "KBFI-SFO",
    "geom:area": 0,
    "geom:bbox": "-122.370943,37.617990,-122.301589,47.536582",
    "geom:latitude": 42.577286,
    "geom:longitude": -122.336266,
    "iata:airline": "UA",
    "icao:aircraft": "B738",
    "icao:airline": "UAL",
    "mz:is_current": -1,
    "sfomuseum:aircraft_id": 1159289871,
    "sfomuseum:airline_id": 1159285413,
    "sfomuseum:arrival_id": 102527513,
    "sfomuseum:departure_id": 102527671,
    "sfomuseum:flight_id": "20160605-A-UAL-2246",
    "sfomuseum:flight_number": [
      "UA2246", 
      "UAL2246"
    ],
    "sfomuseum:placetype": "flight",
    "src:geom": "sfonoise",
    "wof:belongsto": [
      1662303207, 
      85688637, 
      1159396321, 
      102191575, 
      102087579, 
      85922583, 
      85633793, 
      102527513
    ],
    "wof:country": "US",
    "wof:created": 1582926213,
    "wof:geomhash": "968bb026a0fa1cef9842447a45b980d7",
    "wof:hierarchy": [
      {
        "building_id": 1159396321,
        "campus_id": 102527513,
        "concourse_id": -1,
        "continent_id": 102191575,
        "country_id": 85633793,
        "county_id": 102087579,
        "event_id": 1662303207,
        "locality_id": 85922583,
        "neighbourhood_id": -1,
        "region_id": 85688637,
        "venue_id": -1,
        "wing_id": -1
      }
    ],
    "wof:id": 1662303207,
    "wof:lastmodified": 1582926213,
    "wof:name": "UAL2246 (KBFI-SFO)",
    "wof:parent_id": -1,
    "wof:placetype": "event",
    "wof:repo": "sfomuseum-data-flights-2016",
    "wof:superseded_by": [],
    "wof:supersedes": []
  },
  "bbox": [
    -122.370943, 
    37.61799, 
    -122.301589, 
    47.536582
  ],
  "geometry": {"coordinates":[[-122.301589,47.536582],[-122.370943,37.61799]],"type":"MultiPoint"}
}
