{
  "id": 1679067809,
  "type": "Feature",
  "properties": {
    "edtf:cessation": "2016-10-16T12:47:15",
    "edtf:inception": "2016-10-16~",
    "flysfo:airline": "WN",
    "flysfo:date": "2016-10-16",
    "flysfo:event": "A",
    "flysfo:flight_number": "WN3084",
    "flysfo:journey": "KMCI-SFO",
    "geom:area": 0,
    "geom:bbox": "-122.370943,37.617990,-94.716176,39.304107",
    "geom:latitude": 38.461048500000004,
    "geom:longitude": -108.5435595,
    "iata:airline": "WN",
    "icao:aircraft": "B738",
    "icao:airline": "SWA",
    "mz:is_current": -1,
    "sfomuseum:aircraft_id": 1159289871,
    "sfomuseum:airline_id": 1159285591,
    "sfomuseum:arrival_id": 102527513,
    "sfomuseum:departure_id": 102533051,
    "sfomuseum:flight_id": "20161016-A-SWA-3084",
    "sfomuseum:flight_number": [
      "WN3084", 
      "SWA3084"
    ],
    "sfomuseum:placetype": "flight",
    "src:geom": "sfonoise",
    "wof:belongsto": [
      1679067809, 
      85922583, 
      85633793, 
      102087579, 
      85688637, 
      102191575, 
      102527513, 
      1159157271
    ],
    "wof:country": "US",
    "wof:created": 1582931942,
    "wof:geomhash": "35ddb46351d590846e83b74bc4468cc8",
    "wof:hierarchy": [
      {
        "building_id": 1159157271,
        "campus_id": 102527513,
        "concourse_id": -1,
        "continent_id": 102191575,
        "country_id": 85633793,
        "county_id": 102087579,
        "event_id": 1679067809,
        "locality_id": 85922583,
        "neighbourhood_id": -1,
        "region_id": 85688637,
        "venue_id": -1,
        "wing_id": -1
      }
    ],
    "wof:id": 1679067809,
    "wof:lastmodified": 1582931942,
    "wof:name": "SWA3084 (KMCI-SFO)",
    "wof:parent_id": -1,
    "wof:placetype": "event",
    "wof:repo": "sfomuseum-data-flights-2016",
    "wof:superseded_by": [],
    "wof:supersedes": []
  },
  "bbox": [
    -122.370943, 
    37.61799, 
    -94.716176, 
    39.304107
  ],
  "geometry": {"coordinates":[[-94.716176,39.304107],[-122.370943,37.61799]],"type":"MultiPoint"}
}
