{
  "id": 1662139689,
  "type": "Feature",
  "properties": {
    "edtf:cessation": "2016-03-04~",
    "edtf:inception": "2016-03-04T09:52:41",
    "flysfo:airline": "UA",
    "flysfo:date": "2016-03-04",
    "flysfo:event": "D",
    "flysfo:flight_number": "UA2296",
    "flysfo:journey": "SFO-KVCV",
    "geom:area": 0,
    "geom:bbox": "-122.370943,34.581613,-117.374502,37.617990",
    "geom:latitude": 36.0998015,
    "geom:longitude": -119.87272250000001,
    "iata:airline": "UA",
    "icao:aircraft": "B772",
    "icao:airline": "UAL",
    "mz:is_current": -1,
    "sfomuseum:aircraft_id": 1159289985,
    "sfomuseum:airline_id": 1159285413,
    "sfomuseum:arrival_id": 102530801,
    "sfomuseum:departure_id": 102527513,
    "sfomuseum:flight_id": "20160304-D-UAL-2296",
    "sfomuseum:flight_number": [
      "UA2296", 
      "UAL2296"
    ],
    "sfomuseum:placetype": "flight",
    "src:geom": "sfonoise",
    "wof:belongsto": [
      102191575, 
      85633793, 
      85688637, 
      1159396321, 
      85922583, 
      102527513, 
      102087579, 
      1662139689
    ],
    "wof:country": "US",
    "wof:created": 1582923391,
    "wof:geomhash": "40a575d271046e5423fe379346e0e87e",
    "wof:hierarchy": [
      {
        "building_id": 1159396321,
        "campus_id": 102527513,
        "concourse_id": -1,
        "continent_id": 102191575,
        "country_id": 85633793,
        "county_id": 102087579,
        "event_id": 1662139689,
        "locality_id": 85922583,
        "neighbourhood_id": -1,
        "region_id": 85688637,
        "venue_id": -1,
        "wing_id": -1
      }
    ],
    "wof:id": 1662139689,
    "wof:lastmodified": 1582923391,
    "wof:name": "UAL2296 (SFO-KVCV)",
    "wof:parent_id": -1,
    "wof:placetype": "event",
    "wof:repo": "sfomuseum-data-flights-2016",
    "wof:superseded_by": [],
    "wof:supersedes": []
  },
  "bbox": [
    -122.370943, 
    34.581613, 
    -117.374502, 
    37.61799
  ],
  "geometry": {"coordinates":[[-122.370943,37.61799],[-117.374502,34.581613]],"type":"MultiPoint"}
}
