{
  "id": 1629076217,
  "type": "Feature",
  "properties": {
    "edtf:cessation": "2016-01-11~",
    "edtf:inception": "2016-01-11T07:53:55",
    "flysfo:airline": "UA",
    "flysfo:date": "2016-01-11",
    "flysfo:event": "D",
    "flysfo:flight_number": "UA1993",
    "flysfo:journey": "SFO-DFW",
    "geom:area": 0,
    "geom:bbox": "-122.370943,32.903660,-97.050966,37.617990",
    "geom:latitude": 35.260825,
    "geom:longitude": -109.7109545,
    "iata:airline": "UA",
    "icao:aircraft": "A319",
    "icao:airline": "UAL",
    "mz:is_current": -1,
    "sfomuseum:aircraft_id": 1159289407,
    "sfomuseum:airline_id": 1159285413,
    "sfomuseum:arrival_id": 102528541,
    "sfomuseum:departure_id": 102527513,
    "sfomuseum:flight_id": "20160111-D-UAL-1993",
    "sfomuseum:flight_number": [
      "UA1993", 
      "UAL1993"
    ],
    "sfomuseum:placetype": "flight",
    "src:geom": "sfonoise",
    "wof:belongsto": [
      85633793, 
      1159396321, 
      102191575, 
      102527513, 
      85688637, 
      102087579, 
      1629076217, 
      85922583
    ],
    "wof:country": "US",
    "wof:created": 1582922107,
    "wof:geomhash": "5e0f3a871c366f60ae43a6e5fe25b717",
    "wof:hierarchy": [
      {
        "building_id": 1159396321,
        "campus_id": 102527513,
        "concourse_id": -1,
        "continent_id": 102191575,
        "country_id": 85633793,
        "county_id": 102087579,
        "event_id": 1629076217,
        "locality_id": 85922583,
        "neighbourhood_id": -1,
        "region_id": 85688637,
        "venue_id": -1,
        "wing_id": -1
      }
    ],
    "wof:id": 1629076217,
    "wof:lastmodified": 1582922107,
    "wof:name": "UAL1993 (SFO-DFW)",
    "wof:parent_id": -1,
    "wof:placetype": "event",
    "wof:repo": "sfomuseum-data-flights-2016",
    "wof:superseded_by": [],
    "wof:supersedes": []
  },
  "bbox": [
    -122.370943, 
    32.90366, 
    -97.050966, 
    37.61799
  ],
  "geometry": {"coordinates":[[-122.370943,37.61799],[-97.050966,32.90366]],"type":"MultiPoint"}
}
