{
  "id": 1662248055,
  "type": "Feature",
  "properties": {
    "edtf:cessation": "2016-05-06~",
    "edtf:inception": "2016-05-06T14:52:26",
    "flysfo:airline": "WN",
    "flysfo:date": "2016-05-06",
    "flysfo:event": "D",
    "flysfo:flight_number": "WN3113",
    "flysfo:journey": "SFO-PHX",
    "geom:area": 0,
    "geom:bbox": "-122.370943,33.432684,-112.017392,37.617990",
    "geom:latitude": 35.525337,
    "geom:longitude": -117.19416749999999,
    "iata:airline": "WN",
    "icao:aircraft": "B733",
    "icao:airline": "SWA",
    "mz:is_current": -1,
    "sfomuseum:aircraft_id": 1159289851,
    "sfomuseum:airline_id": 1159285591,
    "sfomuseum:arrival_id": 102526751,
    "sfomuseum:departure_id": 102527513,
    "sfomuseum:flight_id": "20160506-D-SWA-3113",
    "sfomuseum:flight_number": [
      "WN3113", 
      "SWA3113"
    ],
    "sfomuseum:placetype": "flight",
    "src:geom": "sfonoise",
    "wof:belongsto": [
      102087579, 
      1662248055, 
      102527513, 
      1159396321, 
      102191575, 
      85633793, 
      85922583, 
      85688637
    ],
    "wof:country": "US",
    "wof:created": 1582925305,
    "wof:geomhash": "2a19f056fd5d16c52f22f1bf5dc85c9c",
    "wof:hierarchy": [
      {
        "building_id": 1159396321,
        "campus_id": 102527513,
        "concourse_id": -1,
        "continent_id": 102191575,
        "country_id": 85633793,
        "county_id": 102087579,
        "event_id": 1662248055,
        "locality_id": 85922583,
        "neighbourhood_id": -1,
        "region_id": 85688637,
        "venue_id": -1,
        "wing_id": -1
      }
    ],
    "wof:id": 1662248055,
    "wof:lastmodified": 1582925305,
    "wof:name": "SWA3113 (SFO-PHX)",
    "wof:parent_id": -1,
    "wof:placetype": "event",
    "wof:repo": "sfomuseum-data-flights-2016",
    "wof:superseded_by": [],
    "wof:supersedes": []
  },
  "bbox": [
    -122.370943, 
    33.432684, 
    -112.017392, 
    37.61799
  ],
  "geometry": {"coordinates":[[-122.370943,37.61799],[-112.017392,33.432684]],"type":"MultiPoint"}
}
