{
  "id": 1662109651,
  "type": "Feature",
  "properties": {
    "edtf:cessation": "2016-02-13T12:21:24",
    "edtf:inception": "2016-02-13~",
    "flysfo:airline": "KZ",
    "flysfo:date": "2016-02-13",
    "flysfo:event": "A",
    "flysfo:flight_number": "KZ152",
    "flysfo:journey": "RJAA-SFO",
    "geom:area": 0,
    "geom:bbox": "-122.370943,35.755744,140.395257,37.617990",
    "geom:latitude": 36.686867,
    "geom:longitude": 9.012156999999995,
    "iata:airline": "KZ",
    "icao:aircraft": "B748",
    "icao:airline": "NCA",
    "mz:is_current": -1,
    "sfomuseum:aircraft_id": 1159293239,
    "sfomuseum:airline_id": 1159284873,
    "sfomuseum:arrival_id": 102527513,
    "sfomuseum:departure_id": 102541685,
    "sfomuseum:flight_id": "20160213-A-NCA-152",
    "sfomuseum:flight_number": [
      "KZ152", 
      "NCA152"
    ],
    "sfomuseum:placetype": "flight",
    "src:geom": "sfonoise",
    "wof:belongsto": [
      85633793, 
      1159396321, 
      102191575, 
      102527513, 
      85922583, 
      85688637, 
      102087579, 
      1662109651
    ],
    "wof:country": "US",
    "wof:created": 1582922813,
    "wof:geomhash": "d46bcc8d1d94e68df95be799ac6a3b4c",
    "wof:hierarchy": [
      {
        "building_id": 1159396321,
        "campus_id": 102527513,
        "concourse_id": -1,
        "continent_id": 102191575,
        "country_id": 85633793,
        "county_id": 102087579,
        "event_id": 1662109651,
        "locality_id": 85922583,
        "neighbourhood_id": -1,
        "region_id": 85688637,
        "venue_id": -1,
        "wing_id": -1
      }
    ],
    "wof:id": 1662109651,
    "wof:lastmodified": 1582922813,
    "wof:name": "NCA152 (RJAA-SFO)",
    "wof:parent_id": -1,
    "wof:placetype": "event",
    "wof:repo": "sfomuseum-data-flights-2016",
    "wof:superseded_by": [],
    "wof:supersedes": []
  },
  "bbox": [
    -122.370943, 
    35.755744, 
    140.395257, 
    37.61799
  ],
  "geometry": {"coordinates":[[140.395257,35.755744],[-122.370943,37.61799]],"type":"MultiPoint"}
}
