{
  "id": 1629270985,
  "type": "Feature",
  "properties": {
    "edtf:cessation": "2016-07-27T12:16:22",
    "edtf:inception": "2016-07-27~",
    "flysfo:airline": "HA",
    "flysfo:date": "2016-07-27",
    "flysfo:event": "A",
    "flysfo:flight_number": "HA41",
    "flysfo:journey": "KSFO-SFO",
    "geom:area": 0,
    "geom:bbox": "-122.370943,37.617990,-122.370943,37.617990",
    "geom:latitude": 37.61799,
    "geom:longitude": -122.370943,
    "iata:airline": "HA",
    "icao:aircraft": "A332",
    "icao:airline": "HAL",
    "mz:is_current": -1,
    "sfomuseum:aircraft_id": 1159289421,
    "sfomuseum:airline_id": 1159284489,
    "sfomuseum:arrival_id": 102527513,
    "sfomuseum:departure_id": 102527513,
    "sfomuseum:flight_id": "20160727-A-HAL-41",
    "sfomuseum:flight_number": [
      "HA41", 
      "HAL41"
    ],
    "sfomuseum:placetype": "flight",
    "src:geom": "sfonoise",
    "wof:belongsto": [
      1159157271, 
      85633793, 
      102087579, 
      85922583, 
      85688637, 
      102527513, 
      102191575, 
      1629270985
    ],
    "wof:country": "US",
    "wof:created": 1582927762,
    "wof:geomhash": "f780d59ec1f4d1acb53d14db45159ea5",
    "wof:hierarchy": [
      {
        "building_id": 1159157271,
        "campus_id": 102527513,
        "concourse_id": -1,
        "continent_id": 102191575,
        "country_id": 85633793,
        "county_id": 102087579,
        "event_id": 1629270985,
        "locality_id": 85922583,
        "neighbourhood_id": -1,
        "region_id": 85688637,
        "venue_id": -1,
        "wing_id": -1
      }
    ],
    "wof:id": 1629270985,
    "wof:lastmodified": 1582927762,
    "wof:name": "HAL41 (KSFO-SFO)",
    "wof:parent_id": -1,
    "wof:placetype": "event",
    "wof:repo": "sfomuseum-data-flights-2016",
    "wof:superseded_by": [],
    "wof:supersedes": []
  },
  "bbox": [
    -122.370943, 
    37.61799, 
    -122.370943, 
    37.61799
  ],
  "geometry": {"coordinates":[[-122.370943,37.61799],[-122.370943,37.61799]],"type":"MultiPoint"}
}
