{
  "id": 1629106097,
  "type": "Feature",
  "properties": {
    "edtf:cessation": "2016-04-14T17:26:23",
    "edtf:inception": "2016-04-14~",
    "flysfo:airline": "WN",
    "flysfo:date": "2016-04-14",
    "flysfo:event": "A",
    "flysfo:flight_number": "WN1859",
    "flysfo:journey": "KSNA-SFO",
    "geom:area": 0,
    "geom:bbox": "-122.370943,33.677724,-117.866280,37.617990",
    "geom:latitude": 35.647857,
    "geom:longitude": -120.1186115,
    "iata:airline": "WN",
    "icao:aircraft": "B737",
    "icao:airline": "SWA",
    "mz:is_current": -1,
    "sfomuseum:aircraft_id": 1159289869,
    "sfomuseum:airline_id": 1159285591,
    "sfomuseum:arrival_id": 102527513,
    "sfomuseum:departure_id": 102534161,
    "sfomuseum:flight_id": "20160414-A-SWA-1859",
    "sfomuseum:flight_number": [
      "WN1859", 
      "SWA1859"
    ],
    "sfomuseum:placetype": "flight",
    "src:geom": "sfonoise",
    "wof:belongsto": [
      85633793, 
      102087579, 
      102191575, 
      102527513, 
      85688637, 
      1629106097, 
      1159396321, 
      85922583
    ],
    "wof:country": "US",
    "wof:created": 1582924434,
    "wof:geomhash": "01009f732d03a7803d3f7fd23cf321f4",
    "wof:hierarchy": [
      {
        "building_id": 1159396321,
        "campus_id": 102527513,
        "concourse_id": -1,
        "continent_id": 102191575,
        "country_id": 85633793,
        "county_id": 102087579,
        "event_id": 1629106097,
        "locality_id": 85922583,
        "neighbourhood_id": -1,
        "region_id": 85688637,
        "venue_id": -1,
        "wing_id": -1
      }
    ],
    "wof:id": 1629106097,
    "wof:lastmodified": 1582924434,
    "wof:name": "SWA1859 (KSNA-SFO)",
    "wof:parent_id": -1,
    "wof:placetype": "event",
    "wof:repo": "sfomuseum-data-flights-2016",
    "wof:superseded_by": [],
    "wof:supersedes": []
  },
  "bbox": [
    -122.370943, 
    33.677724, 
    -117.86628, 
    37.61799
  ],
  "geometry": {"coordinates":[[-117.86628,33.677724],[-122.370943,37.61799]],"type":"MultiPoint"}
}
