{
  "id": 1662307153,
  "type": "Feature",
  "properties": {
    "edtf:cessation": "2016-06-08T07:06:57",
    "edtf:inception": "2016-06-08~",
    "flysfo:airline": "UA",
    "flysfo:date": "2016-06-08",
    "flysfo:event": "A",
    "flysfo:flight_number": "UA728",
    "flysfo:journey": "KLAS-SFO",
    "geom:area": 0,
    "geom:bbox": "-122.370943,36.081003,-115.156440,37.617990",
    "geom:latitude": 36.8494965,
    "geom:longitude": -118.7636915,
    "iata:airline": "UA",
    "icao:aircraft": "B739",
    "icao:airline": "UAL",
    "mz:is_current": -1,
    "sfomuseum:aircraft_id": 1377564285,
    "sfomuseum:airline_id": 1159285413,
    "sfomuseum:arrival_id": 102527513,
    "sfomuseum:departure_id": 102527209,
    "sfomuseum:flight_id": "20160608-A-UAL-728",
    "sfomuseum:flight_number": [
      "UA728", 
      "UAL728"
    ],
    "sfomuseum:placetype": "flight",
    "src:geom": "sfonoise",
    "wof:belongsto": [
      85633793, 
      1662307153, 
      102191575, 
      102087579, 
      102527513, 
      85688637, 
      1159396321, 
      85922583
    ],
    "wof:country": "US",
    "wof:created": 1582926270,
    "wof:geomhash": "fcf5095e8d1a14d003993bc5070a7f0f",
    "wof:hierarchy": [
      {
        "building_id": 1159396321,
        "campus_id": 102527513,
        "concourse_id": -1,
        "continent_id": 102191575,
        "country_id": 85633793,
        "county_id": 102087579,
        "event_id": 1662307153,
        "locality_id": 85922583,
        "neighbourhood_id": -1,
        "region_id": 85688637,
        "venue_id": -1,
        "wing_id": -1
      }
    ],
    "wof:id": 1662307153,
    "wof:lastmodified": 1582926270,
    "wof:name": "UAL728 (KLAS-SFO)",
    "wof:parent_id": -1,
    "wof:placetype": "event",
    "wof:repo": "sfomuseum-data-flights-2016",
    "wof:superseded_by": [],
    "wof:supersedes": []
  },
  "bbox": [
    -122.370943, 
    36.081003, 
    -115.15644, 
    37.61799
  ],
  "geometry": {"coordinates":[[-115.15644,36.081003],[-122.370943,37.61799]],"type":"MultiPoint"}
}
