{
  "id": 1662272319,
  "type": "Feature",
  "properties": {
    "edtf:cessation": "2016-05-19T22:54:59",
    "edtf:inception": "2016-05-19~",
    "flysfo:airline": "UA",
    "flysfo:date": "2016-05-19",
    "flysfo:event": "A",
    "flysfo:flight_number": "UA2209",
    "flysfo:journey": "MKE-SFO",
    "geom:area": 0,
    "geom:bbox": "-122.370943,37.617990,-87.896339,42.949572",
    "geom:latitude": 40.283781000000005,
    "geom:longitude": -105.133641,
    "iata:airline": "UA",
    "icao:aircraft": "B739",
    "icao:airline": "UAL",
    "mz:is_current": -1,
    "sfomuseum:aircraft_id": 1377564285,
    "sfomuseum:airline_id": 1159285413,
    "sfomuseum:arrival_id": 102527513,
    "sfomuseum:departure_id": 102530849,
    "sfomuseum:flight_id": "20160519-A-UAL-2209",
    "sfomuseum:flight_number": [
      "UA2209", 
      "UAL2209"
    ],
    "sfomuseum:placetype": "flight",
    "src:geom": "sfonoise",
    "wof:belongsto": [
      102527513, 
      85922583, 
      1159396321, 
      85688637, 
      102191575, 
      85633793, 
      102087579, 
      1662272319
    ],
    "wof:country": "US",
    "wof:created": 1582925684,
    "wof:geomhash": "1e284fd777a7bf1f8b464fea635cfcb1",
    "wof:hierarchy": [
      {
        "building_id": 1159396321,
        "campus_id": 102527513,
        "concourse_id": -1,
        "continent_id": 102191575,
        "country_id": 85633793,
        "county_id": 102087579,
        "event_id": 1662272319,
        "locality_id": 85922583,
        "neighbourhood_id": -1,
        "region_id": 85688637,
        "venue_id": -1,
        "wing_id": -1
      }
    ],
    "wof:id": 1662272319,
    "wof:lastmodified": 1582925684,
    "wof:name": "UAL2209 (MKE-SFO)",
    "wof:parent_id": -1,
    "wof:placetype": "event",
    "wof:repo": "sfomuseum-data-flights-2016",
    "wof:superseded_by": [],
    "wof:supersedes": []
  },
  "bbox": [
    -122.370943, 
    37.61799, 
    -87.896339, 
    42.949572
  ],
  "geometry": {"coordinates":[[-87.896339,42.949572],[-122.370943,37.61799]],"type":"MultiPoint"}
}
