{
  "id": 1662257321,
  "type": "Feature",
  "properties": {
    "edtf:cessation": "2016-05-11~",
    "edtf:inception": "2016-05-11T19:18:45",
    "flysfo:airline": "AC",
    "flysfo:date": "2016-05-11",
    "flysfo:event": "D",
    "flysfo:flight_number": "AC7032",
    "flysfo:journey": "SFO-KDAL",
    "geom:area": 0,
    "geom:bbox": "-122.370943,32.845849,-96.850523,37.617990",
    "geom:latitude": 35.231919500000004,
    "geom:longitude": -109.610733,
    "iata:airline": "AC",
    "icao:aircraft": "A319",
    "icao:airline": "ACA",
    "mz:is_current": -1,
    "sfomuseum:aircraft_id": 1159289407,
    "sfomuseum:airline_id": 1159283597,
    "sfomuseum:arrival_id": 102525799,
    "sfomuseum:departure_id": 102527513,
    "sfomuseum:flight_id": "20160511-D-ACA-7032",
    "sfomuseum:flight_number": [
      "AC7032", 
      "ACA7032"
    ],
    "sfomuseum:placetype": "flight",
    "src:geom": "sfonoise",
    "wof:belongsto": [
      102191575, 
      85633793, 
      1159396321, 
      102087579, 
      85688637, 
      102527513, 
      1662257321, 
      85922583
    ],
    "wof:country": "US",
    "wof:created": 1582925454,
    "wof:geomhash": "a08c5b1a6c329f228ec453404f254a51",
    "wof:hierarchy": [
      {
        "building_id": 1159396321,
        "campus_id": 102527513,
        "concourse_id": -1,
        "continent_id": 102191575,
        "country_id": 85633793,
        "county_id": 102087579,
        "event_id": 1662257321,
        "locality_id": 85922583,
        "neighbourhood_id": -1,
        "region_id": 85688637,
        "venue_id": -1,
        "wing_id": -1
      }
    ],
    "wof:id": 1662257321,
    "wof:lastmodified": 1582925454,
    "wof:name": "ACA7032 (SFO-KDAL)",
    "wof:parent_id": -1,
    "wof:placetype": "event",
    "wof:repo": "sfomuseum-data-flights-2016",
    "wof:superseded_by": [],
    "wof:supersedes": []
  },
  "bbox": [
    -122.370943, 
    32.845849, 
    -96.850523, 
    37.61799
  ],
  "geometry": {"coordinates":[[-122.370943,37.61799],[-96.850523,32.845849]],"type":"MultiPoint"}
}
