{
  "id": 1662115643,
  "type": "Feature",
  "properties": {
    "edtf:cessation": "2016-02-17~",
    "edtf:inception": "2016-02-17T11:43:05",
    "flysfo:airline": "AA",
    "flysfo:date": "2016-02-17",
    "flysfo:event": "D",
    "flysfo:flight_number": "AA145Q",
    "flysfo:journey": "SFO-KORD",
    "geom:area": 0,
    "geom:bbox": "-122.370943,37.617990,-87.894364,41.983038",
    "geom:latitude": 39.800514,
    "geom:longitude": -105.1326535,
    "iata:airline": "AA",
    "icao:aircraft": "B738",
    "icao:airline": "AAL",
    "mz:is_current": -1,
    "sfomuseum:aircraft_id": 1159289871,
    "sfomuseum:airline_id": 1159283851,
    "sfomuseum:arrival_id": 102533631,
    "sfomuseum:departure_id": 102527513,
    "sfomuseum:flight_id": "20160217-D-AAL-145Q",
    "sfomuseum:flight_number": [
      "AA145Q", 
      "AAL145Q"
    ],
    "sfomuseum:placetype": "flight",
    "src:geom": "sfonoise",
    "wof:belongsto": [
      85688637, 
      1159396321, 
      102527513, 
      102191575, 
      1662115643, 
      85922583, 
      85633793, 
      102087579
    ],
    "wof:country": "US",
    "wof:created": 1582922927,
    "wof:geomhash": "7a75cc81bf790964b92a4927d3978f50",
    "wof:hierarchy": [
      {
        "building_id": 1159396321,
        "campus_id": 102527513,
        "concourse_id": -1,
        "continent_id": 102191575,
        "country_id": 85633793,
        "county_id": 102087579,
        "event_id": 1662115643,
        "locality_id": 85922583,
        "neighbourhood_id": -1,
        "region_id": 85688637,
        "venue_id": -1,
        "wing_id": -1
      }
    ],
    "wof:id": 1662115643,
    "wof:lastmodified": 1582922927,
    "wof:name": "AAL145Q (SFO-KORD)",
    "wof:parent_id": -1,
    "wof:placetype": "event",
    "wof:repo": "sfomuseum-data-flights-2016",
    "wof:superseded_by": [],
    "wof:supersedes": []
  },
  "bbox": [
    -122.370943, 
    37.61799, 
    -87.894364, 
    41.983038
  ],
  "geometry": {"coordinates":[[-122.370943,37.61799],[-87.894364,41.983038]],"type":"MultiPoint"}
}
