{
  "id": 1662221993,
  "type": "Feature",
  "properties": {
    "edtf:cessation": "2016-04-21T20:26:50",
    "edtf:inception": "2016-04-21~",
    "flysfo:airline": "XP",
    "flysfo:date": "2016-04-21",
    "flysfo:event": "A",
    "flysfo:flight_number": "XP8744",
    "flysfo:journey": "KISO-SFO",
    "geom:area": 0,
    "geom:bbox": "-122.370943,35.331402,-77.608803,37.617990",
    "geom:latitude": 36.474695999999994,
    "geom:longitude": -99.98987299999999,
    "iata:airline": "XP",
    "icao:aircraft": "B734",
    "icao:airline": "CXP",
    "mz:is_current": -1,
    "sfomuseum:aircraft_id": 1159289859,
    "sfomuseum:airline_id": 1159284117,
    "sfomuseum:arrival_id": 102527513,
    "sfomuseum:departure_id": 102532971,
    "sfomuseum:flight_id": "20160421-A-CXP-8744",
    "sfomuseum:flight_number": [
      "XP8744", 
      "CXP8744"
    ],
    "sfomuseum:placetype": "flight",
    "src:geom": "sfonoise",
    "wof:belongsto": [
      85688637, 
      85922583, 
      85633793, 
      102087579, 
      1662221993, 
      102527513, 
      102191575, 
      1159396321
    ],
    "wof:country": "US",
    "wof:created": 1582924737,
    "wof:geomhash": "051599f89b8a0e03052a888edb07928a",
    "wof:hierarchy": [
      {
        "building_id": 1159396321,
        "campus_id": 102527513,
        "concourse_id": -1,
        "continent_id": 102191575,
        "country_id": 85633793,
        "county_id": 102087579,
        "event_id": 1662221993,
        "locality_id": 85922583,
        "neighbourhood_id": -1,
        "region_id": 85688637,
        "venue_id": -1,
        "wing_id": -1
      }
    ],
    "wof:id": 1662221993,
    "wof:lastmodified": 1582924737,
    "wof:name": "CXP8744 (KISO-SFO)",
    "wof:parent_id": -1,
    "wof:placetype": "event",
    "wof:repo": "sfomuseum-data-flights-2016",
    "wof:superseded_by": [],
    "wof:supersedes": []
  },
  "bbox": [
    -122.370943, 
    35.331402, 
    -77.608803, 
    37.61799
  ],
  "geometry": {"coordinates":[[-77.608803,35.331402],[-122.370943,37.61799]],"type":"MultiPoint"}
}
