{
  "id": 1662233179,
  "type": "Feature",
  "properties": {
    "edtf:cessation": "2016-04-28~",
    "edtf:inception": "2016-04-28T08:57:05",
    "flysfo:airline": "UA",
    "flysfo:date": "2016-04-28",
    "flysfo:event": "D",
    "flysfo:flight_number": "UA2290",
    "flysfo:journey": "SFO-KNKT",
    "geom:area": 0,
    "geom:bbox": "-122.370943,34.904856,-76.888579,37.617990",
    "geom:latitude": 36.261423,
    "geom:longitude": -99.629761,
    "iata:airline": "UA",
    "icao:aircraft": "B744",
    "icao:airline": "UAL",
    "mz:is_current": -1,
    "sfomuseum:aircraft_id": 1159289915,
    "sfomuseum:airline_id": 1159285413,
    "sfomuseum:arrival_id": 102531365,
    "sfomuseum:departure_id": 102527513,
    "sfomuseum:flight_id": "20160428-D-UAL-2290",
    "sfomuseum:flight_number": [
      "UA2290", 
      "UAL2290"
    ],
    "sfomuseum:placetype": "flight",
    "src:geom": "sfonoise",
    "wof:belongsto": [
      102191575, 
      85688637, 
      85633793, 
      85922583, 
      1159396321, 
      102527513, 
      102087579, 
      1662233179
    ],
    "wof:country": "US",
    "wof:created": 1582924986,
    "wof:geomhash": "33f79d9a71ba6f44431bbf4e88fa910b",
    "wof:hierarchy": [
      {
        "building_id": 1159396321,
        "campus_id": 102527513,
        "concourse_id": -1,
        "continent_id": 102191575,
        "country_id": 85633793,
        "county_id": 102087579,
        "event_id": 1662233179,
        "locality_id": 85922583,
        "neighbourhood_id": -1,
        "region_id": 85688637,
        "venue_id": -1,
        "wing_id": -1
      }
    ],
    "wof:id": 1662233179,
    "wof:lastmodified": 1582924986,
    "wof:name": "UAL2290 (SFO-KNKT)",
    "wof:parent_id": -1,
    "wof:placetype": "event",
    "wof:repo": "sfomuseum-data-flights-2016",
    "wof:superseded_by": [],
    "wof:supersedes": []
  },
  "bbox": [
    -122.370943, 
    34.904856, 
    -76.888579, 
    37.61799
  ],
  "geometry": {"coordinates":[[-122.370943,37.61799],[-76.888579,34.904856]],"type":"MultiPoint"}
}
