{
  "id": 1662064323,
  "type": "Feature",
  "properties": {
    "edtf:cessation": "2016-01-13T21:22:55",
    "edtf:inception": "2016-01-13~",
    "flysfo:airline": "SY",
    "flysfo:date": "2016-01-13",
    "flysfo:event": "A",
    "flysfo:flight_number": "SY8892",
    "flysfo:journey": "KRNO-SFO",
    "geom:area": 0,
    "geom:bbox": "-122.370943,37.617990,-119.772167,39.505219",
    "geom:latitude": 38.5616045,
    "geom:longitude": -121.07155499999999,
    "iata:airline": "SY",
    "icao:aircraft": "B738",
    "icao:airline": "SCX",
    "mz:is_current": -1,
    "sfomuseum:aircraft_id": 1159289871,
    "sfomuseum:airline_id": 1159285227,
    "sfomuseum:arrival_id": 102527513,
    "sfomuseum:departure_id": 102525535,
    "sfomuseum:flight_id": "20160113-A-SCX-8892",
    "sfomuseum:flight_number": [
      "SY8892", 
      "SCX8892"
    ],
    "sfomuseum:placetype": "flight",
    "src:geom": "sfonoise",
    "wof:belongsto": [
      85688637, 
      85633793, 
      102087579, 
      1662064323, 
      85922583, 
      1159396321, 
      102527513, 
      102191575
    ],
    "wof:country": "US",
    "wof:created": 1582922161,
    "wof:geomhash": "a4d4dc469296ca0f5ad383dc766835b1",
    "wof:hierarchy": [
      {
        "building_id": 1159396321,
        "campus_id": 102527513,
        "concourse_id": -1,
        "continent_id": 102191575,
        "country_id": 85633793,
        "county_id": 102087579,
        "event_id": 1662064323,
        "locality_id": 85922583,
        "neighbourhood_id": -1,
        "region_id": 85688637,
        "venue_id": -1,
        "wing_id": -1
      }
    ],
    "wof:id": 1662064323,
    "wof:lastmodified": 1582922161,
    "wof:name": "SCX8892 (KRNO-SFO)",
    "wof:parent_id": -1,
    "wof:placetype": "event",
    "wof:repo": "sfomuseum-data-flights-2016",
    "wof:superseded_by": [],
    "wof:supersedes": []
  },
  "bbox": [
    -122.370943, 
    37.61799, 
    -119.772167, 
    39.505219
  ],
  "geometry": {"coordinates":[[-119.772167,39.505219],[-122.370943,37.61799]],"type":"MultiPoint"}
}
