{
  "id": 1679271915,
  "type": "Feature",
  "properties": {
    "edtf:cessation": "2016-12-13T01:07:39",
    "edtf:inception": "2016-12-13~",
    "flysfo:airline": "VX",
    "flysfo:date": "2016-12-13",
    "flysfo:event": "A",
    "flysfo:flight_number": "VX029",
    "flysfo:journey": "KSLC-SFO",
    "geom:area": 0,
    "geom:bbox": "-122.370943,37.617990,-111.980566,40.782170",
    "geom:latitude": 39.20008,
    "geom:longitude": -117.1757545,
    "iata:airline": "VX",
    "icao:aircraft": "A320",
    "icao:airline": "VRD",
    "mz:is_current": -1,
    "sfomuseum:aircraft_id": 1159292085,
    "sfomuseum:airline_id": 1159285481,
    "sfomuseum:arrival_id": 102527513,
    "sfomuseum:departure_id": 102527363,
    "sfomuseum:flight_id": "20161213-A-VRD-029",
    "sfomuseum:flight_number": [
      "VX029", 
      "VRD029"
    ],
    "sfomuseum:placetype": "flight",
    "src:geom": "sfonoise",
    "wof:belongsto": [
      102087579, 
      102527513, 
      85688637, 
      85922583, 
      102191575, 
      85633793, 
      1159157271, 
      1679271915
    ],
    "wof:country": "US",
    "wof:created": 1582934069,
    "wof:geomhash": "24b8b627208edff0ed857058cce4fc5a",
    "wof:hierarchy": [
      {
        "building_id": 1159157271,
        "campus_id": 102527513,
        "concourse_id": -1,
        "continent_id": 102191575,
        "country_id": 85633793,
        "county_id": 102087579,
        "event_id": 1679271915,
        "locality_id": 85922583,
        "neighbourhood_id": -1,
        "region_id": 85688637,
        "venue_id": -1,
        "wing_id": -1
      }
    ],
    "wof:id": 1679271915,
    "wof:lastmodified": 1582934069,
    "wof:name": "VRD029 (KSLC-SFO)",
    "wof:parent_id": -1,
    "wof:placetype": "event",
    "wof:repo": "sfomuseum-data-flights-2016",
    "wof:superseded_by": [],
    "wof:supersedes": []
  },
  "bbox": [
    -122.370943, 
    37.61799, 
    -111.980566, 
    40.78217
  ],
  "geometry": {"coordinates":[[-111.980566,40.78217],[-122.370943,37.61799]],"type":"MultiPoint"}
}
