{
  "id": 1662326315,
  "type": "Feature",
  "properties": {
    "edtf:cessation": "2016-06-17T21:37:45",
    "edtf:inception": "2016-06-17~",
    "flysfo:airline": "UA",
    "flysfo:date": "2016-06-17",
    "flysfo:event": "A",
    "flysfo:flight_number": "UA1203",
    "flysfo:journey": "KPHX-SFO",
    "geom:area": 0,
    "geom:bbox": "-122.370943,33.432684,-112.017392,37.617990",
    "geom:latitude": 35.525337,
    "geom:longitude": -117.19416749999999,
    "iata:airline": "UA",
    "icao:aircraft": "A320",
    "icao:airline": "UAL",
    "mz:is_current": -1,
    "sfomuseum:aircraft_id": 1159292085,
    "sfomuseum:airline_id": 1159285413,
    "sfomuseum:arrival_id": 102527513,
    "sfomuseum:departure_id": 102526751,
    "sfomuseum:flight_id": "20160617-A-UAL-1203",
    "sfomuseum:flight_number": [
      "UA1203", 
      "UAL1203"
    ],
    "sfomuseum:placetype": "flight",
    "src:geom": "sfonoise",
    "wof:belongsto": [
      85688637, 
      1159396321, 
      102087579, 
      85922583, 
      102527513, 
      102191575, 
      85633793, 
      1662326315
    ],
    "wof:country": "US",
    "wof:created": 1582926580,
    "wof:geomhash": "c9fdc5df38b6a105de4fe30ae6ada830",
    "wof:hierarchy": [
      {
        "building_id": 1159396321,
        "campus_id": 102527513,
        "concourse_id": -1,
        "continent_id": 102191575,
        "country_id": 85633793,
        "county_id": 102087579,
        "event_id": 1662326315,
        "locality_id": 85922583,
        "neighbourhood_id": -1,
        "region_id": 85688637,
        "venue_id": -1,
        "wing_id": -1
      }
    ],
    "wof:id": 1662326315,
    "wof:lastmodified": 1582926580,
    "wof:name": "UAL1203 (KPHX-SFO)",
    "wof:parent_id": -1,
    "wof:placetype": "event",
    "wof:repo": "sfomuseum-data-flights-2016",
    "wof:superseded_by": [],
    "wof:supersedes": []
  },
  "bbox": [
    -122.370943, 
    33.432684, 
    -112.017392, 
    37.61799
  ],
  "geometry": {"coordinates":[[-112.017392,33.432684],[-122.370943,37.61799]],"type":"MultiPoint"}
}
