{
  "id": 1662261033,
  "type": "Feature",
  "properties": {
    "edtf:cessation": "2016-05-13~",
    "edtf:inception": "2016-05-13T18:20:07",
    "flysfo:airline": "WN",
    "flysfo:date": "2016-05-13",
    "flysfo:event": "D",
    "flysfo:flight_number": "WN1860",
    "flysfo:journey": "SFO-SNA",
    "geom:area": 0,
    "geom:bbox": "-122.370943,33.677724,-117.866280,37.617990",
    "geom:latitude": 35.647857,
    "geom:longitude": -120.1186115,
    "iata:airline": "WN",
    "icao:aircraft": "B737",
    "icao:airline": "SWA",
    "mz:is_current": -1,
    "sfomuseum:aircraft_id": 1159289869,
    "sfomuseum:airline_id": 1159285591,
    "sfomuseum:arrival_id": 102534161,
    "sfomuseum:departure_id": 102527513,
    "sfomuseum:flight_id": "20160513-D-SWA-1860",
    "sfomuseum:flight_number": [
      "WN1860", 
      "SWA1860"
    ],
    "sfomuseum:placetype": "flight",
    "src:geom": "sfonoise",
    "wof:belongsto": [
      1662261033, 
      85922583, 
      85688637, 
      102527513, 
      102191575, 
      85633793, 
      102087579, 
      1159396321
    ],
    "wof:country": "US",
    "wof:created": 1582925516,
    "wof:geomhash": "b700d5ae3794da4176af6b85f6cd6669",
    "wof:hierarchy": [
      {
        "building_id": 1159396321,
        "campus_id": 102527513,
        "concourse_id": -1,
        "continent_id": 102191575,
        "country_id": 85633793,
        "county_id": 102087579,
        "event_id": 1662261033,
        "locality_id": 85922583,
        "neighbourhood_id": -1,
        "region_id": 85688637,
        "venue_id": -1,
        "wing_id": -1
      }
    ],
    "wof:id": 1662261033,
    "wof:lastmodified": 1582925516,
    "wof:name": "SWA1860 (SFO-SNA)",
    "wof:parent_id": -1,
    "wof:placetype": "event",
    "wof:repo": "sfomuseum-data-flights-2016",
    "wof:superseded_by": [],
    "wof:supersedes": []
  },
  "bbox": [
    -122.370943, 
    33.677724, 
    -117.86628, 
    37.61799
  ],
  "geometry": {"coordinates":[[-122.370943,37.61799],[-117.86628,33.677724]],"type":"MultiPoint"}
}
