{
  "id": 1679173729,
  "type": "Feature",
  "properties": {
    "edtf:cessation": "2016-11-12T20:25:38",
    "edtf:inception": "2016-11-12~",
    "flysfo:airline": "UA",
    "flysfo:date": "2016-11-12",
    "flysfo:event": "A",
    "flysfo:flight_number": "UA2264",
    "flysfo:journey": "KSJC-SFO",
    "geom:area": 0,
    "geom:bbox": "-122.370943,37.363728,-121.928755,37.617990",
    "geom:latitude": 37.490859,
    "geom:longitude": -122.14984899999999,
    "iata:airline": "UA",
    "icao:aircraft": "B738",
    "icao:airline": "UAL",
    "mz:is_current": -1,
    "sfomuseum:aircraft_id": 1159289871,
    "sfomuseum:airline_id": 1159285413,
    "sfomuseum:arrival_id": 102527513,
    "sfomuseum:departure_id": 102527529,
    "sfomuseum:flight_id": "20161112-A-UAL-2264",
    "sfomuseum:flight_number": [
      "UA2264", 
      "UAL2264"
    ],
    "sfomuseum:placetype": "flight",
    "src:geom": "sfonoise",
    "wof:belongsto": [
      102527513, 
      102087579, 
      1679173729, 
      1159157271, 
      102191575, 
      85922583, 
      85688637, 
      85633793
    ],
    "wof:country": "US",
    "wof:created": 1582933131,
    "wof:geomhash": "5aa704d308ccde2b747329ebb6ffcf42",
    "wof:hierarchy": [
      {
        "building_id": 1159157271,
        "campus_id": 102527513,
        "concourse_id": -1,
        "continent_id": 102191575,
        "country_id": 85633793,
        "county_id": 102087579,
        "event_id": 1679173729,
        "locality_id": 85922583,
        "neighbourhood_id": -1,
        "region_id": 85688637,
        "venue_id": -1,
        "wing_id": -1
      }
    ],
    "wof:id": 1679173729,
    "wof:lastmodified": 1582933131,
    "wof:name": "UAL2264 (KSJC-SFO)",
    "wof:parent_id": -1,
    "wof:placetype": "event",
    "wof:repo": "sfomuseum-data-flights-2016",
    "wof:superseded_by": [],
    "wof:supersedes": []
  },
  "bbox": [
    -122.370943, 
    37.363728, 
    -121.928755, 
    37.61799
  ],
  "geometry": {"coordinates":[[-121.928755,37.363728],[-122.370943,37.61799]],"type":"MultiPoint"}
}
