{
  "id": 1678794893,
  "type": "Feature",
  "properties": {
    "edtf:cessation": "2016-08-18~",
    "edtf:inception": "2016-08-18T16:09:53",
    "flysfo:airline": "AC",
    "flysfo:date": "2016-08-18",
    "flysfo:event": "D",
    "flysfo:flight_number": "AC784",
    "flysfo:journey": "SFO-CYYZ",
    "geom:area": 0,
    "geom:bbox": "-122.370943,37.617990,-79.628342,43.676352",
    "geom:latitude": 40.647171,
    "geom:longitude": -100.9996425,
    "iata:airline": "AC",
    "icao:aircraft": "A320",
    "icao:airline": "ACA",
    "mz:is_current": -1,
    "sfomuseum:aircraft_id": 1159292085,
    "sfomuseum:airline_id": 1159283597,
    "sfomuseum:arrival_id": 102555091,
    "sfomuseum:departure_id": 102527513,
    "sfomuseum:flight_id": "20160818-D-ACA-784",
    "sfomuseum:flight_number": [
      "AC784", 
      "ACA784"
    ],
    "sfomuseum:placetype": "flight",
    "src:geom": "sfonoise",
    "wof:belongsto": [
      85688637, 
      85922583, 
      85633793, 
      102087579, 
      102527513, 
      1678794893, 
      1159157271, 
      102191575
    ],
    "wof:country": "US",
    "wof:created": 1582928524,
    "wof:geomhash": "1a30ef2f5f82135186aeb20f0187ac62",
    "wof:hierarchy": [
      {
        "building_id": 1159157271,
        "campus_id": 102527513,
        "concourse_id": -1,
        "continent_id": 102191575,
        "country_id": 85633793,
        "county_id": 102087579,
        "event_id": 1678794893,
        "locality_id": 85922583,
        "neighbourhood_id": -1,
        "region_id": 85688637,
        "venue_id": -1,
        "wing_id": -1
      }
    ],
    "wof:id": 1678794893,
    "wof:lastmodified": 1582928524,
    "wof:name": "ACA784 (SFO-CYYZ)",
    "wof:parent_id": -1,
    "wof:placetype": "event",
    "wof:repo": "sfomuseum-data-flights-2016",
    "wof:superseded_by": [],
    "wof:supersedes": []
  },
  "bbox": [
    -122.370943, 
    37.61799, 
    -79.628342, 
    43.676352
  ],
  "geometry": {"coordinates":[[-122.370943,37.61799],[-79.628342,43.676352]],"type":"MultiPoint"}
}
