{
  "id": 1662196477,
  "type": "Feature",
  "properties": {
    "edtf:cessation": "2016-04-07~",
    "edtf:inception": "2016-04-07T06:40:49",
    "flysfo:airline": "DL",
    "flysfo:date": "2016-04-07",
    "flysfo:event": "D",
    "flysfo:flight_number": "DL1216",
    "flysfo:journey": "SFO-KMDT",
    "geom:area": 0,
    "geom:bbox": "-122.370943,37.617990,-76.755645,40.197358",
    "geom:latitude": 38.907674,
    "geom:longitude": -99.563294,
    "iata:airline": "DL",
    "icao:aircraft": "B752",
    "icao:airline": "DAL",
    "mz:is_current": -1,
    "sfomuseum:aircraft_id": 1159289939,
    "sfomuseum:airline_id": 1159284261,
    "sfomuseum:arrival_id": 102529873,
    "sfomuseum:departure_id": 102527513,
    "sfomuseum:flight_id": "20160407-D-DAL-1216",
    "sfomuseum:flight_number": [
      "DL1216", 
      "DAL1216"
    ],
    "sfomuseum:placetype": "flight",
    "src:geom": "sfonoise",
    "wof:belongsto": [
      85922583, 
      102191575, 
      85633793, 
      85688637, 
      102087579, 
      102527513, 
      1662196477, 
      1159396321
    ],
    "wof:country": "US",
    "wof:created": 1582924095,
    "wof:geomhash": "598c632b9e5745a038a5b8f2b3f5b6f0",
    "wof:hierarchy": [
      {
        "building_id": 1159396321,
        "campus_id": 102527513,
        "concourse_id": -1,
        "continent_id": 102191575,
        "country_id": 85633793,
        "county_id": 102087579,
        "event_id": 1662196477,
        "locality_id": 85922583,
        "neighbourhood_id": -1,
        "region_id": 85688637,
        "venue_id": -1,
        "wing_id": -1
      }
    ],
    "wof:id": 1662196477,
    "wof:lastmodified": 1582924095,
    "wof:name": "DAL1216 (SFO-KMDT)",
    "wof:parent_id": -1,
    "wof:placetype": "event",
    "wof:repo": "sfomuseum-data-flights-2016",
    "wof:superseded_by": [],
    "wof:supersedes": []
  },
  "bbox": [
    -122.370943, 
    37.61799, 
    -76.755645, 
    40.197358
  ],
  "geometry": {"coordinates":[[-122.370943,37.61799],[-76.755645,40.197358]],"type":"MultiPoint"}
}
