{
  "id": 1662047765,
  "type": "Feature",
  "properties": {
    "edtf:cessation": "2016-01-03T12:27:54",
    "edtf:inception": "2016-01-03~",
    "flysfo:airline": "DL",
    "flysfo:date": "2016-01-03",
    "flysfo:event": "A",
    "flysfo:flight_number": "DL8923",
    "flysfo:journey": "KCLT-SFO",
    "geom:area": 0,
    "geom:bbox": "-122.370943,35.220744,-80.942777,37.617990",
    "geom:latitude": 36.419367,
    "geom:longitude": -101.65686,
    "iata:airline": "DL",
    "icao:aircraft": "B752",
    "icao:airline": "DAL",
    "mz:is_current": -1,
    "sfomuseum:aircraft_id": 1159289939,
    "sfomuseum:airline_id": 1159284261,
    "sfomuseum:arrival_id": 102527513,
    "sfomuseum:departure_id": 102528659,
    "sfomuseum:flight_id": "20160103-A-DAL-8923",
    "sfomuseum:flight_number": [
      "DL8923", 
      "DAL8923"
    ],
    "sfomuseum:placetype": "flight",
    "src:geom": "sfonoise",
    "wof:belongsto": [
      102527513, 
      102191575, 
      102087579, 
      1662047765, 
      85688637, 
      1159396321, 
      85633793, 
      85922583
    ],
    "wof:country": "US",
    "wof:created": 1582921953,
    "wof:geomhash": "b96563c9986e04a3607ac552f48e111b",
    "wof:hierarchy": [
      {
        "building_id": 1159396321,
        "campus_id": 102527513,
        "concourse_id": -1,
        "continent_id": 102191575,
        "country_id": 85633793,
        "county_id": 102087579,
        "event_id": 1662047765,
        "locality_id": 85922583,
        "neighbourhood_id": -1,
        "region_id": 85688637,
        "venue_id": -1,
        "wing_id": -1
      }
    ],
    "wof:id": 1662047765,
    "wof:lastmodified": 1582921953,
    "wof:name": "DAL8923 (KCLT-SFO)",
    "wof:parent_id": -1,
    "wof:placetype": "event",
    "wof:repo": "sfomuseum-data-flights-2016",
    "wof:superseded_by": [],
    "wof:supersedes": []
  },
  "bbox": [
    -122.370943, 
    35.220744, 
    -80.942777, 
    37.61799
  ],
  "geometry": {"coordinates":[[-80.942777,35.220744],[-122.370943,37.61799]],"type":"MultiPoint"}
}
