{
  "id": 1662118883,
  "type": "Feature",
  "properties": {
    "edtf:cessation": "2016-02-19~",
    "edtf:inception": "2016-02-19T11:24:51",
    "flysfo:airline": "CZ",
    "flysfo:date": "2016-02-19",
    "flysfo:event": "D",
    "flysfo:flight_number": "CZ658",
    "flysfo:journey": "SFO-CAN",
    "geom:area": 0,
    "geom:bbox": "-122.370943,23.447348,113.399556,37.617990",
    "geom:latitude": 30.532669,
    "geom:longitude": -4.4856934999999964,
    "iata:airline": "CZ",
    "icao:aircraft": "B788",
    "icao:airline": "CSN",
    "mz:is_current": -1,
    "sfomuseum:aircraft_id": 1159289995,
    "sfomuseum:airline_id": 1159284165,
    "sfomuseum:arrival_id": 102550391,
    "sfomuseum:departure_id": 102527513,
    "sfomuseum:flight_id": "20160219-D-CSN-658",
    "sfomuseum:flight_number": [
      "CZ658", 
      "CSN658"
    ],
    "sfomuseum:placetype": "flight",
    "src:geom": "sfonoise",
    "wof:belongsto": [
      1159396321, 
      102527513, 
      85922583, 
      1662118883, 
      102191575, 
      85633793, 
      102087579, 
      85688637
    ],
    "wof:country": "US",
    "wof:created": 1582922984,
    "wof:geomhash": "c46dd454257f76c15a9276e2946c6f54",
    "wof:hierarchy": [
      {
        "building_id": 1159396321,
        "campus_id": 102527513,
        "concourse_id": -1,
        "continent_id": 102191575,
        "country_id": 85633793,
        "county_id": 102087579,
        "event_id": 1662118883,
        "locality_id": 85922583,
        "neighbourhood_id": -1,
        "region_id": 85688637,
        "venue_id": -1,
        "wing_id": -1
      }
    ],
    "wof:id": 1662118883,
    "wof:lastmodified": 1582922984,
    "wof:name": "CSN658 (SFO-CAN)",
    "wof:parent_id": -1,
    "wof:placetype": "event",
    "wof:repo": "sfomuseum-data-flights-2016",
    "wof:superseded_by": [],
    "wof:supersedes": []
  },
  "bbox": [
    -122.370943, 
    23.447348, 
    113.399556, 
    37.61799
  ],
  "geometry": {"coordinates":[[-122.370943,37.61799],[113.399556,23.447348]],"type":"MultiPoint"}
}
