{
  "id": 1679233403,
  "type": "Feature",
  "properties": {
    "edtf:cessation": "2016-11-30~",
    "edtf:inception": "2016-11-30T23:49:21",
    "flysfo:airline": "QF",
    "flysfo:date": "2016-11-30",
    "flysfo:event": "D",
    "flysfo:flight_number": "QF74",
    "flysfo:journey": "SFO-YSSY",
    "geom:area": 0,
    "geom:bbox": "-122.370943,-33.934928,151.173388,37.617990",
    "geom:latitude": 1.8415309999999998,
    "geom:longitude": 14.401222499999996,
    "iata:airline": "QF",
    "icao:aircraft": "B744",
    "icao:airline": "QFA",
    "mz:is_current": -1,
    "sfomuseum:aircraft_id": 1159289915,
    "sfomuseum:airline_id": 1159285043,
    "sfomuseum:arrival_id": 102557783,
    "sfomuseum:departure_id": 102527513,
    "sfomuseum:flight_id": "20161130-D-QFA-74",
    "sfomuseum:flight_number": [
      "QF74", 
      "QFA74"
    ],
    "sfomuseum:placetype": "flight",
    "src:geom": "sfonoise",
    "wof:belongsto": [
      102087579, 
      85922583, 
      85688637, 
      1679233403, 
      102527513, 
      102191575, 
      1159157271, 
      85633793
    ],
    "wof:country": "US",
    "wof:created": 1582933697,
    "wof:geomhash": "148b50b9c1c42c575a8cdcaf5b598e8f",
    "wof:hierarchy": [
      {
        "building_id": 1159157271,
        "campus_id": 102527513,
        "concourse_id": -1,
        "continent_id": 102191575,
        "country_id": 85633793,
        "county_id": 102087579,
        "event_id": 1679233403,
        "locality_id": 85922583,
        "neighbourhood_id": -1,
        "region_id": 85688637,
        "venue_id": -1,
        "wing_id": -1
      }
    ],
    "wof:id": 1679233403,
    "wof:lastmodified": 1582933697,
    "wof:name": "QFA74 (SFO-YSSY)",
    "wof:parent_id": -1,
    "wof:placetype": "event",
    "wof:repo": "sfomuseum-data-flights-2016",
    "wof:superseded_by": [],
    "wof:supersedes": []
  },
  "bbox": [
    -122.370943, 
    -33.934928, 
    151.173388, 
    37.61799
  ],
  "geometry": {"coordinates":[[-122.370943,37.61799],[151.173388,-33.934928]],"type":"MultiPoint"}
}
