{
  "id": 1629159361,
  "type": "Feature",
  "properties": {
    "edtf:cessation": "2016-06-29T02:44:17",
    "edtf:inception": "2016-06-29~",
    "flysfo:airline": "EY",
    "flysfo:date": "2016-06-29",
    "flysfo:event": "A",
    "flysfo:flight_number": "EY183A",
    "flysfo:journey": "EGCC-SFO",
    "geom:area": 0,
    "geom:bbox": "-122.370943,37.617990,-2.337608,53.411253",
    "geom:latitude": 45.514621500000004,
    "geom:longitude": -62.3542755,
    "iata:airline": "EY",
    "icao:aircraft": "B77L",
    "icao:airline": "ETD",
    "mz:is_current": -1,
    "sfomuseum:aircraft_id": 1159289989,
    "sfomuseum:airline_id": 1159285587,
    "sfomuseum:arrival_id": 102527513,
    "sfomuseum:departure_id": 102556861,
    "sfomuseum:flight_id": "20160629-A-ETD-183A",
    "sfomuseum:flight_number": [
      "EY183A", 
      "ETD183A"
    ],
    "sfomuseum:placetype": "flight",
    "src:geom": "sfonoise",
    "wof:belongsto": [
      85633793, 
      85922583, 
      85688637, 
      1159157271, 
      102087579, 
      102527513, 
      1629159361, 
      102191575
    ],
    "wof:country": "US",
    "wof:created": 1582926901,
    "wof:geomhash": "220147508b35b652bbb7980843c44885",
    "wof:hierarchy": [
      {
        "building_id": 1159157271,
        "campus_id": 102527513,
        "concourse_id": -1,
        "continent_id": 102191575,
        "country_id": 85633793,
        "county_id": 102087579,
        "event_id": 1629159361,
        "locality_id": 85922583,
        "neighbourhood_id": -1,
        "region_id": 85688637,
        "venue_id": -1,
        "wing_id": -1
      }
    ],
    "wof:id": 1629159361,
    "wof:lastmodified": 1582926901,
    "wof:name": "ETD183A (EGCC-SFO)",
    "wof:parent_id": -1,
    "wof:placetype": "event",
    "wof:repo": "sfomuseum-data-flights-2016",
    "wof:superseded_by": [],
    "wof:supersedes": []
  },
  "bbox": [
    -122.370943, 
    37.61799, 
    -2.337608, 
    53.411253
  ],
  "geometry": {"coordinates":[[-2.337608,53.411253],[-122.370943,37.61799]],"type":"MultiPoint"}
}
