{
  "id": 1662139765,
  "type": "Feature",
  "properties": {
    "edtf:cessation": "2016-03-04T10:48:36",
    "edtf:inception": "2016-03-04~",
    "flysfo:airline": "UA",
    "flysfo:date": "2016-03-04",
    "flysfo:event": "A",
    "flysfo:flight_number": "UA1693",
    "flysfo:journey": "SAN-SFO",
    "geom:area": 0,
    "geom:bbox": "-122.370943,32.733534,-117.185927,37.617990",
    "geom:latitude": 35.175762,
    "geom:longitude": -119.778435,
    "iata:airline": "UA",
    "icao:aircraft": "B738",
    "icao:airline": "UAL",
    "mz:is_current": -1,
    "sfomuseum:aircraft_id": 1159289871,
    "sfomuseum:airline_id": 1159285413,
    "sfomuseum:arrival_id": 102527513,
    "sfomuseum:departure_id": 102528997,
    "sfomuseum:flight_id": "20160304-A-UAL-1693",
    "sfomuseum:flight_number": [
      "UA1693", 
      "UAL1693"
    ],
    "sfomuseum:placetype": "flight",
    "src:geom": "sfonoise",
    "wof:belongsto": [
      102087579, 
      102527513, 
      85688637, 
      85922583, 
      102191575, 
      85633793, 
      1159396321, 
      1662139765
    ],
    "wof:country": "US",
    "wof:created": 1582923392,
    "wof:geomhash": "d1d4873ced1d6ea3128e45b0b2070718",
    "wof:hierarchy": [
      {
        "building_id": 1159396321,
        "campus_id": 102527513,
        "concourse_id": -1,
        "continent_id": 102191575,
        "country_id": 85633793,
        "county_id": 102087579,
        "event_id": 1662139765,
        "locality_id": 85922583,
        "neighbourhood_id": -1,
        "region_id": 85688637,
        "venue_id": -1,
        "wing_id": -1
      }
    ],
    "wof:id": 1662139765,
    "wof:lastmodified": 1582923392,
    "wof:name": "UAL1693 (SAN-SFO)",
    "wof:parent_id": -1,
    "wof:placetype": "event",
    "wof:repo": "sfomuseum-data-flights-2016",
    "wof:superseded_by": [],
    "wof:supersedes": []
  },
  "bbox": [
    -122.370943, 
    32.733534, 
    -117.185927, 
    37.61799
  ],
  "geometry": {"coordinates":[[-117.185927,32.733534],[-122.370943,37.61799]],"type":"MultiPoint"}
}
