{
  "id": 1662064277,
  "type": "Feature",
  "properties": {
    "edtf:cessation": "2016-01-13~",
    "edtf:inception": "2016-01-13T20:46:15",
    "flysfo:airline": "PR",
    "flysfo:date": "2016-01-13",
    "flysfo:event": "D",
    "flysfo:flight_number": "PR115",
    "flysfo:journey": "SFO-PHNL",
    "geom:area": 0,
    "geom:bbox": "-157.918416,21.332508,-122.370943,37.617990",
    "geom:latitude": 29.475248999999998,
    "geom:longitude": -140.1446795,
    "iata:airline": "PR",
    "icao:aircraft": "A343",
    "icao:airline": "PAL",
    "mz:is_current": -1,
    "sfomuseum:aircraft_id": 1159289429,
    "sfomuseum:airline_id": 1159285015,
    "sfomuseum:arrival_id": 102533997,
    "sfomuseum:departure_id": 102527513,
    "sfomuseum:flight_id": "20160113-D-PAL-115",
    "sfomuseum:flight_number": [
      "PR115", 
      "PAL115"
    ],
    "sfomuseum:placetype": "flight",
    "src:geom": "sfonoise",
    "wof:belongsto": [
      85633793, 
      85922583, 
      102087579, 
      102527513, 
      1662064277, 
      85688637, 
      1159396321, 
      102191575
    ],
    "wof:country": "US",
    "wof:created": 1582922160,
    "wof:geomhash": "ff961493fc59fc665836e174da62aa8e",
    "wof:hierarchy": [
      {
        "building_id": 1159396321,
        "campus_id": 102527513,
        "concourse_id": -1,
        "continent_id": 102191575,
        "country_id": 85633793,
        "county_id": 102087579,
        "event_id": 1662064277,
        "locality_id": 85922583,
        "neighbourhood_id": -1,
        "region_id": 85688637,
        "venue_id": -1,
        "wing_id": -1
      }
    ],
    "wof:id": 1662064277,
    "wof:lastmodified": 1582922160,
    "wof:name": "PAL115 (SFO-PHNL)",
    "wof:parent_id": -1,
    "wof:placetype": "event",
    "wof:repo": "sfomuseum-data-flights-2016",
    "wof:superseded_by": [],
    "wof:supersedes": []
  },
  "bbox": [
    -157.918416, 
    21.332508, 
    -122.370943, 
    37.61799
  ],
  "geometry": {"coordinates":[[-122.370943,37.61799],[-157.918416,21.332508]],"type":"MultiPoint"}
}
