{
  "id": 1679281843,
  "type": "Feature",
  "properties": {
    "edtf:cessation": "2016-12-16T01:05:07",
    "edtf:inception": "2016-12-16~",
    "flysfo:airline": "UA",
    "flysfo:date": "2016-12-16",
    "flysfo:event": "A",
    "flysfo:flight_number": "UA1762",
    "flysfo:journey": "KICT-SFO",
    "geom:area": 0,
    "geom:bbox": "-122.370943,37.617990,-97.426862,37.653637",
    "geom:latitude": 37.6358135,
    "geom:longitude": -109.89890249999999,
    "iata:airline": "UA",
    "icao:aircraft": "B738",
    "icao:airline": "UAL",
    "mz:is_current": -1,
    "sfomuseum:aircraft_id": 1159289871,
    "sfomuseum:airline_id": 1159285413,
    "sfomuseum:arrival_id": 102527513,
    "sfomuseum:departure_id": 102531803,
    "sfomuseum:flight_id": "20161216-A-UAL-1762",
    "sfomuseum:flight_number": [
      "UA1762", 
      "UAL1762"
    ],
    "sfomuseum:placetype": "flight",
    "src:geom": "sfonoise",
    "wof:belongsto": [
      85922583, 
      1159157271, 
      1679281843, 
      102191575, 
      85633793, 
      102527513, 
      102087579, 
      85688637
    ],
    "wof:country": "US",
    "wof:created": 1582934161,
    "wof:geomhash": "28fb1a7f89798ee659e3a81901f529b6",
    "wof:hierarchy": [
      {
        "building_id": 1159157271,
        "campus_id": 102527513,
        "concourse_id": -1,
        "continent_id": 102191575,
        "country_id": 85633793,
        "county_id": 102087579,
        "event_id": 1679281843,
        "locality_id": 85922583,
        "neighbourhood_id": -1,
        "region_id": 85688637,
        "venue_id": -1,
        "wing_id": -1
      }
    ],
    "wof:id": 1679281843,
    "wof:lastmodified": 1582934161,
    "wof:name": "UAL1762 (KICT-SFO)",
    "wof:parent_id": -1,
    "wof:placetype": "event",
    "wof:repo": "sfomuseum-data-flights-2016",
    "wof:superseded_by": [],
    "wof:supersedes": []
  },
  "bbox": [
    -122.370943, 
    37.61799, 
    -97.426862, 
    37.653637
  ],
  "geometry": {"coordinates":[[-97.426862,37.653637],[-122.370943,37.61799]],"type":"MultiPoint"}
}
