{
  "id": 1629126385,
  "type": "Feature",
  "properties": {
    "edtf:cessation": "2016-06-10~",
    "edtf:inception": "2016-06-10T00:59:38",
    "flysfo:airline": "UA",
    "flysfo:date": "2016-06-10",
    "flysfo:event": "D",
    "flysfo:flight_number": "UA2247",
    "flysfo:journey": "SFO-KSEA",
    "geom:area": 0,
    "geom:bbox": "-122.370943,37.617990,-122.304268,47.441823",
    "geom:latitude": 42.529906499999996,
    "geom:longitude": -122.3376055,
    "iata:airline": "UA",
    "icao:aircraft": "B738",
    "icao:airline": "UAL",
    "mz:is_current": -1,
    "sfomuseum:aircraft_id": 1159289871,
    "sfomuseum:airline_id": 1159285413,
    "sfomuseum:arrival_id": 102533269,
    "sfomuseum:departure_id": 102527513,
    "sfomuseum:flight_id": "20160610-D-UAL-2247",
    "sfomuseum:flight_number": [
      "UA2247", 
      "UAL2247"
    ],
    "sfomuseum:placetype": "flight",
    "src:geom": "sfonoise",
    "wof:belongsto": [
      102087579, 
      1629126385, 
      102191575, 
      1159396321, 
      85688637, 
      102527513, 
      85633793, 
      85922583
    ],
    "wof:country": "US",
    "wof:created": 1582926323,
    "wof:geomhash": "4036ee3c983703867dbe0486453848b1",
    "wof:hierarchy": [
      {
        "building_id": 1159396321,
        "campus_id": 102527513,
        "concourse_id": -1,
        "continent_id": 102191575,
        "country_id": 85633793,
        "county_id": 102087579,
        "event_id": 1629126385,
        "locality_id": 85922583,
        "neighbourhood_id": -1,
        "region_id": 85688637,
        "venue_id": -1,
        "wing_id": -1
      }
    ],
    "wof:id": 1629126385,
    "wof:lastmodified": 1582926323,
    "wof:name": "UAL2247 (SFO-KSEA)",
    "wof:parent_id": -1,
    "wof:placetype": "event",
    "wof:repo": "sfomuseum-data-flights-2016",
    "wof:superseded_by": [],
    "wof:supersedes": []
  },
  "bbox": [
    -122.370943, 
    37.61799, 
    -122.304268, 
    47.441823
  ],
  "geometry": {"coordinates":[[-122.370943,37.61799],[-122.304268,47.441823]],"type":"MultiPoint"}
}
