{
  "id": 1662262219,
  "type": "Feature",
  "properties": {
    "edtf:cessation": "2016-05-14~",
    "edtf:inception": "2016-05-14T11:47:31",
    "flysfo:airline": "UA",
    "flysfo:date": "2016-05-14",
    "flysfo:event": "D",
    "flysfo:flight_number": "UA1966",
    "flysfo:journey": "SFO-MCO",
    "geom:area": 0,
    "geom:bbox": "-122.370943,28.431495,-81.307537,37.617990",
    "geom:latitude": 33.0247425,
    "geom:longitude": -101.83923999999999,
    "iata:airline": "UA",
    "icao:aircraft": "B738",
    "icao:airline": "UAL",
    "mz:is_current": -1,
    "sfomuseum:aircraft_id": 1159289871,
    "sfomuseum:airline_id": 1159285413,
    "sfomuseum:arrival_id": 102533657,
    "sfomuseum:departure_id": 102527513,
    "sfomuseum:flight_id": "20160514-D-UAL-1966",
    "sfomuseum:flight_number": [
      "UA1966", 
      "UAL1966"
    ],
    "sfomuseum:placetype": "flight",
    "src:geom": "sfonoise",
    "wof:belongsto": [
      1159396321, 
      102087579, 
      1662262219, 
      102191575, 
      85633793, 
      85922583, 
      85688637, 
      102527513
    ],
    "wof:country": "US",
    "wof:created": 1582925535,
    "wof:geomhash": "33c9625a4901edf29154e5ec4b308b8b",
    "wof:hierarchy": [
      {
        "building_id": 1159396321,
        "campus_id": 102527513,
        "concourse_id": -1,
        "continent_id": 102191575,
        "country_id": 85633793,
        "county_id": 102087579,
        "event_id": 1662262219,
        "locality_id": 85922583,
        "neighbourhood_id": -1,
        "region_id": 85688637,
        "venue_id": -1,
        "wing_id": -1
      }
    ],
    "wof:id": 1662262219,
    "wof:lastmodified": 1582925535,
    "wof:name": "UAL1966 (SFO-MCO)",
    "wof:parent_id": -1,
    "wof:placetype": "event",
    "wof:repo": "sfomuseum-data-flights-2016",
    "wof:superseded_by": [],
    "wof:supersedes": []
  },
  "bbox": [
    -122.370943, 
    28.431495, 
    -81.307537, 
    37.61799
  ],
  "geometry": {"coordinates":[[-122.370943,37.61799],[-81.307537,28.431495]],"type":"MultiPoint"}
}
