{
  "id": 1662215387,
  "type": "Feature",
  "properties": {
    "edtf:cessation": "2016-04-18T08:42:34",
    "edtf:inception": "2016-04-18~",
    "flysfo:airline": "WN",
    "flysfo:date": "2016-04-18",
    "flysfo:event": "A",
    "flysfo:flight_number": "WN3826",
    "flysfo:journey": "KBUR-SFO",
    "geom:area": 0,
    "geom:bbox": "-122.370943,34.196704,-118.353322,37.617990",
    "geom:latitude": 35.907347,
    "geom:longitude": -120.3621325,
    "iata:airline": "WN",
    "icao:aircraft": "B737",
    "icao:airline": "SWA",
    "mz:is_current": -1,
    "sfomuseum:aircraft_id": 1159289869,
    "sfomuseum:airline_id": 1159285591,
    "sfomuseum:arrival_id": 102527513,
    "sfomuseum:departure_id": 102532771,
    "sfomuseum:flight_id": "20160418-A-SWA-3826",
    "sfomuseum:flight_number": [
      "WN3826", 
      "SWA3826"
    ],
    "sfomuseum:placetype": "flight",
    "src:geom": "sfonoise",
    "wof:belongsto": [
      102191575, 
      102087579, 
      1662215387, 
      102527513, 
      85633793, 
      1159396321, 
      85922583, 
      85688637
    ],
    "wof:country": "US",
    "wof:created": 1582924582,
    "wof:geomhash": "579cc6c0d5668ba584a946b357aa3191",
    "wof:hierarchy": [
      {
        "building_id": 1159396321,
        "campus_id": 102527513,
        "concourse_id": -1,
        "continent_id": 102191575,
        "country_id": 85633793,
        "county_id": 102087579,
        "event_id": 1662215387,
        "locality_id": 85922583,
        "neighbourhood_id": -1,
        "region_id": 85688637,
        "venue_id": -1,
        "wing_id": -1
      }
    ],
    "wof:id": 1662215387,
    "wof:lastmodified": 1582924582,
    "wof:name": "SWA3826 (KBUR-SFO)",
    "wof:parent_id": -1,
    "wof:placetype": "event",
    "wof:repo": "sfomuseum-data-flights-2016",
    "wof:superseded_by": [],
    "wof:supersedes": []
  },
  "bbox": [
    -122.370943, 
    34.196704, 
    -118.353322, 
    37.61799
  ],
  "geometry": {"coordinates":[[-118.353322,34.196704],[-122.370943,37.61799]],"type":"MultiPoint"}
}
