{
  "id": 1629234461,
  "type": "Feature",
  "properties": {
    "edtf:cessation": "2016-07-18T08:06:44",
    "edtf:inception": "2016-07-18~",
    "flysfo:airline": "AA",
    "flysfo:date": "2016-07-18",
    "flysfo:event": "A",
    "flysfo:flight_number": "AA9741",
    "flysfo:journey": "KLGB-SFO",
    "geom:area": 0,
    "geom:bbox": "-122.370943,33.814039,-118.148993,37.617990",
    "geom:latitude": 35.7160145,
    "geom:longitude": -120.259968,
    "iata:airline": "AA",
    "icao:aircraft": "B738",
    "icao:airline": "AAL",
    "mz:is_current": -1,
    "sfomuseum:aircraft_id": 1159289871,
    "sfomuseum:airline_id": 1159283851,
    "sfomuseum:arrival_id": 102527513,
    "sfomuseum:departure_id": 102528985,
    "sfomuseum:flight_id": "20160718-A-AAL-9741",
    "sfomuseum:flight_number": [
      "AA9741", 
      "AAL9741"
    ],
    "sfomuseum:placetype": "flight",
    "src:geom": "sfonoise",
    "wof:belongsto": [
      102191575, 
      102087579, 
      85633793, 
      1159157271, 
      85922583, 
      85688637, 
      102527513, 
      1629234461
    ],
    "wof:country": "US",
    "wof:created": 1582927482,
    "wof:geomhash": "9eec8aef23fa16d55a8c3ae494470e8a",
    "wof:hierarchy": [
      {
        "building_id": 1159157271,
        "campus_id": 102527513,
        "concourse_id": -1,
        "continent_id": 102191575,
        "country_id": 85633793,
        "county_id": 102087579,
        "event_id": 1629234461,
        "locality_id": 85922583,
        "neighbourhood_id": -1,
        "region_id": 85688637,
        "venue_id": -1,
        "wing_id": -1
      }
    ],
    "wof:id": 1629234461,
    "wof:lastmodified": 1582927482,
    "wof:name": "AAL9741 (KLGB-SFO)",
    "wof:parent_id": -1,
    "wof:placetype": "event",
    "wof:repo": "sfomuseum-data-flights-2016",
    "wof:superseded_by": [],
    "wof:supersedes": []
  },
  "bbox": [
    -122.370943, 
    33.814039, 
    -118.148993, 
    37.61799
  ],
  "geometry": {"coordinates":[[-118.148993,33.814039],[-122.370943,37.61799]],"type":"MultiPoint"}
}
