{
  "id": 1662097507,
  "type": "Feature",
  "properties": {
    "edtf:cessation": "2016-02-04~",
    "edtf:inception": "2016-02-04T17:29:33",
    "flysfo:airline": "AM",
    "flysfo:date": "2016-02-04",
    "flysfo:event": "D",
    "flysfo:flight_number": "AM9393",
    "flysfo:journey": "SFO-MMMX",
    "geom:area": 0,
    "geom:bbox": "-122.370943,19.431302,-99.080804,37.617990",
    "geom:latitude": 28.524645999999997,
    "geom:longitude": -110.7258735,
    "iata:airline": "AM",
    "icao:aircraft": "B737",
    "icao:airline": "AMX",
    "mz:is_current": -1,
    "sfomuseum:aircraft_id": 1159289869,
    "sfomuseum:airline_id": 1159283539,
    "sfomuseum:arrival_id": 102536579,
    "sfomuseum:departure_id": 102527513,
    "sfomuseum:flight_id": "20160204-D-AMX-9393",
    "sfomuseum:flight_number": [
      "AM9393", 
      "AMX9393"
    ],
    "sfomuseum:placetype": "flight",
    "src:geom": "sfonoise",
    "wof:belongsto": [
      85922583, 
      1662097507, 
      102087579, 
      85688637, 
      102527513, 
      102191575, 
      85633793, 
      1159396321
    ],
    "wof:country": "US",
    "wof:created": 1582922621,
    "wof:geomhash": "01999c4327be8e36df88ffd5cda77111",
    "wof:hierarchy": [
      {
        "building_id": 1159396321,
        "campus_id": 102527513,
        "concourse_id": -1,
        "continent_id": 102191575,
        "country_id": 85633793,
        "county_id": 102087579,
        "event_id": 1662097507,
        "locality_id": 85922583,
        "neighbourhood_id": -1,
        "region_id": 85688637,
        "venue_id": -1,
        "wing_id": -1
      }
    ],
    "wof:id": 1662097507,
    "wof:lastmodified": 1582922621,
    "wof:name": "AMX9393 (SFO-MMMX)",
    "wof:parent_id": -1,
    "wof:placetype": "event",
    "wof:repo": "sfomuseum-data-flights-2016",
    "wof:superseded_by": [],
    "wof:supersedes": []
  },
  "bbox": [
    -122.370943, 
    19.431302, 
    -99.080804, 
    37.61799
  ],
  "geometry": {"coordinates":[[-122.370943,37.61799],[-99.080804,19.431302]],"type":"MultiPoint"}
}
