{
  "id": 1662268199,
  "type": "Feature",
  "properties": {
    "edtf:cessation": "2016-05-17~",
    "edtf:inception": "2016-05-17T18:29:39",
    "flysfo:airline": "TK",
    "flysfo:date": "2016-05-17",
    "flysfo:event": "D",
    "flysfo:flight_number": "TK80L",
    "flysfo:journey": "SFO-LTBA",
    "geom:area": 0,
    "geom:bbox": "-122.370943,37.617990,28.818113,40.981491",
    "geom:latitude": 39.2997405,
    "geom:longitude": -46.776415,
    "iata:airline": "TK",
    "icao:aircraft": "B77W",
    "icao:airline": "THY",
    "mz:is_current": -1,
    "sfomuseum:aircraft_id": 1159289993,
    "sfomuseum:airline_id": 1159285391,
    "sfomuseum:arrival_id": 102535819,
    "sfomuseum:departure_id": 102527513,
    "sfomuseum:flight_id": "20160517-D-THY-80L",
    "sfomuseum:flight_number": [
      "TK80L", 
      "THY80L"
    ],
    "sfomuseum:placetype": "flight",
    "src:geom": "sfonoise",
    "wof:belongsto": [
      85922583, 
      102087579, 
      1662268199, 
      85688637, 
      102527513, 
      102191575, 
      1159396321, 
      85633793
    ],
    "wof:country": "US",
    "wof:created": 1582925623,
    "wof:geomhash": "4dba37134e9e2a21e7ece9dd78d4a826",
    "wof:hierarchy": [
      {
        "building_id": 1159396321,
        "campus_id": 102527513,
        "concourse_id": -1,
        "continent_id": 102191575,
        "country_id": 85633793,
        "county_id": 102087579,
        "event_id": 1662268199,
        "locality_id": 85922583,
        "neighbourhood_id": -1,
        "region_id": 85688637,
        "venue_id": -1,
        "wing_id": -1
      }
    ],
    "wof:id": 1662268199,
    "wof:lastmodified": 1582925623,
    "wof:name": "THY80L (SFO-LTBA)",
    "wof:parent_id": -1,
    "wof:placetype": "event",
    "wof:repo": "sfomuseum-data-flights-2016",
    "wof:superseded_by": [],
    "wof:supersedes": []
  },
  "bbox": [
    -122.370943, 
    37.61799, 
    28.818113, 
    40.981491
  ],
  "geometry": {"coordinates":[[-122.370943,37.61799],[28.818113,40.981491]],"type":"MultiPoint"}
}
