{
  "id": 1662058443,
  "type": "Feature",
  "properties": {
    "edtf:cessation": "2016-01-10T07:51:52",
    "edtf:inception": "2016-01-10~",
    "flysfo:airline": "UA",
    "flysfo:date": "2016-01-10",
    "flysfo:event": "A",
    "flysfo:flight_number": "UA256",
    "flysfo:journey": "DEN-SFO",
    "geom:area": 0,
    "geom:bbox": "-122.370943,37.617990,-104.672219,39.864939",
    "geom:latitude": 38.7414645,
    "geom:longitude": -113.521581,
    "iata:airline": "UA",
    "icao:aircraft": "A320",
    "icao:airline": "UAL",
    "mz:is_current": -1,
    "sfomuseum:aircraft_id": 1159292085,
    "sfomuseum:airline_id": 1159285413,
    "sfomuseum:arrival_id": 102527513,
    "sfomuseum:departure_id": 102531189,
    "sfomuseum:flight_id": "20160110-A-UAL-256",
    "sfomuseum:flight_number": [
      "UA256", 
      "UAL256"
    ],
    "sfomuseum:placetype": "flight",
    "src:geom": "sfonoise",
    "wof:belongsto": [
      102087579, 
      85922583, 
      102527513, 
      85688637, 
      1159396321, 
      102191575, 
      1662058443, 
      85633793
    ],
    "wof:country": "US",
    "wof:created": 1582922086,
    "wof:geomhash": "736fe0d2ebd38878be6950e82908a686",
    "wof:hierarchy": [
      {
        "building_id": 1159396321,
        "campus_id": 102527513,
        "concourse_id": -1,
        "continent_id": 102191575,
        "country_id": 85633793,
        "county_id": 102087579,
        "event_id": 1662058443,
        "locality_id": 85922583,
        "neighbourhood_id": -1,
        "region_id": 85688637,
        "venue_id": -1,
        "wing_id": -1
      }
    ],
    "wof:id": 1662058443,
    "wof:lastmodified": 1582922086,
    "wof:name": "UAL256 (DEN-SFO)",
    "wof:parent_id": -1,
    "wof:placetype": "event",
    "wof:repo": "sfomuseum-data-flights-2016",
    "wof:superseded_by": [],
    "wof:supersedes": []
  },
  "bbox": [
    -122.370943, 
    37.61799, 
    -104.672219, 
    39.864939
  ],
  "geometry": {"coordinates":[[-104.672219,39.864939],[-122.370943,37.61799]],"type":"MultiPoint"}
}
