{
  "id": 1679061507,
  "type": "Feature",
  "properties": {
    "edtf:cessation": "2016-10-14T19:35:07",
    "edtf:inception": "2016-10-14~",
    "flysfo:airline": "UA",
    "flysfo:date": "2016-10-14",
    "flysfo:event": "A",
    "flysfo:flight_number": "UA2251",
    "flysfo:journey": "KLWS-SFO",
    "geom:area": 0,
    "geom:bbox": "-122.370943,37.617990,-117.015160,46.374330",
    "geom:latitude": 41.99616,
    "geom:longitude": -119.6930515,
    "iata:airline": "UA",
    "icao:aircraft": "B738",
    "icao:airline": "UAL",
    "mz:is_current": -1,
    "sfomuseum:aircraft_id": 1159289871,
    "sfomuseum:airline_id": 1159285413,
    "sfomuseum:arrival_id": 102527513,
    "sfomuseum:departure_id": 102528993,
    "sfomuseum:flight_id": "20161014-A-UAL-2251",
    "sfomuseum:flight_number": [
      "UA2251", 
      "UAL2251"
    ],
    "sfomuseum:placetype": "flight",
    "src:geom": "sfonoise",
    "wof:belongsto": [
      85688637, 
      1679061507, 
      85922583, 
      102527513, 
      102191575, 
      102087579, 
      1159157271, 
      85633793
    ],
    "wof:country": "US",
    "wof:created": 1582931869,
    "wof:geomhash": "f1bc3aeebd107b6c598c2339df8e743f",
    "wof:hierarchy": [
      {
        "building_id": 1159157271,
        "campus_id": 102527513,
        "concourse_id": -1,
        "continent_id": 102191575,
        "country_id": 85633793,
        "county_id": 102087579,
        "event_id": 1679061507,
        "locality_id": 85922583,
        "neighbourhood_id": -1,
        "region_id": 85688637,
        "venue_id": -1,
        "wing_id": -1
      }
    ],
    "wof:id": 1679061507,
    "wof:lastmodified": 1582931869,
    "wof:name": "UAL2251 (KLWS-SFO)",
    "wof:parent_id": -1,
    "wof:placetype": "event",
    "wof:repo": "sfomuseum-data-flights-2016",
    "wof:superseded_by": [],
    "wof:supersedes": []
  },
  "bbox": [
    -122.370943, 
    37.61799, 
    -117.01516, 
    46.37433
  ],
  "geometry": {"coordinates":[[-117.01516,46.37433],[-122.370943,37.61799]],"type":"MultiPoint"}
}
