{
  "id": 1629158917,
  "type": "Feature",
  "properties": {
    "edtf:cessation": "2016-06-28~",
    "edtf:inception": "2016-06-28T22:23:11",
    "flysfo:airline": "WN",
    "flysfo:date": "2016-06-28",
    "flysfo:event": "D",
    "flysfo:flight_number": "WN8517",
    "flysfo:journey": "SFO-KTUS",
    "geom:area": 0,
    "geom:bbox": "-122.370943,32.119362,-110.946818,37.617990",
    "geom:latitude": 34.868676,
    "geom:longitude": -116.6588805,
    "iata:airline": "WN",
    "icao:aircraft": "B737",
    "icao:airline": "SWA",
    "mz:is_current": -1,
    "sfomuseum:aircraft_id": 1159289869,
    "sfomuseum:airline_id": 1159285591,
    "sfomuseum:arrival_id": 102527853,
    "sfomuseum:departure_id": 102527513,
    "sfomuseum:flight_id": "20160628-D-SWA-8517",
    "sfomuseum:flight_number": [
      "WN8517", 
      "SWA8517"
    ],
    "sfomuseum:placetype": "flight",
    "src:geom": "sfonoise",
    "wof:belongsto": [
      1629158917, 
      1159396321, 
      102191575, 
      85922583, 
      85688637, 
      85633793, 
      102527513, 
      102087579
    ],
    "wof:country": "US",
    "wof:created": 1582926899,
    "wof:geomhash": "6716e4c7ca0e3c1891c385118d042906",
    "wof:hierarchy": [
      {
        "building_id": 1159396321,
        "campus_id": 102527513,
        "concourse_id": -1,
        "continent_id": 102191575,
        "country_id": 85633793,
        "county_id": 102087579,
        "event_id": 1629158917,
        "locality_id": 85922583,
        "neighbourhood_id": -1,
        "region_id": 85688637,
        "venue_id": -1,
        "wing_id": -1
      }
    ],
    "wof:id": 1629158917,
    "wof:lastmodified": 1582926899,
    "wof:name": "SWA8517 (SFO-KTUS)",
    "wof:parent_id": -1,
    "wof:placetype": "event",
    "wof:repo": "sfomuseum-data-flights-2016",
    "wof:superseded_by": [],
    "wof:supersedes": []
  },
  "bbox": [
    -122.370943, 
    32.119362, 
    -110.946818, 
    37.61799
  ],
  "geometry": {"coordinates":[[-122.370943,37.61799],[-110.946818,32.119362]],"type":"MultiPoint"}
}
