{
  "id": 1662176883,
  "type": "Feature",
  "properties": {
    "edtf:cessation": "2016-03-26~",
    "edtf:inception": "2016-03-26T17:47:34",
    "flysfo:airline": "UA",
    "flysfo:date": "2016-03-26",
    "flysfo:event": "D",
    "flysfo:flight_number": "UA1723",
    "flysfo:journey": "SFO-KOA",
    "geom:area": 0,
    "geom:bbox": "-156.035060,19.732444,-122.370943,37.617990",
    "geom:latitude": 28.675217,
    "geom:longitude": -139.2030015,
    "iata:airline": "UA",
    "icao:aircraft": "B739",
    "icao:airline": "UAL",
    "mz:is_current": -1,
    "sfomuseum:aircraft_id": 1377564285,
    "sfomuseum:airline_id": 1159285413,
    "sfomuseum:arrival_id": 102532939,
    "sfomuseum:departure_id": 102527513,
    "sfomuseum:flight_id": "20160326-D-UAL-1723",
    "sfomuseum:flight_number": [
      "UA1723", 
      "UAL1723"
    ],
    "sfomuseum:placetype": "flight",
    "src:geom": "sfonoise",
    "wof:belongsto": [
      102527513, 
      102191575, 
      85633793, 
      1662176883, 
      85922583, 
      102087579, 
      85688637, 
      1159396321
    ],
    "wof:country": "US",
    "wof:created": 1582923875,
    "wof:geomhash": "ffd2c7b34797175c51fc3517b1c4b69d",
    "wof:hierarchy": [
      {
        "building_id": 1159396321,
        "campus_id": 102527513,
        "concourse_id": -1,
        "continent_id": 102191575,
        "country_id": 85633793,
        "county_id": 102087579,
        "event_id": 1662176883,
        "locality_id": 85922583,
        "neighbourhood_id": -1,
        "region_id": 85688637,
        "venue_id": -1,
        "wing_id": -1
      }
    ],
    "wof:id": 1662176883,
    "wof:lastmodified": 1582923875,
    "wof:name": "UAL1723 (SFO-KOA)",
    "wof:parent_id": -1,
    "wof:placetype": "event",
    "wof:repo": "sfomuseum-data-flights-2016",
    "wof:superseded_by": [],
    "wof:supersedes": []
  },
  "bbox": [
    -156.03506, 
    19.732444, 
    -122.370943, 
    37.61799
  ],
  "geometry": {"coordinates":[[-122.370943,37.61799],[-156.03506,19.732444]],"type":"MultiPoint"}
}
