{
  "id": 1662297677,
  "type": "Feature",
  "properties": {
    "edtf:cessation": "2016-06-02~",
    "edtf:inception": "2016-06-02T23:01:01",
    "flysfo:airline": "DL",
    "flysfo:date": "2016-06-02",
    "flysfo:event": "D",
    "flysfo:flight_number": "DL671",
    "flysfo:journey": "SFO-CVG",
    "geom:area": 0,
    "geom:bbox": "-122.370943,37.617990,-84.657144,39.054422",
    "geom:latitude": 38.336206000000004,
    "geom:longitude": -103.5140435,
    "iata:airline": "DL",
    "icao:aircraft": "B738",
    "icao:airline": "DAL",
    "mz:is_current": -1,
    "sfomuseum:aircraft_id": 1159289871,
    "sfomuseum:airline_id": 1159284261,
    "sfomuseum:arrival_id": 102528187,
    "sfomuseum:departure_id": 102527513,
    "sfomuseum:flight_id": "20160602-D-DAL-671",
    "sfomuseum:flight_number": [
      "DL671", 
      "DAL671"
    ],
    "sfomuseum:placetype": "flight",
    "src:geom": "sfonoise",
    "wof:belongsto": [
      102527513, 
      102191575, 
      85633793, 
      1159396321, 
      102087579, 
      1662297677, 
      85922583, 
      85688637
    ],
    "wof:country": "US",
    "wof:created": 1582926096,
    "wof:geomhash": "c97739d28e676f0ee62f6ec4585963c5",
    "wof:hierarchy": [
      {
        "building_id": 1159396321,
        "campus_id": 102527513,
        "concourse_id": -1,
        "continent_id": 102191575,
        "country_id": 85633793,
        "county_id": 102087579,
        "event_id": 1662297677,
        "locality_id": 85922583,
        "neighbourhood_id": -1,
        "region_id": 85688637,
        "venue_id": -1,
        "wing_id": -1
      }
    ],
    "wof:id": 1662297677,
    "wof:lastmodified": 1582926096,
    "wof:name": "DAL671 (SFO-CVG)",
    "wof:parent_id": -1,
    "wof:placetype": "event",
    "wof:repo": "sfomuseum-data-flights-2016",
    "wof:superseded_by": [],
    "wof:supersedes": []
  },
  "bbox": [
    -122.370943, 
    37.61799, 
    -84.657144, 
    39.054422
  ],
  "geometry": {"coordinates":[[-122.370943,37.61799],[-84.657144,39.054422]],"type":"MultiPoint"}
}
