{
  "id": 1629098879,
  "type": "Feature",
  "properties": {
    "edtf:cessation": "2016-03-24~",
    "edtf:inception": "2016-03-24T17:46:14",
    "flysfo:airline": "F9",
    "flysfo:date": "2016-03-24",
    "flysfo:event": "D",
    "flysfo:flight_number": "F91364",
    "flysfo:journey": "SFO-PHX",
    "geom:area": 0,
    "geom:bbox": "-122.370943,33.432684,-112.017392,37.617990",
    "geom:latitude": 35.525337,
    "geom:longitude": -117.19416749999999,
    "iata:airline": "F9",
    "icao:aircraft": "A319",
    "icao:airline": "FFT",
    "mz:is_current": -1,
    "sfomuseum:aircraft_id": 1159289407,
    "sfomuseum:airline_id": 1159284401,
    "sfomuseum:arrival_id": 102526751,
    "sfomuseum:departure_id": 102527513,
    "sfomuseum:flight_id": "20160324-D-FFT-1364",
    "sfomuseum:flight_number": [
      "F91364", 
      "FFT1364"
    ],
    "sfomuseum:placetype": "flight",
    "src:geom": "sfonoise",
    "wof:belongsto": [
      102191575, 
      1629098879, 
      85633793, 
      85922583, 
      102527513, 
      102087579, 
      85688637, 
      1159396321
    ],
    "wof:country": "US",
    "wof:created": 1582923840,
    "wof:geomhash": "2a19f056fd5d16c52f22f1bf5dc85c9c",
    "wof:hierarchy": [
      {
        "building_id": 1159396321,
        "campus_id": 102527513,
        "concourse_id": -1,
        "continent_id": 102191575,
        "country_id": 85633793,
        "county_id": 102087579,
        "event_id": 1629098879,
        "locality_id": 85922583,
        "neighbourhood_id": -1,
        "region_id": 85688637,
        "venue_id": -1,
        "wing_id": -1
      }
    ],
    "wof:id": 1629098879,
    "wof:lastmodified": 1582923840,
    "wof:name": "FFT1364 (SFO-PHX)",
    "wof:parent_id": -1,
    "wof:placetype": "event",
    "wof:repo": "sfomuseum-data-flights-2016",
    "wof:superseded_by": [],
    "wof:supersedes": []
  },
  "bbox": [
    -122.370943, 
    33.432684, 
    -112.017392, 
    37.61799
  ],
  "geometry": {"coordinates":[[-122.370943,37.61799],[-112.017392,33.432684]],"type":"MultiPoint"}
}
