{
  "id": 1662261431,
  "type": "Feature",
  "properties": {
    "edtf:cessation": "2016-05-13T21:48:01",
    "edtf:inception": "2016-05-13~",
    "flysfo:airline": "DL",
    "flysfo:date": "2016-05-13",
    "flysfo:event": "A",
    "flysfo:flight_number": "DL1262",
    "flysfo:journey": "DTW-SFO",
    "geom:area": 0,
    "geom:bbox": "-122.370943,37.617990,-83.351709,42.218860",
    "geom:latitude": 39.918425,
    "geom:longitude": -102.86132599999999,
    "iata:airline": "DL",
    "icao:aircraft": "B739",
    "icao:airline": "DAL",
    "mz:is_current": -1,
    "sfomuseum:aircraft_id": 1377564285,
    "sfomuseum:airline_id": 1159284261,
    "sfomuseum:arrival_id": 102527513,
    "sfomuseum:departure_id": 102525635,
    "sfomuseum:flight_id": "20160513-A-DAL-1262",
    "sfomuseum:flight_number": [
      "DL1262", 
      "DAL1262"
    ],
    "sfomuseum:placetype": "flight",
    "src:geom": "sfonoise",
    "wof:belongsto": [
      102087579, 
      102527513, 
      102191575, 
      85922583, 
      85688637, 
      85633793, 
      1662261431, 
      1159396321
    ],
    "wof:country": "US",
    "wof:created": 1582925523,
    "wof:geomhash": "a23858bb4e93419105e139a22bd92749",
    "wof:hierarchy": [
      {
        "building_id": 1159396321,
        "campus_id": 102527513,
        "concourse_id": -1,
        "continent_id": 102191575,
        "country_id": 85633793,
        "county_id": 102087579,
        "event_id": 1662261431,
        "locality_id": 85922583,
        "neighbourhood_id": -1,
        "region_id": 85688637,
        "venue_id": -1,
        "wing_id": -1
      }
    ],
    "wof:id": 1662261431,
    "wof:lastmodified": 1582925523,
    "wof:name": "DAL1262 (DTW-SFO)",
    "wof:parent_id": -1,
    "wof:placetype": "event",
    "wof:repo": "sfomuseum-data-flights-2016",
    "wof:superseded_by": [],
    "wof:supersedes": []
  },
  "bbox": [
    -122.370943, 
    37.61799, 
    -83.351709, 
    42.21886
  ],
  "geometry": {"coordinates":[[-83.351709,42.21886],[-122.370943,37.61799]],"type":"MultiPoint"}
}
