{
  "id": 1679246257,
  "type": "Feature",
  "properties": {
    "edtf:cessation": "2016-12-05~",
    "edtf:inception": "2016-12-05T01:28:08",
    "flysfo:airline": "DL",
    "flysfo:date": "2016-12-05",
    "flysfo:event": "D",
    "flysfo:flight_number": "DL8850",
    "flysfo:journey": "SFO-CYEG",
    "geom:area": 0,
    "geom:bbox": "-122.370943,37.617990,-113.584752,53.308108",
    "geom:latitude": 45.463049,
    "geom:longitude": -117.9778475,
    "iata:airline": "DL",
    "icao:aircraft": "B752",
    "icao:airline": "DAL",
    "mz:is_current": -1,
    "sfomuseum:aircraft_id": 1159289939,
    "sfomuseum:airline_id": 1159284261,
    "sfomuseum:arrival_id": 102554473,
    "sfomuseum:departure_id": 102527513,
    "sfomuseum:flight_id": "20161205-D-DAL-8850",
    "sfomuseum:flight_number": [
      "DL8850", 
      "DAL8850"
    ],
    "sfomuseum:placetype": "flight",
    "src:geom": "sfonoise",
    "wof:belongsto": [
      85688637, 
      102191575, 
      85633793, 
      1679246257, 
      85922583, 
      1159157271, 
      102087579, 
      102527513
    ],
    "wof:country": "US",
    "wof:created": 1582933818,
    "wof:geomhash": "d4a7e38ab5b38aac9300ec43a62729ca",
    "wof:hierarchy": [
      {
        "building_id": 1159157271,
        "campus_id": 102527513,
        "concourse_id": -1,
        "continent_id": 102191575,
        "country_id": 85633793,
        "county_id": 102087579,
        "event_id": 1679246257,
        "locality_id": 85922583,
        "neighbourhood_id": -1,
        "region_id": 85688637,
        "venue_id": -1,
        "wing_id": -1
      }
    ],
    "wof:id": 1679246257,
    "wof:lastmodified": 1582933818,
    "wof:name": "DAL8850 (SFO-CYEG)",
    "wof:parent_id": -1,
    "wof:placetype": "event",
    "wof:repo": "sfomuseum-data-flights-2016",
    "wof:superseded_by": [],
    "wof:supersedes": []
  },
  "bbox": [
    -122.370943, 
    37.61799, 
    -113.584752, 
    53.308108
  ],
  "geometry": {"coordinates":[[-122.370943,37.61799],[-113.584752,53.308108]],"type":"MultiPoint"}
}
