{
  "id": 1662081803,
  "type": "Feature",
  "properties": {
    "edtf:cessation": "2016-01-25~",
    "edtf:inception": "2016-01-25T15:16:06",
    "flysfo:airline": "UA",
    "flysfo:date": "2016-01-25",
    "flysfo:event": "D",
    "flysfo:flight_number": "UA2290",
    "flysfo:journey": "SFO-KNGU",
    "geom:area": 0,
    "geom:bbox": "-122.370943,36.925150,-76.304390,37.617990",
    "geom:latitude": 37.27157,
    "geom:longitude": -99.3376665,
    "iata:airline": "UA",
    "icao:aircraft": "B744",
    "icao:airline": "UAL",
    "mz:is_current": -1,
    "sfomuseum:aircraft_id": 1159289915,
    "sfomuseum:airline_id": 1159285413,
    "sfomuseum:arrival_id": 102530103,
    "sfomuseum:departure_id": 102527513,
    "sfomuseum:flight_id": "20160125-D-UAL-2290",
    "sfomuseum:flight_number": [
      "UA2290", 
      "UAL2290"
    ],
    "sfomuseum:placetype": "flight",
    "src:geom": "sfonoise",
    "wof:belongsto": [
      1159396321, 
      102087579, 
      85633793, 
      102527513, 
      1662081803, 
      85688637, 
      102191575, 
      85922583
    ],
    "wof:country": "US",
    "wof:created": 1582922392,
    "wof:geomhash": "d3e7c51196df755300946ae94418b330",
    "wof:hierarchy": [
      {
        "building_id": 1159396321,
        "campus_id": 102527513,
        "concourse_id": -1,
        "continent_id": 102191575,
        "country_id": 85633793,
        "county_id": 102087579,
        "event_id": 1662081803,
        "locality_id": 85922583,
        "neighbourhood_id": -1,
        "region_id": 85688637,
        "venue_id": -1,
        "wing_id": -1
      }
    ],
    "wof:id": 1662081803,
    "wof:lastmodified": 1582922392,
    "wof:name": "UAL2290 (SFO-KNGU)",
    "wof:parent_id": -1,
    "wof:placetype": "event",
    "wof:repo": "sfomuseum-data-flights-2016",
    "wof:superseded_by": [],
    "wof:supersedes": []
  },
  "bbox": [
    -122.370943, 
    36.92515, 
    -76.30439, 
    37.61799
  ],
  "geometry": {"coordinates":[[-122.370943,37.61799],[-76.30439,36.92515]],"type":"MultiPoint"}
}
