{
  "id": 1662193293,
  "type": "Feature",
  "properties": {
    "edtf:cessation": "2016-04-05~",
    "edtf:inception": "2016-04-05T10:47:29",
    "flysfo:airline": "WN",
    "flysfo:date": "2016-04-05",
    "flysfo:event": "D",
    "flysfo:flight_number": "WN3012",
    "flysfo:journey": "SFO-KBUR",
    "geom:area": 0,
    "geom:bbox": "-122.370943,34.196704,-118.353322,37.617990",
    "geom:latitude": 35.907347,
    "geom:longitude": -120.3621325,
    "iata:airline": "WN",
    "icao:aircraft": "B737",
    "icao:airline": "SWA",
    "mz:is_current": -1,
    "sfomuseum:aircraft_id": 1159289869,
    "sfomuseum:airline_id": 1159285591,
    "sfomuseum:arrival_id": 102532771,
    "sfomuseum:departure_id": 102527513,
    "sfomuseum:flight_id": "20160405-D-SWA-3012",
    "sfomuseum:flight_number": [
      "WN3012", 
      "SWA3012"
    ],
    "sfomuseum:placetype": "flight",
    "src:geom": "sfonoise",
    "wof:belongsto": [
      102191575, 
      85633793, 
      85688637, 
      102087579, 
      1662193293, 
      85922583, 
      102527513, 
      1159396321
    ],
    "wof:country": "US",
    "wof:created": 1582924054,
    "wof:geomhash": "5b5841a3ebf3c57d9843115edfb8ee6b",
    "wof:hierarchy": [
      {
        "building_id": 1159396321,
        "campus_id": 102527513,
        "concourse_id": -1,
        "continent_id": 102191575,
        "country_id": 85633793,
        "county_id": 102087579,
        "event_id": 1662193293,
        "locality_id": 85922583,
        "neighbourhood_id": -1,
        "region_id": 85688637,
        "venue_id": -1,
        "wing_id": -1
      }
    ],
    "wof:id": 1662193293,
    "wof:lastmodified": 1582924054,
    "wof:name": "SWA3012 (SFO-KBUR)",
    "wof:parent_id": -1,
    "wof:placetype": "event",
    "wof:repo": "sfomuseum-data-flights-2016",
    "wof:superseded_by": [],
    "wof:supersedes": []
  },
  "bbox": [
    -122.370943, 
    34.196704, 
    -118.353322, 
    37.61799
  ],
  "geometry": {"coordinates":[[-122.370943,37.61799],[-118.353322,34.196704]],"type":"MultiPoint"}
}
