{
  "id": 1678945093,
  "type": "Feature",
  "properties": {
    "edtf:cessation": "2016-09-17~",
    "edtf:inception": "2016-09-17T14:47:37",
    "flysfo:airline": "UA",
    "flysfo:date": "2016-09-17",
    "flysfo:event": "D",
    "flysfo:flight_number": "UA2046",
    "flysfo:journey": "SFO-KDCA",
    "geom:area": 0,
    "geom:bbox": "-122.370943,37.617990,-77.041643,38.850639",
    "geom:latitude": 38.234314499999996,
    "geom:longitude": -99.70629299999999,
    "iata:airline": "UA",
    "icao:aircraft": "B738",
    "icao:airline": "UAL",
    "mz:is_current": -1,
    "sfomuseum:aircraft_id": 1159289871,
    "sfomuseum:airline_id": 1159285413,
    "sfomuseum:arrival_id": 102532159,
    "sfomuseum:departure_id": 102527513,
    "sfomuseum:flight_id": "20160917-D-UAL-2046",
    "sfomuseum:flight_number": [
      "UA2046", 
      "UAL2046"
    ],
    "sfomuseum:placetype": "flight",
    "src:geom": "sfonoise",
    "wof:belongsto": [
      1159157271, 
      85633793, 
      1678945093, 
      85922583, 
      85688637, 
      102527513, 
      102191575, 
      102087579
    ],
    "wof:country": "US",
    "wof:created": 1582930503,
    "wof:geomhash": "df4d5906f2523703f9da91c779be1785",
    "wof:hierarchy": [
      {
        "building_id": 1159157271,
        "campus_id": 102527513,
        "concourse_id": -1,
        "continent_id": 102191575,
        "country_id": 85633793,
        "county_id": 102087579,
        "event_id": 1678945093,
        "locality_id": 85922583,
        "neighbourhood_id": -1,
        "region_id": 85688637,
        "venue_id": -1,
        "wing_id": -1
      }
    ],
    "wof:id": 1678945093,
    "wof:lastmodified": 1582930503,
    "wof:name": "UAL2046 (SFO-KDCA)",
    "wof:parent_id": -1,
    "wof:placetype": "event",
    "wof:repo": "sfomuseum-data-flights-2016",
    "wof:superseded_by": [],
    "wof:supersedes": []
  },
  "bbox": [
    -122.370943, 
    37.61799, 
    -77.041643, 
    38.850639
  ],
  "geometry": {"coordinates":[[-122.370943,37.61799],[-77.041643,38.850639]],"type":"MultiPoint"}
}
