{
  "id": 1662275771,
  "type": "Feature",
  "properties": {
    "edtf:cessation": "2016-05-21T20:50:00",
    "edtf:inception": "2016-05-21~",
    "flysfo:airline": "WN",
    "flysfo:date": "2016-05-21",
    "flysfo:event": "A",
    "flysfo:flight_number": "WN1914",
    "flysfo:journey": "LAS-SFO",
    "geom:area": 0,
    "geom:bbox": "-122.370943,36.081003,-115.156440,37.617990",
    "geom:latitude": 36.8494965,
    "geom:longitude": -118.7636915,
    "iata:airline": "WN",
    "icao:aircraft": "B737",
    "icao:airline": "SWA",
    "mz:is_current": -1,
    "sfomuseum:aircraft_id": 1159289869,
    "sfomuseum:airline_id": 1159285591,
    "sfomuseum:arrival_id": 102527513,
    "sfomuseum:departure_id": 102527209,
    "sfomuseum:flight_id": "20160521-A-SWA-1914",
    "sfomuseum:flight_number": [
      "WN1914", 
      "SWA1914"
    ],
    "sfomuseum:placetype": "flight",
    "src:geom": "sfonoise",
    "wof:belongsto": [
      102527513, 
      1662275771, 
      1159396321, 
      102087579, 
      85688637, 
      85922583, 
      85633793, 
      102191575
    ],
    "wof:country": "US",
    "wof:created": 1582925729,
    "wof:geomhash": "fcf5095e8d1a14d003993bc5070a7f0f",
    "wof:hierarchy": [
      {
        "building_id": 1159396321,
        "campus_id": 102527513,
        "concourse_id": -1,
        "continent_id": 102191575,
        "country_id": 85633793,
        "county_id": 102087579,
        "event_id": 1662275771,
        "locality_id": 85922583,
        "neighbourhood_id": -1,
        "region_id": 85688637,
        "venue_id": -1,
        "wing_id": -1
      }
    ],
    "wof:id": 1662275771,
    "wof:lastmodified": 1582925729,
    "wof:name": "SWA1914 (LAS-SFO)",
    "wof:parent_id": -1,
    "wof:placetype": "event",
    "wof:repo": "sfomuseum-data-flights-2016",
    "wof:superseded_by": [],
    "wof:supersedes": []
  },
  "bbox": [
    -122.370943, 
    36.081003, 
    -115.15644, 
    37.61799
  ],
  "geometry": {"coordinates":[[-115.15644,36.081003],[-122.370943,37.61799]],"type":"MultiPoint"}
}
