{
  "id": 1662207861,
  "type": "Feature",
  "properties": {
    "edtf:cessation": "2016-04-13T19:22:22",
    "edtf:inception": "2016-04-13~",
    "flysfo:airline": "WN",
    "flysfo:date": "2016-04-13",
    "flysfo:event": "A",
    "flysfo:flight_number": "WN2096",
    "flysfo:journey": "KSAN-SFO",
    "geom:area": 0,
    "geom:bbox": "-122.370943,32.733534,-117.185927,37.617990",
    "geom:latitude": 35.175762,
    "geom:longitude": -119.778435,
    "iata:airline": "WN",
    "icao:aircraft": "B733",
    "icao:airline": "SWA",
    "mz:is_current": -1,
    "sfomuseum:aircraft_id": 1159289851,
    "sfomuseum:airline_id": 1159285591,
    "sfomuseum:arrival_id": 102527513,
    "sfomuseum:departure_id": 102528997,
    "sfomuseum:flight_id": "20160413-A-SWA-2096",
    "sfomuseum:flight_number": [
      "WN2096", 
      "SWA2096"
    ],
    "sfomuseum:placetype": "flight",
    "src:geom": "sfonoise",
    "wof:belongsto": [
      85922583, 
      102527513, 
      85633793, 
      102087579, 
      85688637, 
      102191575, 
      1662207861, 
      1159396321
    ],
    "wof:country": "US",
    "wof:created": 1582924384,
    "wof:geomhash": "d1d4873ced1d6ea3128e45b0b2070718",
    "wof:hierarchy": [
      {
        "building_id": 1159396321,
        "campus_id": 102527513,
        "concourse_id": -1,
        "continent_id": 102191575,
        "country_id": 85633793,
        "county_id": 102087579,
        "event_id": 1662207861,
        "locality_id": 85922583,
        "neighbourhood_id": -1,
        "region_id": 85688637,
        "venue_id": -1,
        "wing_id": -1
      }
    ],
    "wof:id": 1662207861,
    "wof:lastmodified": 1582924384,
    "wof:name": "SWA2096 (KSAN-SFO)",
    "wof:parent_id": -1,
    "wof:placetype": "event",
    "wof:repo": "sfomuseum-data-flights-2016",
    "wof:superseded_by": [],
    "wof:supersedes": []
  },
  "bbox": [
    -122.370943, 
    32.733534, 
    -117.185927, 
    37.61799
  ],
  "geometry": {"coordinates":[[-117.185927,32.733534],[-122.370943,37.61799]],"type":"MultiPoint"}
}
