{
  "id": 1662293269,
  "type": "Feature",
  "properties": {
    "edtf:cessation": "2016-05-31T16:11:03",
    "edtf:inception": "2016-05-31~",
    "flysfo:airline": "DL",
    "flysfo:date": "2016-05-31",
    "flysfo:event": "A",
    "flysfo:flight_number": "DL8924",
    "flysfo:journey": "KCLE-SFO",
    "geom:area": 0,
    "geom:bbox": "-122.370943,37.617990,-81.835629,41.406844",
    "geom:latitude": 39.512417,
    "geom:longitude": -102.103286,
    "iata:airline": "DL",
    "icao:aircraft": "B752",
    "icao:airline": "DAL",
    "mz:is_current": -1,
    "sfomuseum:aircraft_id": 1159289939,
    "sfomuseum:airline_id": 1159284261,
    "sfomuseum:arrival_id": 102527513,
    "sfomuseum:departure_id": 102534019,
    "sfomuseum:flight_id": "20160531-A-DAL-8924",
    "sfomuseum:flight_number": [
      "DL8924", 
      "DAL8924"
    ],
    "sfomuseum:placetype": "flight",
    "src:geom": "sfonoise",
    "wof:belongsto": [
      85633793, 
      102087579, 
      85922583, 
      85688637, 
      102527513, 
      102191575, 
      1662293269, 
      1159396321
    ],
    "wof:country": "US",
    "wof:created": 1582925980,
    "wof:geomhash": "b9e617aa80dabb56896871b70acf102e",
    "wof:hierarchy": [
      {
        "building_id": 1159396321,
        "campus_id": 102527513,
        "concourse_id": -1,
        "continent_id": 102191575,
        "country_id": 85633793,
        "county_id": 102087579,
        "event_id": 1662293269,
        "locality_id": 85922583,
        "neighbourhood_id": -1,
        "region_id": 85688637,
        "venue_id": -1,
        "wing_id": -1
      }
    ],
    "wof:id": 1662293269,
    "wof:lastmodified": 1582925980,
    "wof:name": "DAL8924 (KCLE-SFO)",
    "wof:parent_id": -1,
    "wof:placetype": "event",
    "wof:repo": "sfomuseum-data-flights-2016",
    "wof:superseded_by": [],
    "wof:supersedes": []
  },
  "bbox": [
    -122.370943, 
    37.61799, 
    -81.835629, 
    41.406844
  ],
  "geometry": {"coordinates":[[-81.835629,41.406844],[-122.370943,37.61799]],"type":"MultiPoint"}
}
