{
  "id": 1662182913,
  "type": "Feature",
  "properties": {
    "edtf:cessation": "2016-03-30~",
    "edtf:inception": "2016-03-30T09:27:03",
    "flysfo:airline": "UA",
    "flysfo:date": "2016-03-30",
    "flysfo:event": "D",
    "flysfo:flight_number": "UA2290",
    "flysfo:journey": "SFO-RKSO",
    "geom:area": 0,
    "geom:bbox": "-122.370943,37.090556,127.029722,37.617990",
    "geom:latitude": 37.354273,
    "geom:longitude": 2.329389500000005,
    "iata:airline": "UA",
    "icao:aircraft": "B772",
    "icao:airline": "UAL",
    "mz:is_current": -1,
    "sfomuseum:aircraft_id": 1159289985,
    "sfomuseum:airline_id": 1159285413,
    "sfomuseum:arrival_id": 102556495,
    "sfomuseum:departure_id": 102527513,
    "sfomuseum:flight_id": "20160330-D-UAL-2290",
    "sfomuseum:flight_number": [
      "UA2290", 
      "UAL2290"
    ],
    "sfomuseum:placetype": "flight",
    "src:geom": "sfonoise",
    "wof:belongsto": [
      102087579, 
      85922583, 
      1159396321, 
      102191575, 
      85633793, 
      85688637, 
      102527513, 
      1662182913
    ],
    "wof:country": "US",
    "wof:created": 1582923932,
    "wof:geomhash": "038451660ee3270672f0018c9a9f66d1",
    "wof:hierarchy": [
      {
        "building_id": 1159396321,
        "campus_id": 102527513,
        "concourse_id": -1,
        "continent_id": 102191575,
        "country_id": 85633793,
        "county_id": 102087579,
        "event_id": 1662182913,
        "locality_id": 85922583,
        "neighbourhood_id": -1,
        "region_id": 85688637,
        "venue_id": -1,
        "wing_id": -1
      }
    ],
    "wof:id": 1662182913,
    "wof:lastmodified": 1582923932,
    "wof:name": "UAL2290 (SFO-RKSO)",
    "wof:parent_id": -1,
    "wof:placetype": "event",
    "wof:repo": "sfomuseum-data-flights-2016",
    "wof:superseded_by": [],
    "wof:supersedes": []
  },
  "bbox": [
    -122.370943, 
    37.090556, 
    127.029722, 
    37.61799
  ],
  "geometry": {"coordinates":[[-122.370943,37.61799],[127.029722,37.090556]],"type":"MultiPoint"}
}
