{
  "id": 1678975801,
  "type": "Feature",
  "properties": {
    "edtf:cessation": "2016-09-24T08:59:46",
    "edtf:inception": "2016-09-24~",
    "flysfo:airline": "UA",
    "flysfo:date": "2016-09-24",
    "flysfo:event": "A",
    "flysfo:flight_number": "UA1432",
    "flysfo:journey": "KRDU-SFO",
    "geom:area": 0,
    "geom:bbox": "-122.370943,35.876323,-78.790399,37.617990",
    "geom:latitude": 36.7471565,
    "geom:longitude": -100.580671,
    "iata:airline": "UA",
    "icao:aircraft": "B739",
    "icao:airline": "UAL",
    "mz:is_current": -1,
    "sfomuseum:aircraft_id": 1377564285,
    "sfomuseum:airline_id": 1159285413,
    "sfomuseum:arrival_id": 102527513,
    "sfomuseum:departure_id": 102528779,
    "sfomuseum:flight_id": "20160924-A-UAL-1432",
    "sfomuseum:flight_number": [
      "UA1432", 
      "UAL1432"
    ],
    "sfomuseum:placetype": "flight",
    "src:geom": "sfonoise",
    "wof:belongsto": [
      1159157271, 
      102527513, 
      102087579, 
      85688637, 
      1678975801, 
      102191575, 
      85633793, 
      85922583
    ],
    "wof:country": "US",
    "wof:created": 1582930889,
    "wof:geomhash": "e1d14091bb010ff3febce3dc78c1c8b4",
    "wof:hierarchy": [
      {
        "building_id": 1159157271,
        "campus_id": 102527513,
        "concourse_id": -1,
        "continent_id": 102191575,
        "country_id": 85633793,
        "county_id": 102087579,
        "event_id": 1678975801,
        "locality_id": 85922583,
        "neighbourhood_id": -1,
        "region_id": 85688637,
        "venue_id": -1,
        "wing_id": -1
      }
    ],
    "wof:id": 1678975801,
    "wof:lastmodified": 1582930889,
    "wof:name": "UAL1432 (KRDU-SFO)",
    "wof:parent_id": -1,
    "wof:placetype": "event",
    "wof:repo": "sfomuseum-data-flights-2016",
    "wof:superseded_by": [],
    "wof:supersedes": []
  },
  "bbox": [
    -122.370943, 
    35.876323, 
    -78.790399, 
    37.61799
  ],
  "geometry": {"coordinates":[[-78.790399,35.876323],[-122.370943,37.61799]],"type":"MultiPoint"}
}
