{
  "id": 1662063137,
  "type": "Feature",
  "properties": {
    "edtf:cessation": "2016-01-13T08:42:21",
    "edtf:inception": "2016-01-13~",
    "flysfo:airline": "MU",
    "flysfo:date": "2016-01-13",
    "flysfo:event": "A",
    "flysfo:flight_number": "MU589",
    "flysfo:journey": "PVG-SFO",
    "geom:area": 0,
    "geom:bbox": "-122.370943,31.145312,121.799307,37.617990",
    "geom:latitude": 34.381651,
    "geom:longitude": -0.285817999999999,
    "iata:airline": "MU",
    "icao:aircraft": "B773",
    "icao:airline": "CES",
    "mz:is_current": -1,
    "sfomuseum:aircraft_id": 1528104579,
    "sfomuseum:airline_id": 1159284157,
    "sfomuseum:arrival_id": 102527513,
    "sfomuseum:departure_id": 102550331,
    "sfomuseum:flight_id": "20160113-A-CES-589",
    "sfomuseum:flight_number": [
      "MU589", 
      "CES589"
    ],
    "sfomuseum:placetype": "flight",
    "src:geom": "sfonoise",
    "wof:belongsto": [
      85633793, 
      85922583, 
      1159396321, 
      102191575, 
      102527513, 
      1662063137, 
      85688637, 
      102087579
    ],
    "wof:country": "US",
    "wof:created": 1582922147,
    "wof:geomhash": "0a16624c451961804ad27ef012213244",
    "wof:hierarchy": [
      {
        "building_id": 1159396321,
        "campus_id": 102527513,
        "concourse_id": -1,
        "continent_id": 102191575,
        "country_id": 85633793,
        "county_id": 102087579,
        "event_id": 1662063137,
        "locality_id": 85922583,
        "neighbourhood_id": -1,
        "region_id": 85688637,
        "venue_id": -1,
        "wing_id": -1
      }
    ],
    "wof:id": 1662063137,
    "wof:lastmodified": 1582922147,
    "wof:name": "CES589 (PVG-SFO)",
    "wof:parent_id": -1,
    "wof:placetype": "event",
    "wof:repo": "sfomuseum-data-flights-2016",
    "wof:superseded_by": [],
    "wof:supersedes": []
  },
  "bbox": [
    -122.370943, 
    31.145312, 
    121.799307, 
    37.61799
  ],
  "geometry": {"coordinates":[[121.799307,31.145312],[-122.370943,37.61799]],"type":"MultiPoint"}
}
