{
  "id": 1679032743,
  "type": "Feature",
  "properties": {
    "edtf:cessation": "2016-10-08~",
    "edtf:inception": "2016-10-08T05:35:27",
    "flysfo:airline": "5Y",
    "flysfo:date": "2016-10-08",
    "flysfo:event": "D",
    "flysfo:flight_number": "5Y8350",
    "flysfo:journey": "SFO-KORD",
    "geom:area": 0,
    "geom:bbox": "-122.370943,37.617990,-87.894364,41.983038",
    "geom:latitude": 39.800514,
    "geom:longitude": -105.1326535,
    "iata:airline": "5Y",
    "icao:aircraft": "B744",
    "icao:airline": "GTI",
    "mz:is_current": -1,
    "sfomuseum:aircraft_id": 1159289915,
    "sfomuseum:airline_id": 1159283935,
    "sfomuseum:arrival_id": 102533631,
    "sfomuseum:departure_id": 102527513,
    "sfomuseum:flight_id": "20161008-D-GTI-8350",
    "sfomuseum:flight_number": [
      "5Y8350", 
      "GTI8350"
    ],
    "sfomuseum:placetype": "flight",
    "src:geom": "sfonoise",
    "wof:belongsto": [
      85922583, 
      1159157271, 
      85633793, 
      1679032743, 
      102527513, 
      102191575, 
      85688637, 
      102087579
    ],
    "wof:country": "US",
    "wof:created": 1582931519,
    "wof:geomhash": "7a75cc81bf790964b92a4927d3978f50",
    "wof:hierarchy": [
      {
        "building_id": 1159157271,
        "campus_id": 102527513,
        "concourse_id": -1,
        "continent_id": 102191575,
        "country_id": 85633793,
        "county_id": 102087579,
        "event_id": 1679032743,
        "locality_id": 85922583,
        "neighbourhood_id": -1,
        "region_id": 85688637,
        "venue_id": -1,
        "wing_id": -1
      }
    ],
    "wof:id": 1679032743,
    "wof:lastmodified": 1582931519,
    "wof:name": "GTI8350 (SFO-KORD)",
    "wof:parent_id": -1,
    "wof:placetype": "event",
    "wof:repo": "sfomuseum-data-flights-2016",
    "wof:superseded_by": [],
    "wof:supersedes": []
  },
  "bbox": [
    -122.370943, 
    37.61799, 
    -87.894364, 
    41.983038
  ],
  "geometry": {"coordinates":[[-122.370943,37.61799],[-87.894364,41.983038]],"type":"MultiPoint"}
}
