{
  "id": 1679179471,
  "type": "Feature",
  "properties": {
    "edtf:cessation": "2016-11-14~",
    "edtf:inception": "2016-11-14T12:52:47",
    "flysfo:airline": "",
    "flysfo:date": "2016-11-14",
    "flysfo:event": "D",
    "flysfo:flight_number": "3119",
    "flysfo:journey": "SFO-KSCK",
    "geom:area": 0,
    "geom:bbox": "-122.370943,37.617990,-121.251374,37.897316",
    "geom:latitude": 37.757653,
    "geom:longitude": -121.8111585,
    "iata:airline": "",
    "icao:aircraft": "B762",
    "icao:airline": "ABX",
    "mz:is_current": -1,
    "sfomuseum:aircraft_id": 1159289953,
    "sfomuseum:airline_id": 1159283789,
    "sfomuseum:arrival_id": 102533209,
    "sfomuseum:departure_id": 102527513,
    "sfomuseum:flight_id": "20161114-D-ABX-3119",
    "sfomuseum:flight_number": [
      "3119", 
      "ABX3119"
    ],
    "sfomuseum:placetype": "flight",
    "src:geom": "sfonoise",
    "wof:belongsto": [
      1679179471, 
      85688637, 
      1159157271, 
      102087579, 
      102191575, 
      85922583, 
      102527513, 
      85633793
    ],
    "wof:country": "US",
    "wof:created": 1582933178,
    "wof:geomhash": "c75b830118617f05f326582474915718",
    "wof:hierarchy": [
      {
        "building_id": 1159157271,
        "campus_id": 102527513,
        "concourse_id": -1,
        "continent_id": 102191575,
        "country_id": 85633793,
        "county_id": 102087579,
        "event_id": 1679179471,
        "locality_id": 85922583,
        "neighbourhood_id": -1,
        "region_id": 85688637,
        "venue_id": -1,
        "wing_id": -1
      }
    ],
    "wof:id": 1679179471,
    "wof:lastmodified": 1582933178,
    "wof:name": "ABX3119 (SFO-KSCK)",
    "wof:parent_id": -1,
    "wof:placetype": "event",
    "wof:repo": "sfomuseum-data-flights-2016",
    "wof:superseded_by": [],
    "wof:supersedes": []
  },
  "bbox": [
    -122.370943, 
    37.61799, 
    -121.251374, 
    37.897316
  ],
  "geometry": {"coordinates":[[-122.370943,37.61799],[-121.251374,37.897316]],"type":"MultiPoint"}
}
