{
  "id": 1679065799,
  "type": "Feature",
  "properties": {
    "edtf:cessation": "2016-10-15T22:13:54",
    "edtf:inception": "2016-10-15~",
    "flysfo:airline": "UA",
    "flysfo:date": "2016-10-15",
    "flysfo:event": "A",
    "flysfo:flight_number": "UA2154",
    "flysfo:journey": "KMCN-SFO",
    "geom:area": 0,
    "geom:bbox": "-122.370943,32.696250,-83.641990,37.617990",
    "geom:latitude": 35.15712,
    "geom:longitude": -103.0064665,
    "iata:airline": "UA",
    "icao:aircraft": "B753",
    "icao:airline": "UAL",
    "mz:is_current": -1,
    "sfomuseum:aircraft_id": 1159289945,
    "sfomuseum:airline_id": 1159285413,
    "sfomuseum:arrival_id": 102527513,
    "sfomuseum:departure_id": 102531043,
    "sfomuseum:flight_id": "20161015-A-UAL-2154",
    "sfomuseum:flight_number": [
      "UA2154", 
      "UAL2154"
    ],
    "sfomuseum:placetype": "flight",
    "src:geom": "sfonoise",
    "wof:belongsto": [
      85922583, 
      85633793, 
      1679065799, 
      102527513, 
      85688637, 
      102191575, 
      102087579, 
      1159157271
    ],
    "wof:country": "US",
    "wof:created": 1582931918,
    "wof:geomhash": "42be22e75f6de8de2c60d782a3358b7e",
    "wof:hierarchy": [
      {
        "building_id": 1159157271,
        "campus_id": 102527513,
        "concourse_id": -1,
        "continent_id": 102191575,
        "country_id": 85633793,
        "county_id": 102087579,
        "event_id": 1679065799,
        "locality_id": 85922583,
        "neighbourhood_id": -1,
        "region_id": 85688637,
        "venue_id": -1,
        "wing_id": -1
      }
    ],
    "wof:id": 1679065799,
    "wof:lastmodified": 1582931918,
    "wof:name": "UAL2154 (KMCN-SFO)",
    "wof:parent_id": -1,
    "wof:placetype": "event",
    "wof:repo": "sfomuseum-data-flights-2016",
    "wof:superseded_by": [],
    "wof:supersedes": []
  },
  "bbox": [
    -122.370943, 
    32.69625, 
    -83.64199, 
    37.61799
  ],
  "geometry": {"coordinates":[[-83.64199,32.69625],[-122.370943,37.61799]],"type":"MultiPoint"}
}
