{
  "id": 1662084679,
  "type": "Feature",
  "properties": {
    "edtf:cessation": "2016-01-27~",
    "edtf:inception": "2016-01-27T12:49:23",
    "flysfo:airline": "VX",
    "flysfo:date": "2016-01-27",
    "flysfo:event": "D",
    "flysfo:flight_number": "VX8629",
    "flysfo:journey": "SFO-KMIA",
    "geom:area": 0,
    "geom:bbox": "-122.370943,25.790470,-80.296006,37.617990",
    "geom:latitude": 31.70423,
    "geom:longitude": -101.3334745,
    "iata:airline": "VX",
    "icao:aircraft": "A320",
    "icao:airline": "VRD",
    "mz:is_current": -1,
    "sfomuseum:aircraft_id": 1159292085,
    "sfomuseum:airline_id": 1159285481,
    "sfomuseum:arrival_id": 102531023,
    "sfomuseum:departure_id": 102527513,
    "sfomuseum:flight_id": "20160127-D-VRD-8629",
    "sfomuseum:flight_number": [
      "VX8629", 
      "VRD8629"
    ],
    "sfomuseum:placetype": "flight",
    "src:geom": "sfonoise",
    "wof:belongsto": [
      85633793, 
      102087579, 
      1662084679, 
      85688637, 
      102527513, 
      85922583, 
      1159396321, 
      102191575
    ],
    "wof:country": "US",
    "wof:created": 1582922432,
    "wof:geomhash": "05e474f4bf1eb5ae110c20d94aac828f",
    "wof:hierarchy": [
      {
        "building_id": 1159396321,
        "campus_id": 102527513,
        "concourse_id": -1,
        "continent_id": 102191575,
        "country_id": 85633793,
        "county_id": 102087579,
        "event_id": 1662084679,
        "locality_id": 85922583,
        "neighbourhood_id": -1,
        "region_id": 85688637,
        "venue_id": -1,
        "wing_id": -1
      }
    ],
    "wof:id": 1662084679,
    "wof:lastmodified": 1582922432,
    "wof:name": "VRD8629 (SFO-KMIA)",
    "wof:parent_id": -1,
    "wof:placetype": "event",
    "wof:repo": "sfomuseum-data-flights-2016",
    "wof:superseded_by": [],
    "wof:supersedes": []
  },
  "bbox": [
    -122.370943, 
    25.79047, 
    -80.296006, 
    37.61799
  ],
  "geometry": {"coordinates":[[-122.370943,37.61799],[-80.296006,25.79047]],"type":"MultiPoint"}
}
