{
  "id": 1662308515,
  "type": "Feature",
  "properties": {
    "edtf:cessation": "2016-06-08T20:12:08",
    "edtf:inception": "2016-06-08~",
    "flysfo:airline": "DL",
    "flysfo:date": "2016-06-08",
    "flysfo:event": "A",
    "flysfo:flight_number": "DL8840",
    "flysfo:journey": "KHOU-SFO",
    "geom:area": 0,
    "geom:bbox": "-122.370943,29.652674,-95.279344,37.617990",
    "geom:latitude": 33.635332,
    "geom:longitude": -108.8251435,
    "iata:airline": "DL",
    "icao:aircraft": "B752",
    "icao:airline": "DAL",
    "mz:is_current": -1,
    "sfomuseum:aircraft_id": 1159289939,
    "sfomuseum:airline_id": 1159284261,
    "sfomuseum:arrival_id": 102527513,
    "sfomuseum:departure_id": 102531775,
    "sfomuseum:flight_id": "20160608-A-DAL-8840",
    "sfomuseum:flight_number": [
      "DL8840", 
      "DAL8840"
    ],
    "sfomuseum:placetype": "flight",
    "src:geom": "sfonoise",
    "wof:belongsto": [
      85633793, 
      102527513, 
      85688637, 
      1159396321, 
      102191575, 
      102087579, 
      1662308515, 
      85922583
    ],
    "wof:country": "US",
    "wof:created": 1582926290,
    "wof:geomhash": "a5dc7134a1c5d943495b40cb1b713674",
    "wof:hierarchy": [
      {
        "building_id": 1159396321,
        "campus_id": 102527513,
        "concourse_id": -1,
        "continent_id": 102191575,
        "country_id": 85633793,
        "county_id": 102087579,
        "event_id": 1662308515,
        "locality_id": 85922583,
        "neighbourhood_id": -1,
        "region_id": 85688637,
        "venue_id": -1,
        "wing_id": -1
      }
    ],
    "wof:id": 1662308515,
    "wof:lastmodified": 1582926290,
    "wof:name": "DAL8840 (KHOU-SFO)",
    "wof:parent_id": -1,
    "wof:placetype": "event",
    "wof:repo": "sfomuseum-data-flights-2016",
    "wof:superseded_by": [],
    "wof:supersedes": []
  },
  "bbox": [
    -122.370943, 
    29.652674, 
    -95.279344, 
    37.61799
  ],
  "geometry": {"coordinates":[[-95.279344,29.652674],[-122.370943,37.61799]],"type":"MultiPoint"}
}
