{
  "id": 1662220793,
  "type": "Feature",
  "properties": {
    "edtf:cessation": "2016-04-21~",
    "edtf:inception": "2016-04-21T08:50:18",
    "flysfo:airline": "UA",
    "flysfo:date": "2016-04-21",
    "flysfo:event": "D",
    "flysfo:flight_number": "UA2264",
    "flysfo:journey": "SFO-MYNN",
    "geom:area": 0,
    "geom:bbox": "-122.370943,25.047706,-77.464957,37.617990",
    "geom:latitude": 31.332848,
    "geom:longitude": -99.91794999999999,
    "iata:airline": "UA",
    "icao:aircraft": "B772",
    "icao:airline": "UAL",
    "mz:is_current": -1,
    "sfomuseum:aircraft_id": 1159289985,
    "sfomuseum:airline_id": 1159285413,
    "sfomuseum:arrival_id": 102543707,
    "sfomuseum:departure_id": 102527513,
    "sfomuseum:flight_id": "20160421-D-UAL-2264",
    "sfomuseum:flight_number": [
      "UA2264", 
      "UAL2264"
    ],
    "sfomuseum:placetype": "flight",
    "src:geom": "sfonoise",
    "wof:belongsto": [
      85633793, 
      102087579, 
      85922583, 
      1662220793, 
      85688637, 
      1159396321, 
      102527513, 
      102191575
    ],
    "wof:country": "US",
    "wof:created": 1582924709,
    "wof:geomhash": "a7009499e243854d783b46e567d77554",
    "wof:hierarchy": [
      {
        "building_id": 1159396321,
        "campus_id": 102527513,
        "concourse_id": -1,
        "continent_id": 102191575,
        "country_id": 85633793,
        "county_id": 102087579,
        "event_id": 1662220793,
        "locality_id": 85922583,
        "neighbourhood_id": -1,
        "region_id": 85688637,
        "venue_id": -1,
        "wing_id": -1
      }
    ],
    "wof:id": 1662220793,
    "wof:lastmodified": 1582924709,
    "wof:name": "UAL2264 (SFO-MYNN)",
    "wof:parent_id": -1,
    "wof:placetype": "event",
    "wof:repo": "sfomuseum-data-flights-2016",
    "wof:superseded_by": [],
    "wof:supersedes": []
  },
  "bbox": [
    -122.370943, 
    25.047706, 
    -77.464957, 
    37.61799
  ],
  "geometry": {"coordinates":[[-122.370943,37.61799],[-77.464957,25.047706]],"type":"MultiPoint"}
}
