{
  "id": 1662234707,
  "type": "Feature",
  "properties": {
    "edtf:cessation": "2016-04-28T00:06:12",
    "edtf:inception": "2016-04-28~",
    "flysfo:airline": "DL",
    "flysfo:date": "2016-04-28",
    "flysfo:event": "A",
    "flysfo:flight_number": "DL2540",
    "flysfo:journey": "KMSP-SFO",
    "geom:area": 0,
    "geom:bbox": "-122.370943,37.617990,-93.200317,44.883321",
    "geom:latitude": 41.2506555,
    "geom:longitude": -107.78563,
    "iata:airline": "DL",
    "icao:aircraft": "B739",
    "icao:airline": "DAL",
    "mz:is_current": -1,
    "sfomuseum:aircraft_id": 1377564285,
    "sfomuseum:airline_id": 1159284261,
    "sfomuseum:arrival_id": 102527513,
    "sfomuseum:departure_id": 102531131,
    "sfomuseum:flight_id": "20160428-A-DAL-2540",
    "sfomuseum:flight_number": [
      "DL2540", 
      "DAL2540"
    ],
    "sfomuseum:placetype": "flight",
    "src:geom": "sfonoise",
    "wof:belongsto": [
      1159396321, 
      1662234707, 
      85922583, 
      102087579, 
      102527513, 
      85688637, 
      102191575, 
      85633793
    ],
    "wof:country": "US",
    "wof:created": 1582925019,
    "wof:geomhash": "0c6e1b69ec0e7e239d3f5365b057a47f",
    "wof:hierarchy": [
      {
        "building_id": 1159396321,
        "campus_id": 102527513,
        "concourse_id": -1,
        "continent_id": 102191575,
        "country_id": 85633793,
        "county_id": 102087579,
        "event_id": 1662234707,
        "locality_id": 85922583,
        "neighbourhood_id": -1,
        "region_id": 85688637,
        "venue_id": -1,
        "wing_id": -1
      }
    ],
    "wof:id": 1662234707,
    "wof:lastmodified": 1582925019,
    "wof:name": "DAL2540 (KMSP-SFO)",
    "wof:parent_id": -1,
    "wof:placetype": "event",
    "wof:repo": "sfomuseum-data-flights-2016",
    "wof:superseded_by": [],
    "wof:supersedes": []
  },
  "bbox": [
    -122.370943, 
    37.61799, 
    -93.200317, 
    44.883321
  ],
  "geometry": {"coordinates":[[-93.200317,44.883321],[-122.370943,37.61799]],"type":"MultiPoint"}
}
