{
  "id": 1678840661,
  "type": "Feature",
  "properties": {
    "edtf:cessation": "2016-08-28~",
    "edtf:inception": "2016-08-28T09:01:47",
    "flysfo:airline": "UA",
    "flysfo:date": "2016-08-28",
    "flysfo:event": "D",
    "flysfo:flight_number": "UA1747",
    "flysfo:journey": "SFO-KBZN",
    "geom:area": 0,
    "geom:bbox": "-122.370943,37.617990,-111.158267,45.775425",
    "geom:latitude": 41.6967075,
    "geom:longitude": -116.76460499999999,
    "iata:airline": "UA",
    "icao:aircraft": "A319",
    "icao:airline": "UAL",
    "mz:is_current": -1,
    "sfomuseum:aircraft_id": 1159289407,
    "sfomuseum:airline_id": 1159285413,
    "sfomuseum:arrival_id": 102530815,
    "sfomuseum:departure_id": 102527513,
    "sfomuseum:flight_id": "20160828-D-UAL-1747",
    "sfomuseum:flight_number": [
      "UA1747", 
      "UAL1747"
    ],
    "sfomuseum:placetype": "flight",
    "src:geom": "sfonoise",
    "wof:belongsto": [
      85633793, 
      85922583, 
      85688637, 
      102191575, 
      102527513, 
      1678840661, 
      1159157271, 
      102087579
    ],
    "wof:country": "US",
    "wof:created": 1582929120,
    "wof:geomhash": "8115bc7828d3bd6404c793fb172971b8",
    "wof:hierarchy": [
      {
        "building_id": 1159157271,
        "campus_id": 102527513,
        "concourse_id": -1,
        "continent_id": 102191575,
        "country_id": 85633793,
        "county_id": 102087579,
        "event_id": 1678840661,
        "locality_id": 85922583,
        "neighbourhood_id": -1,
        "region_id": 85688637,
        "venue_id": -1,
        "wing_id": -1
      }
    ],
    "wof:id": 1678840661,
    "wof:lastmodified": 1582929120,
    "wof:name": "UAL1747 (SFO-KBZN)",
    "wof:parent_id": -1,
    "wof:placetype": "event",
    "wof:repo": "sfomuseum-data-flights-2016",
    "wof:superseded_by": [],
    "wof:supersedes": []
  },
  "bbox": [
    -122.370943, 
    37.61799, 
    -111.158267, 
    45.775425
  ],
  "geometry": {"coordinates":[[-122.370943,37.61799],[-111.158267,45.775425]],"type":"MultiPoint"}
}
