{
  "id": 1629238481,
  "type": "Feature",
  "properties": {
    "edtf:cessation": "2016-07-19T07:20:42",
    "edtf:inception": "2016-07-19~",
    "flysfo:airline": "UA",
    "flysfo:date": "2016-07-19",
    "flysfo:event": "A",
    "flysfo:flight_number": "UA2198",
    "flysfo:journey": "KAMA-SFO",
    "geom:area": 0,
    "geom:bbox": "-122.370943,35.220180,-101.708962,37.617990",
    "geom:latitude": 36.419084999999995,
    "geom:longitude": -112.0399525,
    "iata:airline": "UA",
    "icao:aircraft": "B744",
    "icao:airline": "UAL",
    "mz:is_current": -1,
    "sfomuseum:aircraft_id": 1159289915,
    "sfomuseum:airline_id": 1159285413,
    "sfomuseum:arrival_id": 102527513,
    "sfomuseum:departure_id": 102529249,
    "sfomuseum:flight_id": "20160719-A-UAL-2198",
    "sfomuseum:flight_number": [
      "UA2198", 
      "UAL2198"
    ],
    "sfomuseum:placetype": "flight",
    "src:geom": "sfonoise",
    "wof:belongsto": [
      85922583, 
      1159157271, 
      102087579, 
      85633793, 
      102191575, 
      102527513, 
      85688637, 
      1629238481
    ],
    "wof:country": "US",
    "wof:created": 1582927513,
    "wof:geomhash": "4950ee3446b3bceb23f284f0ade1f651",
    "wof:hierarchy": [
      {
        "building_id": 1159157271,
        "campus_id": 102527513,
        "concourse_id": -1,
        "continent_id": 102191575,
        "country_id": 85633793,
        "county_id": 102087579,
        "event_id": 1629238481,
        "locality_id": 85922583,
        "neighbourhood_id": -1,
        "region_id": 85688637,
        "venue_id": -1,
        "wing_id": -1
      }
    ],
    "wof:id": 1629238481,
    "wof:lastmodified": 1582927513,
    "wof:name": "UAL2198 (KAMA-SFO)",
    "wof:parent_id": -1,
    "wof:placetype": "event",
    "wof:repo": "sfomuseum-data-flights-2016",
    "wof:superseded_by": [],
    "wof:supersedes": []
  },
  "bbox": [
    -122.370943, 
    35.22018, 
    -101.708962, 
    37.61799
  ],
  "geometry": {"coordinates":[[-101.708962,35.22018],[-122.370943,37.61799]],"type":"MultiPoint"}
}
