{
  "id": 1662049619,
  "type": "Feature",
  "properties": {
    "edtf:cessation": "2016-01-04T13:31:37",
    "edtf:inception": "2016-01-04~",
    "flysfo:airline": "AA",
    "flysfo:date": "2016-01-04",
    "flysfo:event": "A",
    "flysfo:flight_number": "AA2356",
    "flysfo:journey": "ORD-SFO",
    "geom:area": 0,
    "geom:bbox": "-122.370943,37.617990,-87.894364,41.983038",
    "geom:latitude": 39.800514,
    "geom:longitude": -105.1326535,
    "iata:airline": "AA",
    "icao:aircraft": "B738",
    "icao:airline": "AAL",
    "mz:is_current": -1,
    "sfomuseum:aircraft_id": 1159289871,
    "sfomuseum:airline_id": 1159283851,
    "sfomuseum:arrival_id": 102527513,
    "sfomuseum:departure_id": 102533631,
    "sfomuseum:flight_id": "20160104-A-AAL-2356",
    "sfomuseum:flight_number": [
      "AA2356", 
      "AAL2356"
    ],
    "sfomuseum:placetype": "flight",
    "src:geom": "sfonoise",
    "wof:belongsto": [
      1159396321, 
      85633793, 
      102087579, 
      85688637, 
      102191575, 
      1662049619, 
      85922583, 
      102527513
    ],
    "wof:country": "US",
    "wof:created": 1582921974,
    "wof:geomhash": "81d390dcf2582f737869c573200abb8f",
    "wof:hierarchy": [
      {
        "building_id": 1159396321,
        "campus_id": 102527513,
        "concourse_id": -1,
        "continent_id": 102191575,
        "country_id": 85633793,
        "county_id": 102087579,
        "event_id": 1662049619,
        "locality_id": 85922583,
        "neighbourhood_id": -1,
        "region_id": 85688637,
        "venue_id": -1,
        "wing_id": -1
      }
    ],
    "wof:id": 1662049619,
    "wof:lastmodified": 1582921974,
    "wof:name": "AAL2356 (ORD-SFO)",
    "wof:parent_id": -1,
    "wof:placetype": "event",
    "wof:repo": "sfomuseum-data-flights-2016",
    "wof:superseded_by": [],
    "wof:supersedes": []
  },
  "bbox": [
    -122.370943, 
    37.61799, 
    -87.894364, 
    41.983038
  ],
  "geometry": {"coordinates":[[-87.894364,41.983038],[-122.370943,37.61799]],"type":"MultiPoint"}
}
