{
  "id": 1629317337,
  "type": "Feature",
  "properties": {
    "edtf:cessation": "2016-08-07T21:25:12",
    "edtf:inception": "2016-08-07~",
    "flysfo:airline": "UA",
    "flysfo:date": "2016-08-07",
    "flysfo:event": "A",
    "flysfo:flight_number": "UA1595",
    "flysfo:journey": "KSEA-SFO",
    "geom:area": 0,
    "geom:bbox": "-122.370943,37.617990,-122.304268,47.441823",
    "geom:latitude": 42.529906499999996,
    "geom:longitude": -122.3376055,
    "iata:airline": "UA",
    "icao:aircraft": "B739",
    "icao:airline": "UAL",
    "mz:is_current": -1,
    "sfomuseum:aircraft_id": 1377564285,
    "sfomuseum:airline_id": 1159285413,
    "sfomuseum:arrival_id": 102527513,
    "sfomuseum:departure_id": 102533269,
    "sfomuseum:flight_id": "20160807-A-UAL-1595",
    "sfomuseum:flight_number": [
      "UA1595", 
      "UAL1595"
    ],
    "sfomuseum:placetype": "flight",
    "src:geom": "sfonoise",
    "wof:belongsto": [
      85688637, 
      1159157271, 
      102527513, 
      85922583, 
      102191575, 
      85633793, 
      102087579, 
      1629317337
    ],
    "wof:country": "US",
    "wof:created": 1582928136,
    "wof:geomhash": "3123a4aff4021144fa8973299956ba97",
    "wof:hierarchy": [
      {
        "building_id": 1159157271,
        "campus_id": 102527513,
        "concourse_id": -1,
        "continent_id": 102191575,
        "country_id": 85633793,
        "county_id": 102087579,
        "event_id": 1629317337,
        "locality_id": 85922583,
        "neighbourhood_id": -1,
        "region_id": 85688637,
        "venue_id": -1,
        "wing_id": -1
      }
    ],
    "wof:id": 1629317337,
    "wof:lastmodified": 1582928136,
    "wof:name": "UAL1595 (KSEA-SFO)",
    "wof:parent_id": -1,
    "wof:placetype": "event",
    "wof:repo": "sfomuseum-data-flights-2016",
    "wof:superseded_by": [],
    "wof:supersedes": []
  },
  "bbox": [
    -122.370943, 
    37.61799, 
    -122.304268, 
    47.441823
  ],
  "geometry": {"coordinates":[[-122.304268,47.441823],[-122.370943,37.61799]],"type":"MultiPoint"}
}
