{
  "id": 1662252239,
  "type": "Feature",
  "properties": {
    "edtf:cessation": "2016-05-08T00:16:31",
    "edtf:inception": "2016-05-08~",
    "flysfo:airline": "WN",
    "flysfo:date": "2016-05-08",
    "flysfo:event": "A",
    "flysfo:flight_number": "WN1405",
    "flysfo:journey": "DEN-SFO",
    "geom:area": 0,
    "geom:bbox": "-122.370943,37.617990,-104.672219,39.864939",
    "geom:latitude": 38.7414645,
    "geom:longitude": -113.521581,
    "iata:airline": "WN",
    "icao:aircraft": "B733",
    "icao:airline": "SWA",
    "mz:is_current": -1,
    "sfomuseum:aircraft_id": 1159289851,
    "sfomuseum:airline_id": 1159285591,
    "sfomuseum:arrival_id": 102527513,
    "sfomuseum:departure_id": 102531189,
    "sfomuseum:flight_id": "20160508-A-SWA-1405",
    "sfomuseum:flight_number": [
      "WN1405", 
      "SWA1405"
    ],
    "sfomuseum:placetype": "flight",
    "src:geom": "sfonoise",
    "wof:belongsto": [
      85633793, 
      1662252239, 
      85688637, 
      102191575, 
      102087579, 
      85922583, 
      102527513, 
      1159396321
    ],
    "wof:country": "US",
    "wof:created": 1582925382,
    "wof:geomhash": "736fe0d2ebd38878be6950e82908a686",
    "wof:hierarchy": [
      {
        "building_id": 1159396321,
        "campus_id": 102527513,
        "concourse_id": -1,
        "continent_id": 102191575,
        "country_id": 85633793,
        "county_id": 102087579,
        "event_id": 1662252239,
        "locality_id": 85922583,
        "neighbourhood_id": -1,
        "region_id": 85688637,
        "venue_id": -1,
        "wing_id": -1
      }
    ],
    "wof:id": 1662252239,
    "wof:lastmodified": 1582925382,
    "wof:name": "SWA1405 (DEN-SFO)",
    "wof:parent_id": -1,
    "wof:placetype": "event",
    "wof:repo": "sfomuseum-data-flights-2016",
    "wof:superseded_by": [],
    "wof:supersedes": []
  },
  "bbox": [
    -122.370943, 
    37.61799, 
    -104.672219, 
    39.864939
  ],
  "geometry": {"coordinates":[[-104.672219,39.864939],[-122.370943,37.61799]],"type":"MultiPoint"}
}
