{
  "id": 1679212813,
  "type": "Feature",
  "properties": {
    "edtf:cessation": "2016-11-24T20:30:16",
    "edtf:inception": "2016-11-24~",
    "flysfo:airline": "VX",
    "flysfo:date": "2016-11-24",
    "flysfo:event": "A",
    "flysfo:flight_number": "VX8634",
    "flysfo:journey": "KDAL-SFO",
    "geom:area": 0,
    "geom:bbox": "-122.370943,32.845849,-96.850523,37.617990",
    "geom:latitude": 35.231919500000004,
    "geom:longitude": -109.610733,
    "iata:airline": "VX",
    "icao:aircraft": "A320",
    "icao:airline": "VRD",
    "mz:is_current": -1,
    "sfomuseum:aircraft_id": 1159292085,
    "sfomuseum:airline_id": 1159285481,
    "sfomuseum:arrival_id": 102527513,
    "sfomuseum:departure_id": 102525799,
    "sfomuseum:flight_id": "20161124-A-VRD-8634",
    "sfomuseum:flight_number": [
      "VX8634", 
      "VRD8634"
    ],
    "sfomuseum:placetype": "flight",
    "src:geom": "sfonoise",
    "wof:belongsto": [
      102527513, 
      85633793, 
      1679212813, 
      85922583, 
      85688637, 
      1159157271, 
      102087579, 
      102191575
    ],
    "wof:country": "US",
    "wof:created": 1582933500,
    "wof:geomhash": "ecfc64ce72b903780fc129f985c12eef",
    "wof:hierarchy": [
      {
        "building_id": 1159157271,
        "campus_id": 102527513,
        "concourse_id": -1,
        "continent_id": 102191575,
        "country_id": 85633793,
        "county_id": 102087579,
        "event_id": 1679212813,
        "locality_id": 85922583,
        "neighbourhood_id": -1,
        "region_id": 85688637,
        "venue_id": -1,
        "wing_id": -1
      }
    ],
    "wof:id": 1679212813,
    "wof:lastmodified": 1582933500,
    "wof:name": "VRD8634 (KDAL-SFO)",
    "wof:parent_id": -1,
    "wof:placetype": "event",
    "wof:repo": "sfomuseum-data-flights-2016",
    "wof:superseded_by": [],
    "wof:supersedes": []
  },
  "bbox": [
    -122.370943, 
    32.845849, 
    -96.850523, 
    37.61799
  ],
  "geometry": {"coordinates":[[-96.850523,32.845849],[-122.370943,37.61799]],"type":"MultiPoint"}
}
