{
  "id": 1662244723,
  "type": "Feature",
  "properties": {
    "edtf:cessation": "2016-05-04T19:31:52",
    "edtf:inception": "2016-05-04~",
    "flysfo:airline": "5Y",
    "flysfo:date": "2016-05-04",
    "flysfo:event": "A",
    "flysfo:flight_number": "5Y8148",
    "flysfo:journey": "KSUU-SFO",
    "geom:area": 0,
    "geom:bbox": "-122.370943,37.617990,-121.773456,38.248818",
    "geom:latitude": 37.933403999999996,
    "geom:longitude": -122.0721995,
    "iata:airline": "5Y",
    "icao:aircraft": "B744",
    "icao:airline": "GTI",
    "mz:is_current": -1,
    "sfomuseum:aircraft_id": 1159289915,
    "sfomuseum:airline_id": 1159283935,
    "sfomuseum:arrival_id": 102527513,
    "sfomuseum:departure_id": 102526823,
    "sfomuseum:flight_id": "20160504-A-GTI-8148",
    "sfomuseum:flight_number": [
      "5Y8148", 
      "GTI8148"
    ],
    "sfomuseum:placetype": "flight",
    "src:geom": "sfonoise",
    "wof:belongsto": [
      102087579, 
      1662244723, 
      102527513, 
      85633793, 
      85688637, 
      1159396321, 
      102191575, 
      85922583
    ],
    "wof:country": "US",
    "wof:created": 1582925235,
    "wof:geomhash": "ee7de9a5672098890b3942ddeed34a35",
    "wof:hierarchy": [
      {
        "building_id": 1159396321,
        "campus_id": 102527513,
        "concourse_id": -1,
        "continent_id": 102191575,
        "country_id": 85633793,
        "county_id": 102087579,
        "event_id": 1662244723,
        "locality_id": 85922583,
        "neighbourhood_id": -1,
        "region_id": 85688637,
        "venue_id": -1,
        "wing_id": -1
      }
    ],
    "wof:id": 1662244723,
    "wof:lastmodified": 1582925235,
    "wof:name": "GTI8148 (KSUU-SFO)",
    "wof:parent_id": -1,
    "wof:placetype": "event",
    "wof:repo": "sfomuseum-data-flights-2016",
    "wof:superseded_by": [],
    "wof:supersedes": []
  },
  "bbox": [
    -122.370943, 
    37.61799, 
    -121.773456, 
    38.248818
  ],
  "geometry": {"coordinates":[[-121.773456,38.248818],[-122.370943,37.61799]],"type":"MultiPoint"}
}
