{
  "id": 1679245905,
  "type": "Feature",
  "properties": {
    "edtf:cessation": "2016-12-04T21:11:10",
    "edtf:inception": "2016-12-04~",
    "flysfo:airline": "UA",
    "flysfo:date": "2016-12-04",
    "flysfo:event": "A",
    "flysfo:flight_number": "UA2062",
    "flysfo:journey": "KTUL-SFO",
    "geom:area": 0,
    "geom:bbox": "-122.370943,36.191308,-95.885630,37.617990",
    "geom:latitude": 36.904649,
    "geom:longitude": -109.1282865,
    "iata:airline": "UA",
    "icao:aircraft": "A320",
    "icao:airline": "UAL",
    "mz:is_current": -1,
    "sfomuseum:aircraft_id": 1159292085,
    "sfomuseum:airline_id": 1159285413,
    "sfomuseum:arrival_id": 102527513,
    "sfomuseum:departure_id": 102527781,
    "sfomuseum:flight_id": "20161204-A-UAL-2062",
    "sfomuseum:flight_number": [
      "UA2062", 
      "UAL2062"
    ],
    "sfomuseum:placetype": "flight",
    "src:geom": "sfonoise",
    "wof:belongsto": [
      102191575, 
      102087579, 
      85688637, 
      85633793, 
      1679245905, 
      85922583, 
      1159157271, 
      102527513
    ],
    "wof:country": "US",
    "wof:created": 1582933815,
    "wof:geomhash": "9c867b5cd9d7b29cfd492cfee82d8bcb",
    "wof:hierarchy": [
      {
        "building_id": 1159157271,
        "campus_id": 102527513,
        "concourse_id": -1,
        "continent_id": 102191575,
        "country_id": 85633793,
        "county_id": 102087579,
        "event_id": 1679245905,
        "locality_id": 85922583,
        "neighbourhood_id": -1,
        "region_id": 85688637,
        "venue_id": -1,
        "wing_id": -1
      }
    ],
    "wof:id": 1679245905,
    "wof:lastmodified": 1582933815,
    "wof:name": "UAL2062 (KTUL-SFO)",
    "wof:parent_id": -1,
    "wof:placetype": "event",
    "wof:repo": "sfomuseum-data-flights-2016",
    "wof:superseded_by": [],
    "wof:supersedes": []
  },
  "bbox": [
    -122.370943, 
    36.191308, 
    -95.88563, 
    37.61799
  ],
  "geometry": {"coordinates":[[-95.88563,36.191308],[-122.370943,37.61799]],"type":"MultiPoint"}
}
