{
  "id": 1678990979,
  "type": "Feature",
  "properties": {
    "edtf:cessation": "2016-09-27~",
    "edtf:inception": "2016-09-27T22:04:24",
    "flysfo:airline": "UA",
    "flysfo:date": "2016-09-27",
    "flysfo:event": "D",
    "flysfo:flight_number": "UA2168",
    "flysfo:journey": "SFO-KLAX",
    "geom:area": 0,
    "geom:bbox": "-122.370943,33.942593,-118.389510,37.617990",
    "geom:latitude": 35.780291500000004,
    "geom:longitude": -120.38022649999999,
    "iata:airline": "UA",
    "icao:aircraft": "B788",
    "icao:airline": "UAL",
    "mz:is_current": -1,
    "sfomuseum:aircraft_id": 1159289995,
    "sfomuseum:airline_id": 1159285413,
    "sfomuseum:arrival_id": 102533795,
    "sfomuseum:departure_id": 102527513,
    "sfomuseum:flight_id": "20160927-D-UAL-2168",
    "sfomuseum:flight_number": [
      "UA2168", 
      "UAL2168"
    ],
    "sfomuseum:placetype": "flight",
    "src:geom": "sfonoise",
    "wof:belongsto": [
      1159157271, 
      85633793, 
      102191575, 
      102087579, 
      1678990979, 
      85922583, 
      85688637, 
      102527513
    ],
    "wof:country": "US",
    "wof:created": 1582931060,
    "wof:geomhash": "602be2a828e3460cadf44be5b1c2e36b",
    "wof:hierarchy": [
      {
        "building_id": 1159157271,
        "campus_id": 102527513,
        "concourse_id": -1,
        "continent_id": 102191575,
        "country_id": 85633793,
        "county_id": 102087579,
        "event_id": 1678990979,
        "locality_id": 85922583,
        "neighbourhood_id": -1,
        "region_id": 85688637,
        "venue_id": -1,
        "wing_id": -1
      }
    ],
    "wof:id": 1678990979,
    "wof:lastmodified": 1582931060,
    "wof:name": "UAL2168 (SFO-KLAX)",
    "wof:parent_id": -1,
    "wof:placetype": "event",
    "wof:repo": "sfomuseum-data-flights-2016",
    "wof:superseded_by": [],
    "wof:supersedes": []
  },
  "bbox": [
    -122.370943, 
    33.942593, 
    -118.38951, 
    37.61799
  ],
  "geometry": {"coordinates":[[-122.370943,37.61799],[-118.38951,33.942593]],"type":"MultiPoint"}
}
