{
  "id": 1662100971,
  "type": "Feature",
  "properties": {
    "edtf:cessation": "2016-02-08~",
    "edtf:inception": "2016-02-08T07:25:41",
    "flysfo:airline": "AA",
    "flysfo:date": "2016-02-08",
    "flysfo:event": "D",
    "flysfo:flight_number": "AA1451",
    "flysfo:journey": "SFO-KDEN",
    "geom:area": 0,
    "geom:bbox": "-122.370943,37.617990,-104.672219,39.864939",
    "geom:latitude": 38.7414645,
    "geom:longitude": -113.521581,
    "iata:airline": "AA",
    "icao:aircraft": "A321",
    "icao:airline": "AAL",
    "mz:is_current": -1,
    "sfomuseum:aircraft_id": 1159289411,
    "sfomuseum:airline_id": 1159283851,
    "sfomuseum:arrival_id": 102531189,
    "sfomuseum:departure_id": 102527513,
    "sfomuseum:flight_id": "20160208-D-AAL-1451",
    "sfomuseum:flight_number": [
      "AA1451", 
      "AAL1451"
    ],
    "sfomuseum:placetype": "flight",
    "src:geom": "sfonoise",
    "wof:belongsto": [
      102527513, 
      85922583, 
      1662100971, 
      85688637, 
      1159396321, 
      85633793, 
      102191575, 
      102087579
    ],
    "wof:country": "US",
    "wof:created": 1582922672,
    "wof:geomhash": "976937653dbac6c9c27dd23670ba89bf",
    "wof:hierarchy": [
      {
        "building_id": 1159396321,
        "campus_id": 102527513,
        "concourse_id": -1,
        "continent_id": 102191575,
        "country_id": 85633793,
        "county_id": 102087579,
        "event_id": 1662100971,
        "locality_id": 85922583,
        "neighbourhood_id": -1,
        "region_id": 85688637,
        "venue_id": -1,
        "wing_id": -1
      }
    ],
    "wof:id": 1662100971,
    "wof:lastmodified": 1582922672,
    "wof:name": "AAL1451 (SFO-KDEN)",
    "wof:parent_id": -1,
    "wof:placetype": "event",
    "wof:repo": "sfomuseum-data-flights-2016",
    "wof:superseded_by": [],
    "wof:supersedes": []
  },
  "bbox": [
    -122.370943, 
    37.61799, 
    -104.672219, 
    39.864939
  ],
  "geometry": {"coordinates":[[-122.370943,37.61799],[-104.672219,39.864939]],"type":"MultiPoint"}
}
