{
  "id": 1662245945,
  "type": "Feature",
  "properties": {
    "edtf:cessation": "2016-05-05T12:56:35",
    "edtf:inception": "2016-05-05~",
    "flysfo:airline": "WN",
    "flysfo:date": "2016-05-05",
    "flysfo:event": "A",
    "flysfo:flight_number": "WN8503",
    "flysfo:journey": "KBOI-SFO",
    "geom:area": 0,
    "geom:bbox": "-122.370943,37.617990,-116.224634,43.564048",
    "geom:latitude": 40.591019,
    "geom:longitude": -119.2977885,
    "iata:airline": "WN",
    "icao:aircraft": "B733",
    "icao:airline": "SWA",
    "mz:is_current": -1,
    "sfomuseum:aircraft_id": 1159289851,
    "sfomuseum:airline_id": 1159285591,
    "sfomuseum:arrival_id": 102527513,
    "sfomuseum:departure_id": 102527733,
    "sfomuseum:flight_id": "20160505-A-SWA-8503",
    "sfomuseum:flight_number": [
      "WN8503", 
      "SWA8503"
    ],
    "sfomuseum:placetype": "flight",
    "src:geom": "sfonoise",
    "wof:belongsto": [
      1159396321, 
      85633793, 
      102527513, 
      102087579, 
      1662245945, 
      85922583, 
      85688637, 
      102191575
    ],
    "wof:country": "US",
    "wof:created": 1582925260,
    "wof:geomhash": "e506e1cc6e68aaf992ce3bac53e4e4fa",
    "wof:hierarchy": [
      {
        "building_id": 1159396321,
        "campus_id": 102527513,
        "concourse_id": -1,
        "continent_id": 102191575,
        "country_id": 85633793,
        "county_id": 102087579,
        "event_id": 1662245945,
        "locality_id": 85922583,
        "neighbourhood_id": -1,
        "region_id": 85688637,
        "venue_id": -1,
        "wing_id": -1
      }
    ],
    "wof:id": 1662245945,
    "wof:lastmodified": 1582925260,
    "wof:name": "SWA8503 (KBOI-SFO)",
    "wof:parent_id": -1,
    "wof:placetype": "event",
    "wof:repo": "sfomuseum-data-flights-2016",
    "wof:superseded_by": [],
    "wof:supersedes": []
  },
  "bbox": [
    -122.370943, 
    37.61799, 
    -116.224634, 
    43.564048
  ],
  "geometry": {"coordinates":[[-116.224634,43.564048],[-122.370943,37.61799]],"type":"MultiPoint"}
}
