{
  "id": 1662173327,
  "type": "Feature",
  "properties": {
    "edtf:cessation": "2016-03-24T17:02:41",
    "edtf:inception": "2016-03-24~",
    "flysfo:airline": "UA",
    "flysfo:date": "2016-03-24",
    "flysfo:event": "A",
    "flysfo:flight_number": "UA2295",
    "flysfo:journey": "KTCM-SFO",
    "geom:area": 0,
    "geom:bbox": "-122.496295,37.617990,-122.370943,47.134565",
    "geom:latitude": 42.3762775,
    "geom:longitude": -122.433619,
    "iata:airline": "UA",
    "icao:aircraft": "B772",
    "icao:airline": "UAL",
    "mz:is_current": -1,
    "sfomuseum:aircraft_id": 1159289985,
    "sfomuseum:airline_id": 1159285413,
    "sfomuseum:arrival_id": 102527513,
    "sfomuseum:departure_id": 102527203,
    "sfomuseum:flight_id": "20160324-A-UAL-2295",
    "sfomuseum:flight_number": [
      "UA2295", 
      "UAL2295"
    ],
    "sfomuseum:placetype": "flight",
    "src:geom": "sfonoise",
    "wof:belongsto": [
      1662173327, 
      85922583, 
      85688637, 
      1159396321, 
      85633793, 
      102527513, 
      102191575, 
      102087579
    ],
    "wof:country": "US",
    "wof:created": 1582923839,
    "wof:geomhash": "7234ec6a531feff2a579809344df7e67",
    "wof:hierarchy": [
      {
        "building_id": 1159396321,
        "campus_id": 102527513,
        "concourse_id": -1,
        "continent_id": 102191575,
        "country_id": 85633793,
        "county_id": 102087579,
        "event_id": 1662173327,
        "locality_id": 85922583,
        "neighbourhood_id": -1,
        "region_id": 85688637,
        "venue_id": -1,
        "wing_id": -1
      }
    ],
    "wof:id": 1662173327,
    "wof:lastmodified": 1582923839,
    "wof:name": "UAL2295 (KTCM-SFO)",
    "wof:parent_id": -1,
    "wof:placetype": "event",
    "wof:repo": "sfomuseum-data-flights-2016",
    "wof:superseded_by": [],
    "wof:supersedes": []
  },
  "bbox": [
    -122.496295, 
    37.61799, 
    -122.370943, 
    47.134565
  ],
  "geometry": {"coordinates":[[-122.496295,47.134565],[-122.370943,37.61799]],"type":"MultiPoint"}
}
