{
  "id": 1662125009,
  "type": "Feature",
  "properties": {
    "edtf:cessation": "2016-02-23~",
    "edtf:inception": "2016-02-23T08:55:51",
    "flysfo:airline": "UA",
    "flysfo:date": "2016-02-23",
    "flysfo:event": "D",
    "flysfo:flight_number": "UA2297",
    "flysfo:journey": "SFO-RIV",
    "geom:area": 0,
    "geom:bbox": "-122.370943,33.896471,-117.254857,37.617990",
    "geom:latitude": 35.7572305,
    "geom:longitude": -119.8129,
    "iata:airline": "UA",
    "icao:aircraft": "B744",
    "icao:airline": "UAL",
    "mz:is_current": -1,
    "sfomuseum:aircraft_id": 1159289915,
    "sfomuseum:airline_id": 1159285413,
    "sfomuseum:arrival_id": 102533771,
    "sfomuseum:departure_id": 102527513,
    "sfomuseum:flight_id": "20160223-D-UAL-2297",
    "sfomuseum:flight_number": [
      "UA2297", 
      "UAL2297"
    ],
    "sfomuseum:placetype": "flight",
    "src:geom": "sfonoise",
    "wof:belongsto": [
      85633793, 
      102087579, 
      85922583, 
      85688637, 
      102527513, 
      1662125009, 
      102191575, 
      1159396321
    ],
    "wof:country": "US",
    "wof:created": 1582923128,
    "wof:geomhash": "ab1c262cdcde68b15133eea54c0f464a",
    "wof:hierarchy": [
      {
        "building_id": 1159396321,
        "campus_id": 102527513,
        "concourse_id": -1,
        "continent_id": 102191575,
        "country_id": 85633793,
        "county_id": 102087579,
        "event_id": 1662125009,
        "locality_id": 85922583,
        "neighbourhood_id": -1,
        "region_id": 85688637,
        "venue_id": -1,
        "wing_id": -1
      }
    ],
    "wof:id": 1662125009,
    "wof:lastmodified": 1582923128,
    "wof:name": "UAL2297 (SFO-RIV)",
    "wof:parent_id": -1,
    "wof:placetype": "event",
    "wof:repo": "sfomuseum-data-flights-2016",
    "wof:superseded_by": [],
    "wof:supersedes": []
  },
  "bbox": [
    -122.370943, 
    33.896471, 
    -117.254857, 
    37.61799
  ],
  "geometry": {"coordinates":[[-122.370943,37.61799],[-117.254857,33.896471]],"type":"MultiPoint"}
}
