{
  "id": 1662084665,
  "type": "Feature",
  "properties": {
    "edtf:cessation": "2016-01-27T12:35:07",
    "edtf:inception": "2016-01-27~",
    "flysfo:airline": "KL",
    "flysfo:date": "2016-01-27",
    "flysfo:event": "A",
    "flysfo:flight_number": "KL281",
    "flysfo:journey": "EHAM-SFO",
    "geom:area": 0,
    "geom:bbox": "-122.370943,37.617990,4.782907,52.314791",
    "geom:latitude": 44.9663905,
    "geom:longitude": -58.794018,
    "iata:airline": "KL",
    "icao:aircraft": "A332",
    "icao:airline": "KLM",
    "mz:is_current": -1,
    "sfomuseum:aircraft_id": 1159289421,
    "sfomuseum:airline_id": 1159284613,
    "sfomuseum:arrival_id": 102527513,
    "sfomuseum:departure_id": 102542801,
    "sfomuseum:flight_id": "20160127-A-KLM-281",
    "sfomuseum:flight_number": [
      "KL281", 
      "KLM281"
    ],
    "sfomuseum:placetype": "flight",
    "src:geom": "sfonoise",
    "wof:belongsto": [
      1159396321, 
      85633793, 
      102087579, 
      1662084665, 
      85922583, 
      85688637, 
      102191575, 
      102527513
    ],
    "wof:country": "US",
    "wof:created": 1582922431,
    "wof:geomhash": "bfe9b4dfbd612ca8de6bd9460273f90d",
    "wof:hierarchy": [
      {
        "building_id": 1159396321,
        "campus_id": 102527513,
        "concourse_id": -1,
        "continent_id": 102191575,
        "country_id": 85633793,
        "county_id": 102087579,
        "event_id": 1662084665,
        "locality_id": 85922583,
        "neighbourhood_id": -1,
        "region_id": 85688637,
        "venue_id": -1,
        "wing_id": -1
      }
    ],
    "wof:id": 1662084665,
    "wof:lastmodified": 1582922431,
    "wof:name": "KLM281 (EHAM-SFO)",
    "wof:parent_id": -1,
    "wof:placetype": "event",
    "wof:repo": "sfomuseum-data-flights-2016",
    "wof:superseded_by": [],
    "wof:supersedes": []
  },
  "bbox": [
    -122.370943, 
    37.61799, 
    4.782907, 
    52.314791
  ],
  "geometry": {"coordinates":[[4.782907,52.314791],[-122.370943,37.61799]],"type":"MultiPoint"}
}
