{
  "id": 1662063375,
  "type": "Feature",
  "properties": {
    "edtf:cessation": "2016-01-13T11:09:20",
    "edtf:inception": "2016-01-13~",
    "flysfo:airline": "UA",
    "flysfo:date": "2016-01-13",
    "flysfo:event": "A",
    "flysfo:flight_number": "UA2178",
    "flysfo:journey": "KMIA-SFO",
    "geom:area": 0,
    "geom:bbox": "-122.370943,25.790470,-80.296006,37.617990",
    "geom:latitude": 31.70423,
    "geom:longitude": -101.3334745,
    "iata:airline": "UA",
    "icao:aircraft": "B753",
    "icao:airline": "UAL",
    "mz:is_current": -1,
    "sfomuseum:aircraft_id": 1159289945,
    "sfomuseum:airline_id": 1159285413,
    "sfomuseum:arrival_id": 102527513,
    "sfomuseum:departure_id": 102531023,
    "sfomuseum:flight_id": "20160113-A-UAL-2178",
    "sfomuseum:flight_number": [
      "UA2178", 
      "UAL2178"
    ],
    "sfomuseum:placetype": "flight",
    "src:geom": "sfonoise",
    "wof:belongsto": [
      1662063375, 
      85922583, 
      85688637, 
      102191575, 
      85633793, 
      102087579, 
      1159396321, 
      102527513
    ],
    "wof:country": "US",
    "wof:created": 1582922150,
    "wof:geomhash": "38f88108bbae8bb050c3144d37bdc384",
    "wof:hierarchy": [
      {
        "building_id": 1159396321,
        "campus_id": 102527513,
        "concourse_id": -1,
        "continent_id": 102191575,
        "country_id": 85633793,
        "county_id": 102087579,
        "event_id": 1662063375,
        "locality_id": 85922583,
        "neighbourhood_id": -1,
        "region_id": 85688637,
        "venue_id": -1,
        "wing_id": -1
      }
    ],
    "wof:id": 1662063375,
    "wof:lastmodified": 1582922150,
    "wof:name": "UAL2178 (KMIA-SFO)",
    "wof:parent_id": -1,
    "wof:placetype": "event",
    "wof:repo": "sfomuseum-data-flights-2016",
    "wof:superseded_by": [],
    "wof:supersedes": []
  },
  "bbox": [
    -122.370943, 
    25.79047, 
    -80.296006, 
    37.61799
  ],
  "geometry": {"coordinates":[[-80.296006,25.79047],[-122.370943,37.61799]],"type":"MultiPoint"}
}
