{
  "id": 1679009197,
  "type": "Feature",
  "properties": {
    "edtf:cessation": "2016-10-02T14:01:24",
    "edtf:inception": "2016-10-02~",
    "flysfo:airline": "DL",
    "flysfo:date": "2016-10-02",
    "flysfo:event": "A",
    "flysfo:flight_number": "DL8835",
    "flysfo:journey": "KGRK-SFO",
    "geom:area": 0,
    "geom:bbox": "-122.370943,31.067200,-97.828903,37.617990",
    "geom:latitude": 34.342595,
    "geom:longitude": -110.09992299999999,
    "iata:airline": "DL",
    "icao:aircraft": "B763",
    "icao:airline": "DAL",
    "mz:is_current": -1,
    "sfomuseum:aircraft_id": 1159289965,
    "sfomuseum:airline_id": 1159284261,
    "sfomuseum:arrival_id": 102527513,
    "sfomuseum:departure_id": 102530435,
    "sfomuseum:flight_id": "20161002-A-DAL-8835",
    "sfomuseum:flight_number": [
      "DL8835", 
      "DAL8835"
    ],
    "sfomuseum:placetype": "flight",
    "src:geom": "sfonoise",
    "wof:belongsto": [
      1159157271, 
      102191575, 
      102087579, 
      1679009197, 
      85922583, 
      85688637, 
      85633793, 
      102527513
    ],
    "wof:country": "US",
    "wof:created": 1582931259,
    "wof:geomhash": "935b51b2101b5a3f6ccca5be45ab8b73",
    "wof:hierarchy": [
      {
        "building_id": 1159157271,
        "campus_id": 102527513,
        "concourse_id": -1,
        "continent_id": 102191575,
        "country_id": 85633793,
        "county_id": 102087579,
        "event_id": 1679009197,
        "locality_id": 85922583,
        "neighbourhood_id": -1,
        "region_id": 85688637,
        "venue_id": -1,
        "wing_id": -1
      }
    ],
    "wof:id": 1679009197,
    "wof:lastmodified": 1582931259,
    "wof:name": "DAL8835 (KGRK-SFO)",
    "wof:parent_id": -1,
    "wof:placetype": "event",
    "wof:repo": "sfomuseum-data-flights-2016",
    "wof:superseded_by": [],
    "wof:supersedes": []
  },
  "bbox": [
    -122.370943, 
    31.0672, 
    -97.828903, 
    37.61799
  ],
  "geometry": {"coordinates":[[-97.828903,31.0672],[-122.370943,37.61799]],"type":"MultiPoint"}
}
