{
  "id": 1662091887,
  "type": "Feature",
  "properties": {
    "edtf:cessation": "2016-02-01~",
    "edtf:inception": "2016-02-01T08:33:51",
    "flysfo:airline": "UA",
    "flysfo:date": "2016-02-01",
    "flysfo:event": "D",
    "flysfo:flight_number": "UA2290",
    "flysfo:journey": "SFO-GRK",
    "geom:area": 0,
    "geom:bbox": "-122.370943,31.067200,-97.828903,37.617990",
    "geom:latitude": 34.342595,
    "geom:longitude": -110.09992299999999,
    "iata:airline": "UA",
    "icao:aircraft": "B744",
    "icao:airline": "UAL",
    "mz:is_current": -1,
    "sfomuseum:aircraft_id": 1159289915,
    "sfomuseum:airline_id": 1159285413,
    "sfomuseum:arrival_id": 102530435,
    "sfomuseum:departure_id": 102527513,
    "sfomuseum:flight_id": "20160201-D-UAL-2290",
    "sfomuseum:flight_number": [
      "UA2290", 
      "UAL2290"
    ],
    "sfomuseum:placetype": "flight",
    "src:geom": "sfonoise",
    "wof:belongsto": [
      85633793, 
      85922583, 
      85688637, 
      1662091887, 
      102527513, 
      102191575, 
      1159396321, 
      102087579
    ],
    "wof:country": "US",
    "wof:created": 1582922541,
    "wof:geomhash": "15a978a12b2d4014160ada20fff82988",
    "wof:hierarchy": [
      {
        "building_id": 1159396321,
        "campus_id": 102527513,
        "concourse_id": -1,
        "continent_id": 102191575,
        "country_id": 85633793,
        "county_id": 102087579,
        "event_id": 1662091887,
        "locality_id": 85922583,
        "neighbourhood_id": -1,
        "region_id": 85688637,
        "venue_id": -1,
        "wing_id": -1
      }
    ],
    "wof:id": 1662091887,
    "wof:lastmodified": 1582922541,
    "wof:name": "UAL2290 (SFO-GRK)",
    "wof:parent_id": -1,
    "wof:placetype": "event",
    "wof:repo": "sfomuseum-data-flights-2016",
    "wof:superseded_by": [],
    "wof:supersedes": []
  },
  "bbox": [
    -122.370943, 
    31.0672, 
    -97.828903, 
    37.61799
  ],
  "geometry": {"coordinates":[[-122.370943,37.61799],[-97.828903,31.0672]],"type":"MultiPoint"}
}
