{
  "id": 1679334681,
  "type": "Feature",
  "properties": {
    "edtf:cessation": "2016-12-31~",
    "edtf:inception": "2016-12-31T11:48:33",
    "flysfo:airline": "WN",
    "flysfo:date": "2016-12-31",
    "flysfo:event": "D",
    "flysfo:flight_number": "WN1362",
    "flysfo:journey": "SFO-KSTL",
    "geom:area": 0,
    "geom:bbox": "-122.370943,37.617990,-90.367632,38.743872",
    "geom:latitude": 38.180931,
    "geom:longitude": -106.3692875,
    "iata:airline": "WN",
    "icao:aircraft": "B733",
    "icao:airline": "SWA",
    "mz:is_current": -1,
    "sfomuseum:aircraft_id": 1159289851,
    "sfomuseum:airline_id": 1159285591,
    "sfomuseum:arrival_id": 102525961,
    "sfomuseum:departure_id": 102527513,
    "sfomuseum:flight_id": "20161231-D-SWA-1362",
    "sfomuseum:flight_number": [
      "WN1362", 
      "SWA1362"
    ],
    "sfomuseum:placetype": "flight",
    "src:geom": "sfonoise",
    "wof:belongsto": [
      102527513, 
      102191575, 
      1679334681, 
      102087579, 
      85922583, 
      85633793, 
      85688637, 
      1159157271
    ],
    "wof:country": "US",
    "wof:created": 1582934678,
    "wof:geomhash": "17371a5d27e54a99ca50752d2b6a5e79",
    "wof:hierarchy": [
      {
        "building_id": 1159157271,
        "campus_id": 102527513,
        "concourse_id": -1,
        "continent_id": 102191575,
        "country_id": 85633793,
        "county_id": 102087579,
        "event_id": 1679334681,
        "locality_id": 85922583,
        "neighbourhood_id": -1,
        "region_id": 85688637,
        "venue_id": -1,
        "wing_id": -1
      }
    ],
    "wof:id": 1679334681,
    "wof:lastmodified": 1582934678,
    "wof:name": "SWA1362 (SFO-KSTL)",
    "wof:parent_id": -1,
    "wof:placetype": "event",
    "wof:repo": "sfomuseum-data-flights-2016",
    "wof:superseded_by": [],
    "wof:supersedes": []
  },
  "bbox": [
    -122.370943, 
    37.61799, 
    -90.367632, 
    38.743872
  ],
  "geometry": {"coordinates":[[-122.370943,37.61799],[-90.367632,38.743872]],"type":"MultiPoint"}
}
