{
  "id": 1662152635,
  "type": "Feature",
  "properties": {
    "edtf:cessation": "2016-03-12~",
    "edtf:inception": "2016-03-12T13:18:50",
    "flysfo:airline": "AA",
    "flysfo:date": "2016-03-12",
    "flysfo:event": "D",
    "flysfo:flight_number": "AA2356",
    "flysfo:journey": "SFO-MIA",
    "geom:area": 0,
    "geom:bbox": "-122.370943,25.790470,-80.296006,37.617990",
    "geom:latitude": 31.70423,
    "geom:longitude": -101.3334745,
    "iata:airline": "AA",
    "icao:aircraft": "B763",
    "icao:airline": "AAL",
    "mz:is_current": -1,
    "sfomuseum:aircraft_id": 1159289965,
    "sfomuseum:airline_id": 1159283851,
    "sfomuseum:arrival_id": 102531023,
    "sfomuseum:departure_id": 102527513,
    "sfomuseum:flight_id": "20160312-D-AAL-2356",
    "sfomuseum:flight_number": [
      "AA2356", 
      "AAL2356"
    ],
    "sfomuseum:placetype": "flight",
    "src:geom": "sfonoise",
    "wof:belongsto": [
      1159396321, 
      102527513, 
      85633793, 
      102087579, 
      102191575, 
      1662152635, 
      85688637, 
      85922583
    ],
    "wof:country": "US",
    "wof:created": 1582923620,
    "wof:geomhash": "05e474f4bf1eb5ae110c20d94aac828f",
    "wof:hierarchy": [
      {
        "building_id": 1159396321,
        "campus_id": 102527513,
        "concourse_id": -1,
        "continent_id": 102191575,
        "country_id": 85633793,
        "county_id": 102087579,
        "event_id": 1662152635,
        "locality_id": 85922583,
        "neighbourhood_id": -1,
        "region_id": 85688637,
        "venue_id": -1,
        "wing_id": -1
      }
    ],
    "wof:id": 1662152635,
    "wof:lastmodified": 1582923620,
    "wof:name": "AAL2356 (SFO-MIA)",
    "wof:parent_id": -1,
    "wof:placetype": "event",
    "wof:repo": "sfomuseum-data-flights-2016",
    "wof:superseded_by": [],
    "wof:supersedes": []
  },
  "bbox": [
    -122.370943, 
    25.79047, 
    -80.296006, 
    37.61799
  ],
  "geometry": {"coordinates":[[-122.370943,37.61799],[-80.296006,25.79047]],"type":"MultiPoint"}
}
