{
  "id": 1629276155,
  "type": "Feature",
  "properties": {
    "edtf:cessation": "2016-07-28~",
    "edtf:inception": "2016-07-28T17:09:53",
    "flysfo:airline": "DL",
    "flysfo:date": "2016-07-28",
    "flysfo:event": "D",
    "flysfo:flight_number": "DL8841",
    "flysfo:journey": "SFO-KSJC",
    "geom:area": 0,
    "geom:bbox": "-122.370943,37.363728,-121.928755,37.617990",
    "geom:latitude": 37.490859,
    "geom:longitude": -122.14984899999999,
    "iata:airline": "DL",
    "icao:aircraft": "B752",
    "icao:airline": "DAL",
    "mz:is_current": -1,
    "sfomuseum:aircraft_id": 1159289939,
    "sfomuseum:airline_id": 1159284261,
    "sfomuseum:arrival_id": 102527529,
    "sfomuseum:departure_id": 102527513,
    "sfomuseum:flight_id": "20160728-D-DAL-8841",
    "sfomuseum:flight_number": [
      "DL8841", 
      "DAL8841"
    ],
    "sfomuseum:placetype": "flight",
    "src:geom": "sfonoise",
    "wof:belongsto": [
      85688637, 
      1159157271, 
      102191575, 
      85922583, 
      1629276155, 
      102527513, 
      85633793, 
      102087579
    ],
    "wof:country": "US",
    "wof:created": 1582927802,
    "wof:geomhash": "9e57705c73bd73668d4b0d529a043646",
    "wof:hierarchy": [
      {
        "building_id": 1159157271,
        "campus_id": 102527513,
        "concourse_id": -1,
        "continent_id": 102191575,
        "country_id": 85633793,
        "county_id": 102087579,
        "event_id": 1629276155,
        "locality_id": 85922583,
        "neighbourhood_id": -1,
        "region_id": 85688637,
        "venue_id": -1,
        "wing_id": -1
      }
    ],
    "wof:id": 1629276155,
    "wof:lastmodified": 1582927802,
    "wof:name": "DAL8841 (SFO-KSJC)",
    "wof:parent_id": -1,
    "wof:placetype": "event",
    "wof:repo": "sfomuseum-data-flights-2016",
    "wof:superseded_by": [],
    "wof:supersedes": []
  },
  "bbox": [
    -122.370943, 
    37.363728, 
    -121.928755, 
    37.61799
  ],
  "geometry": {"coordinates":[[-122.370943,37.61799],[-121.928755,37.363728]],"type":"MultiPoint"}
}
