{
  "id": 1662064763,
  "type": "Feature",
  "properties": {
    "edtf:cessation": "2016-01-14~",
    "edtf:inception": "2016-01-14T08:52:41",
    "flysfo:airline": "SY",
    "flysfo:date": "2016-01-14",
    "flysfo:event": "D",
    "flysfo:flight_number": "SY8895",
    "flysfo:journey": "SFO-MMUN",
    "geom:area": 0,
    "geom:bbox": "-122.370943,21.040317,-86.872856,37.617990",
    "geom:latitude": 29.3291535,
    "geom:longitude": -104.6218995,
    "iata:airline": "SY",
    "icao:aircraft": "B738",
    "icao:airline": "SCX",
    "mz:is_current": -1,
    "sfomuseum:aircraft_id": 1159289871,
    "sfomuseum:airline_id": 1159285227,
    "sfomuseum:arrival_id": 102536223,
    "sfomuseum:departure_id": 102527513,
    "sfomuseum:flight_id": "20160114-D-SCX-8895",
    "sfomuseum:flight_number": [
      "SY8895", 
      "SCX8895"
    ],
    "sfomuseum:placetype": "flight",
    "src:geom": "sfonoise",
    "wof:belongsto": [
      102087579, 
      1662064763, 
      85922583, 
      102527513, 
      85633793, 
      85688637, 
      1159396321, 
      102191575
    ],
    "wof:country": "US",
    "wof:created": 1582922166,
    "wof:geomhash": "d26f8a4a9d40aeb65e997520007d0d60",
    "wof:hierarchy": [
      {
        "building_id": 1159396321,
        "campus_id": 102527513,
        "concourse_id": -1,
        "continent_id": 102191575,
        "country_id": 85633793,
        "county_id": 102087579,
        "event_id": 1662064763,
        "locality_id": 85922583,
        "neighbourhood_id": -1,
        "region_id": 85688637,
        "venue_id": -1,
        "wing_id": -1
      }
    ],
    "wof:id": 1662064763,
    "wof:lastmodified": 1582922166,
    "wof:name": "SCX8895 (SFO-MMUN)",
    "wof:parent_id": -1,
    "wof:placetype": "event",
    "wof:repo": "sfomuseum-data-flights-2016",
    "wof:superseded_by": [],
    "wof:supersedes": []
  },
  "bbox": [
    -122.370943, 
    21.040317, 
    -86.872856, 
    37.61799
  ],
  "geometry": {"coordinates":[[-122.370943,37.61799],[-86.872856,21.040317]],"type":"MultiPoint"}
}
