{
  "id": 1662076685,
  "type": "Feature",
  "properties": {
    "edtf:cessation": "2016-01-21T21:12:34",
    "edtf:inception": "2016-01-21~",
    "flysfo:airline": "UA",
    "flysfo:date": "2016-01-21",
    "flysfo:event": "A",
    "flysfo:flight_number": "UA1652",
    "flysfo:journey": "IAD-SFO",
    "geom:area": 0,
    "geom:bbox": "-122.370943,37.617990,-77.453702,38.949246",
    "geom:latitude": 38.283618000000004,
    "geom:longitude": -99.9123225,
    "iata:airline": "UA",
    "icao:aircraft": "B772",
    "icao:airline": "UAL",
    "mz:is_current": -1,
    "sfomuseum:aircraft_id": 1159289985,
    "sfomuseum:airline_id": 1159285413,
    "sfomuseum:arrival_id": 102527513,
    "sfomuseum:departure_id": 102528817,
    "sfomuseum:flight_id": "20160121-A-UAL-1652",
    "sfomuseum:flight_number": [
      "UA1652", 
      "UAL1652"
    ],
    "sfomuseum:placetype": "flight",
    "src:geom": "sfonoise",
    "wof:belongsto": [
      85633793, 
      102527513, 
      85922583, 
      85688637, 
      1662076685, 
      1159396321, 
      102087579, 
      102191575
    ],
    "wof:country": "US",
    "wof:created": 1582922319,
    "wof:geomhash": "376248592ab7850cfb9a479529cc5caf",
    "wof:hierarchy": [
      {
        "building_id": 1159396321,
        "campus_id": 102527513,
        "concourse_id": -1,
        "continent_id": 102191575,
        "country_id": 85633793,
        "county_id": 102087579,
        "event_id": 1662076685,
        "locality_id": 85922583,
        "neighbourhood_id": -1,
        "region_id": 85688637,
        "venue_id": -1,
        "wing_id": -1
      }
    ],
    "wof:id": 1662076685,
    "wof:lastmodified": 1582922319,
    "wof:name": "UAL1652 (IAD-SFO)",
    "wof:parent_id": -1,
    "wof:placetype": "event",
    "wof:repo": "sfomuseum-data-flights-2016",
    "wof:superseded_by": [],
    "wof:supersedes": []
  },
  "bbox": [
    -122.370943, 
    37.61799, 
    -77.453702, 
    38.949246
  ],
  "geometry": {"coordinates":[[-77.453702,38.949246],[-122.370943,37.61799]],"type":"MultiPoint"}
}
