{
  "id": 1662213271,
  "type": "Feature",
  "properties": {
    "edtf:cessation": "2016-04-16~",
    "edtf:inception": "2016-04-16T22:43:38",
    "flysfo:airline": "UA",
    "flysfo:date": "2016-04-16",
    "flysfo:event": "D",
    "flysfo:flight_number": "UA329",
    "flysfo:journey": "SFO-KFLL",
    "geom:area": 0,
    "geom:bbox": "-122.370943,26.074860,-80.138518,37.617990",
    "geom:latitude": 31.846425,
    "geom:longitude": -101.2547305,
    "iata:airline": "UA",
    "icao:aircraft": "B738",
    "icao:airline": "UAL",
    "mz:is_current": -1,
    "sfomuseum:aircraft_id": 1159289871,
    "sfomuseum:airline_id": 1159285413,
    "sfomuseum:arrival_id": 102530841,
    "sfomuseum:departure_id": 102527513,
    "sfomuseum:flight_id": "20160416-D-UAL-329",
    "sfomuseum:flight_number": [
      "UA329", 
      "UAL329"
    ],
    "sfomuseum:placetype": "flight",
    "src:geom": "sfonoise",
    "wof:belongsto": [
      1662213271, 
      85922583, 
      85633793, 
      102191575, 
      102087579, 
      85688637, 
      1159396321, 
      102527513
    ],
    "wof:country": "US",
    "wof:created": 1582924530,
    "wof:geomhash": "2155b19e54308f477f2a379762b2f6c8",
    "wof:hierarchy": [
      {
        "building_id": 1159396321,
        "campus_id": 102527513,
        "concourse_id": -1,
        "continent_id": 102191575,
        "country_id": 85633793,
        "county_id": 102087579,
        "event_id": 1662213271,
        "locality_id": 85922583,
        "neighbourhood_id": -1,
        "region_id": 85688637,
        "venue_id": -1,
        "wing_id": -1
      }
    ],
    "wof:id": 1662213271,
    "wof:lastmodified": 1582924530,
    "wof:name": "UAL329 (SFO-KFLL)",
    "wof:parent_id": -1,
    "wof:placetype": "event",
    "wof:repo": "sfomuseum-data-flights-2016",
    "wof:superseded_by": [],
    "wof:supersedes": []
  },
  "bbox": [
    -122.370943, 
    26.07486, 
    -80.138518, 
    37.61799
  ],
  "geometry": {"coordinates":[[-122.370943,37.61799],[-80.138518,26.07486]],"type":"MultiPoint"}
}
