{
  "id": 1678982557,
  "type": "Feature",
  "properties": {
    "edtf:cessation": "2016-09-26T02:22:24",
    "edtf:inception": "2016-09-26~",
    "flysfo:airline": "F9",
    "flysfo:date": "2016-09-26",
    "flysfo:event": "A",
    "flysfo:flight_number": "F91739",
    "flysfo:journey": "KMCO-SFO",
    "geom:area": 0,
    "geom:bbox": "-122.370943,28.431495,-81.307537,37.617990",
    "geom:latitude": 33.0247425,
    "geom:longitude": -101.83923999999999,
    "iata:airline": "F9",
    "icao:aircraft": "A319",
    "icao:airline": "FFT",
    "mz:is_current": -1,
    "sfomuseum:aircraft_id": 1159289407,
    "sfomuseum:airline_id": 1159284401,
    "sfomuseum:arrival_id": 102527513,
    "sfomuseum:departure_id": 102533657,
    "sfomuseum:flight_id": "20160926-A-FFT-1739",
    "sfomuseum:flight_number": [
      "F91739", 
      "FFT1739"
    ],
    "sfomuseum:placetype": "flight",
    "src:geom": "sfonoise",
    "wof:belongsto": [
      1678982557, 
      102527513, 
      102191575, 
      1159157271, 
      85688637, 
      85633793, 
      102087579, 
      85922583
    ],
    "wof:country": "US",
    "wof:created": 1582930967,
    "wof:geomhash": "5fe9a4073f558f5d433cae4f846ab71e",
    "wof:hierarchy": [
      {
        "building_id": 1159157271,
        "campus_id": 102527513,
        "concourse_id": -1,
        "continent_id": 102191575,
        "country_id": 85633793,
        "county_id": 102087579,
        "event_id": 1678982557,
        "locality_id": 85922583,
        "neighbourhood_id": -1,
        "region_id": 85688637,
        "venue_id": -1,
        "wing_id": -1
      }
    ],
    "wof:id": 1678982557,
    "wof:lastmodified": 1582930967,
    "wof:name": "FFT1739 (KMCO-SFO)",
    "wof:parent_id": -1,
    "wof:placetype": "event",
    "wof:repo": "sfomuseum-data-flights-2016",
    "wof:superseded_by": [],
    "wof:supersedes": []
  },
  "bbox": [
    -122.370943, 
    28.431495, 
    -81.307537, 
    37.61799
  ],
  "geometry": {"coordinates":[[-81.307537,28.431495],[-122.370943,37.61799]],"type":"MultiPoint"}
}
