{
  "id": 1678829767,
  "type": "Feature",
  "properties": {
    "edtf:cessation": "2016-08-25T17:35:07",
    "edtf:inception": "2016-08-25~",
    "flysfo:airline": "DL",
    "flysfo:date": "2016-08-25",
    "flysfo:event": "A",
    "flysfo:flight_number": "DL8859",
    "flysfo:journey": "KSJC-SFO",
    "geom:area": 0,
    "geom:bbox": "-122.370943,37.363728,-121.928755,37.617990",
    "geom:latitude": 37.490859,
    "geom:longitude": -122.14984899999999,
    "iata:airline": "DL",
    "icao:aircraft": "B753",
    "icao:airline": "DAL",
    "mz:is_current": -1,
    "sfomuseum:aircraft_id": 1159289945,
    "sfomuseum:airline_id": 1159284261,
    "sfomuseum:arrival_id": 102527513,
    "sfomuseum:departure_id": 102527529,
    "sfomuseum:flight_id": "20160825-A-DAL-8859",
    "sfomuseum:flight_number": [
      "DL8859", 
      "DAL8859"
    ],
    "sfomuseum:placetype": "flight",
    "src:geom": "sfonoise",
    "wof:belongsto": [
      85922583, 
      102191575, 
      102527513, 
      1678829767, 
      102087579, 
      1159157271, 
      85633793, 
      85688637
    ],
    "wof:country": "US",
    "wof:created": 1582928969,
    "wof:geomhash": "5aa704d308ccde2b747329ebb6ffcf42",
    "wof:hierarchy": [
      {
        "building_id": 1159157271,
        "campus_id": 102527513,
        "concourse_id": -1,
        "continent_id": 102191575,
        "country_id": 85633793,
        "county_id": 102087579,
        "event_id": 1678829767,
        "locality_id": 85922583,
        "neighbourhood_id": -1,
        "region_id": 85688637,
        "venue_id": -1,
        "wing_id": -1
      }
    ],
    "wof:id": 1678829767,
    "wof:lastmodified": 1582928969,
    "wof:name": "DAL8859 (KSJC-SFO)",
    "wof:parent_id": -1,
    "wof:placetype": "event",
    "wof:repo": "sfomuseum-data-flights-2016",
    "wof:superseded_by": [],
    "wof:supersedes": []
  },
  "bbox": [
    -122.370943, 
    37.363728, 
    -121.928755, 
    37.61799
  ],
  "geometry": {"coordinates":[[-121.928755,37.363728],[-122.370943,37.61799]],"type":"MultiPoint"}
}
