{
  "id": 1662305755,
  "type": "Feature",
  "properties": {
    "edtf:cessation": "2016-06-07~",
    "edtf:inception": "2016-06-07T11:29:43",
    "flysfo:airline": "UA",
    "flysfo:date": "2016-06-07",
    "flysfo:event": "D",
    "flysfo:flight_number": "UA888",
    "flysfo:journey": "SFO-ZBAA",
    "geom:area": 0,
    "geom:bbox": "-122.370943,37.617990,116.586155,40.068469",
    "geom:latitude": 38.8432295,
    "geom:longitude": -2.892393999999996,
    "iata:airline": "UA",
    "icao:aircraft": "B744",
    "icao:airline": "UAL",
    "mz:is_current": -1,
    "sfomuseum:aircraft_id": 1159289915,
    "sfomuseum:airline_id": 1159285413,
    "sfomuseum:arrival_id": 102550367,
    "sfomuseum:departure_id": 102527513,
    "sfomuseum:flight_id": "20160607-D-UAL-888",
    "sfomuseum:flight_number": [
      "UA888", 
      "UAL888"
    ],
    "sfomuseum:placetype": "flight",
    "src:geom": "sfonoise",
    "wof:belongsto": [
      1662305755, 
      85688637, 
      102087579, 
      85922583, 
      1159396321, 
      102191575, 
      85633793, 
      102527513
    ],
    "wof:country": "US",
    "wof:created": 1582926251,
    "wof:geomhash": "8a4a8d08e2e66037bce440d01d4bc21e",
    "wof:hierarchy": [
      {
        "building_id": 1159396321,
        "campus_id": 102527513,
        "concourse_id": -1,
        "continent_id": 102191575,
        "country_id": 85633793,
        "county_id": 102087579,
        "event_id": 1662305755,
        "locality_id": 85922583,
        "neighbourhood_id": -1,
        "region_id": 85688637,
        "venue_id": -1,
        "wing_id": -1
      }
    ],
    "wof:id": 1662305755,
    "wof:lastmodified": 1582926251,
    "wof:name": "UAL888 (SFO-ZBAA)",
    "wof:parent_id": -1,
    "wof:placetype": "event",
    "wof:repo": "sfomuseum-data-flights-2016",
    "wof:superseded_by": [],
    "wof:supersedes": []
  },
  "bbox": [
    -122.370943, 
    37.61799, 
    116.586155, 
    40.068469
  ],
  "geometry": {"coordinates":[[-122.370943,37.61799],[116.586155,40.068469]],"type":"MultiPoint"}
}
