{
  "id": 1662266185,
  "type": "Feature",
  "properties": {
    "edtf:cessation": "2016-05-16T17:02:23",
    "edtf:inception": "2016-05-16~",
    "flysfo:airline": "BR",
    "flysfo:date": "2016-05-16",
    "flysfo:event": "A",
    "flysfo:flight_number": "BR018",
    "flysfo:journey": "RCTP-SFO",
    "geom:area": 0,
    "geom:bbox": "-122.370943,25.078566,121.233152,37.617990",
    "geom:latitude": 31.348278,
    "geom:longitude": -0.5688954999999964,
    "iata:airline": "BR",
    "icao:aircraft": "B77W",
    "icao:airline": "EVA",
    "mz:is_current": -1,
    "sfomuseum:aircraft_id": 1159289993,
    "sfomuseum:airline_id": 1159284349,
    "sfomuseum:arrival_id": 102527513,
    "sfomuseum:departure_id": 102551487,
    "sfomuseum:flight_id": "20160516-A-EVA-018",
    "sfomuseum:flight_number": [
      "BR018", 
      "EVA018"
    ],
    "sfomuseum:placetype": "flight",
    "src:geom": "sfonoise",
    "wof:belongsto": [
      102191575, 
      85922583, 
      1159396321, 
      102527513, 
      85633793, 
      102087579, 
      1662266185, 
      85688637
    ],
    "wof:country": "US",
    "wof:created": 1582925593,
    "wof:geomhash": "07bfd75b358269393c92373b424876ce",
    "wof:hierarchy": [
      {
        "building_id": 1159396321,
        "campus_id": 102527513,
        "concourse_id": -1,
        "continent_id": 102191575,
        "country_id": 85633793,
        "county_id": 102087579,
        "event_id": 1662266185,
        "locality_id": 85922583,
        "neighbourhood_id": -1,
        "region_id": 85688637,
        "venue_id": -1,
        "wing_id": -1
      }
    ],
    "wof:id": 1662266185,
    "wof:lastmodified": 1582925593,
    "wof:name": "EVA018 (RCTP-SFO)",
    "wof:parent_id": -1,
    "wof:placetype": "event",
    "wof:repo": "sfomuseum-data-flights-2016",
    "wof:superseded_by": [],
    "wof:supersedes": []
  },
  "bbox": [
    -122.370943, 
    25.078566, 
    121.233152, 
    37.61799
  ],
  "geometry": {"coordinates":[[121.233152,25.078566],[-122.370943,37.61799]],"type":"MultiPoint"}
}
