{
  "id": 1679240423,
  "type": "Feature",
  "properties": {
    "edtf:cessation": "2016-12-03~",
    "edtf:inception": "2016-12-03T01:40:32",
    "flysfo:airline": "UA",
    "flysfo:date": "2016-12-03",
    "flysfo:event": "D",
    "flysfo:flight_number": "UA2206",
    "flysfo:journey": "SFO-KSEA",
    "geom:area": 0,
    "geom:bbox": "-122.370943,37.617990,-122.304268,47.441823",
    "geom:latitude": 42.529906499999996,
    "geom:longitude": -122.3376055,
    "iata:airline": "UA",
    "icao:aircraft": "B753",
    "icao:airline": "UAL",
    "mz:is_current": -1,
    "sfomuseum:aircraft_id": 1159289945,
    "sfomuseum:airline_id": 1159285413,
    "sfomuseum:arrival_id": 102533269,
    "sfomuseum:departure_id": 102527513,
    "sfomuseum:flight_id": "20161203-D-UAL-2206",
    "sfomuseum:flight_number": [
      "UA2206", 
      "UAL2206"
    ],
    "sfomuseum:placetype": "flight",
    "src:geom": "sfonoise",
    "wof:belongsto": [
      102191575, 
      1679240423, 
      1159157271, 
      102527513, 
      85633793, 
      85688637, 
      102087579, 
      85922583
    ],
    "wof:country": "US",
    "wof:created": 1582933763,
    "wof:geomhash": "4036ee3c983703867dbe0486453848b1",
    "wof:hierarchy": [
      {
        "building_id": 1159157271,
        "campus_id": 102527513,
        "concourse_id": -1,
        "continent_id": 102191575,
        "country_id": 85633793,
        "county_id": 102087579,
        "event_id": 1679240423,
        "locality_id": 85922583,
        "neighbourhood_id": -1,
        "region_id": 85688637,
        "venue_id": -1,
        "wing_id": -1
      }
    ],
    "wof:id": 1679240423,
    "wof:lastmodified": 1582933763,
    "wof:name": "UAL2206 (SFO-KSEA)",
    "wof:parent_id": -1,
    "wof:placetype": "event",
    "wof:repo": "sfomuseum-data-flights-2016",
    "wof:superseded_by": [],
    "wof:supersedes": []
  },
  "bbox": [
    -122.370943, 
    37.61799, 
    -122.304268, 
    47.441823
  ],
  "geometry": {"coordinates":[[-122.370943,37.61799],[-122.304268,47.441823]],"type":"MultiPoint"}
}
