{
  "id": 1678971821,
  "type": "Feature",
  "properties": {
    "edtf:cessation": "2016-09-23T09:16:54",
    "edtf:inception": "2016-09-23~",
    "flysfo:airline": "UA",
    "flysfo:date": "2016-09-23",
    "flysfo:event": "A",
    "flysfo:flight_number": "UA2121",
    "flysfo:journey": "KONT-SFO",
    "geom:area": 0,
    "geom:bbox": "-122.370943,34.059934,-117.587749,37.617990",
    "geom:latitude": 35.838961999999995,
    "geom:longitude": -119.97934599999999,
    "iata:airline": "UA",
    "icao:aircraft": "B764",
    "icao:airline": "UAL",
    "mz:is_current": -1,
    "sfomuseum:aircraft_id": 1394298249,
    "sfomuseum:airline_id": 1159285413,
    "sfomuseum:arrival_id": 102527513,
    "sfomuseum:departure_id": 102533575,
    "sfomuseum:flight_id": "20160923-A-UAL-2121",
    "sfomuseum:flight_number": [
      "UA2121", 
      "UAL2121"
    ],
    "sfomuseum:placetype": "flight",
    "src:geom": "sfonoise",
    "wof:belongsto": [
      1678971821, 
      85688637, 
      1159157271, 
      102191575, 
      102087579, 
      102527513, 
      85633793, 
      85922583
    ],
    "wof:country": "US",
    "wof:created": 1582930845,
    "wof:geomhash": "094b2380067f0814bdd38962ab53e3d3",
    "wof:hierarchy": [
      {
        "building_id": 1159157271,
        "campus_id": 102527513,
        "concourse_id": -1,
        "continent_id": 102191575,
        "country_id": 85633793,
        "county_id": 102087579,
        "event_id": 1678971821,
        "locality_id": 85922583,
        "neighbourhood_id": -1,
        "region_id": 85688637,
        "venue_id": -1,
        "wing_id": -1
      }
    ],
    "wof:id": 1678971821,
    "wof:lastmodified": 1582930845,
    "wof:name": "UAL2121 (KONT-SFO)",
    "wof:parent_id": -1,
    "wof:placetype": "event",
    "wof:repo": "sfomuseum-data-flights-2016",
    "wof:superseded_by": [],
    "wof:supersedes": []
  },
  "bbox": [
    -122.370943, 
    34.059934, 
    -117.587749, 
    37.61799
  ],
  "geometry": {"coordinates":[[-117.587749,34.059934],[-122.370943,37.61799]],"type":"MultiPoint"}
}
