{
  "id": 1662292229,
  "type": "Feature",
  "properties": {
    "edtf:cessation": "2016-05-31~",
    "edtf:inception": "2016-05-31T06:11:35",
    "flysfo:airline": "WN",
    "flysfo:date": "2016-05-31",
    "flysfo:event": "D",
    "flysfo:flight_number": "WN9004",
    "flysfo:journey": "SFO-KDEN",
    "geom:area": 0,
    "geom:bbox": "-122.370943,37.617990,-104.672219,39.864939",
    "geom:latitude": 38.7414645,
    "geom:longitude": -113.521581,
    "iata:airline": "WN",
    "icao:aircraft": "B737",
    "icao:airline": "SWA",
    "mz:is_current": -1,
    "sfomuseum:aircraft_id": 1159289869,
    "sfomuseum:airline_id": 1159285591,
    "sfomuseum:arrival_id": 102531189,
    "sfomuseum:departure_id": 102527513,
    "sfomuseum:flight_id": "20160531-D-SWA-9004",
    "sfomuseum:flight_number": [
      "WN9004", 
      "SWA9004"
    ],
    "sfomuseum:placetype": "flight",
    "src:geom": "sfonoise",
    "wof:belongsto": [
      1159396321, 
      85633793, 
      102087579, 
      102527513, 
      1662292229, 
      85922583, 
      102191575, 
      85688637
    ],
    "wof:country": "US",
    "wof:created": 1582925962,
    "wof:geomhash": "976937653dbac6c9c27dd23670ba89bf",
    "wof:hierarchy": [
      {
        "building_id": 1159396321,
        "campus_id": 102527513,
        "concourse_id": -1,
        "continent_id": 102191575,
        "country_id": 85633793,
        "county_id": 102087579,
        "event_id": 1662292229,
        "locality_id": 85922583,
        "neighbourhood_id": -1,
        "region_id": 85688637,
        "venue_id": -1,
        "wing_id": -1
      }
    ],
    "wof:id": 1662292229,
    "wof:lastmodified": 1582925962,
    "wof:name": "SWA9004 (SFO-KDEN)",
    "wof:parent_id": -1,
    "wof:placetype": "event",
    "wof:repo": "sfomuseum-data-flights-2016",
    "wof:superseded_by": [],
    "wof:supersedes": []
  },
  "bbox": [
    -122.370943, 
    37.61799, 
    -104.672219, 
    39.864939
  ],
  "geometry": {"coordinates":[[-122.370943,37.61799],[-104.672219,39.864939]],"type":"MultiPoint"}
}
