{
  "id": 1662257329,
  "type": "Feature",
  "properties": {
    "edtf:cessation": "2016-05-11~",
    "edtf:inception": "2016-05-11T19:25:40",
    "flysfo:airline": "DL",
    "flysfo:date": "2016-05-11",
    "flysfo:event": "D",
    "flysfo:flight_number": "DL8848",
    "flysfo:journey": "SFO-KOAK",
    "geom:area": 0,
    "geom:bbox": "-122.370943,37.617990,-122.212464,37.721310",
    "geom:latitude": 37.669650000000004,
    "geom:longitude": -122.2917035,
    "iata:airline": "DL",
    "icao:aircraft": "A319",
    "icao:airline": "DAL",
    "mz:is_current": -1,
    "sfomuseum:aircraft_id": 1159289407,
    "sfomuseum:airline_id": 1159284261,
    "sfomuseum:arrival_id": 102531041,
    "sfomuseum:departure_id": 102527513,
    "sfomuseum:flight_id": "20160511-D-DAL-8848",
    "sfomuseum:flight_number": [
      "DL8848", 
      "DAL8848"
    ],
    "sfomuseum:placetype": "flight",
    "src:geom": "sfonoise",
    "wof:belongsto": [
      85688637, 
      1662257329, 
      85922583, 
      1159396321, 
      102527513, 
      102191575, 
      85633793, 
      102087579
    ],
    "wof:country": "US",
    "wof:created": 1582925454,
    "wof:geomhash": "8933d78fb39ee159acf7eb0738f97ef5",
    "wof:hierarchy": [
      {
        "building_id": 1159396321,
        "campus_id": 102527513,
        "concourse_id": -1,
        "continent_id": 102191575,
        "country_id": 85633793,
        "county_id": 102087579,
        "event_id": 1662257329,
        "locality_id": 85922583,
        "neighbourhood_id": -1,
        "region_id": 85688637,
        "venue_id": -1,
        "wing_id": -1
      }
    ],
    "wof:id": 1662257329,
    "wof:lastmodified": 1582925454,
    "wof:name": "DAL8848 (SFO-KOAK)",
    "wof:parent_id": -1,
    "wof:placetype": "event",
    "wof:repo": "sfomuseum-data-flights-2016",
    "wof:superseded_by": [],
    "wof:supersedes": []
  },
  "bbox": [
    -122.370943, 
    37.61799, 
    -122.212464, 
    37.72131
  ],
  "geometry": {"coordinates":[[-122.370943,37.61799],[-122.212464,37.72131]],"type":"MultiPoint"}
}
