{
  "id": 1629164923,
  "type": "Feature",
  "properties": {
    "edtf:cessation": "2016-06-30T12:57:59",
    "edtf:inception": "2016-06-30~",
    "flysfo:airline": "WS",
    "flysfo:date": "2016-06-30",
    "flysfo:event": "A",
    "flysfo:flight_number": "WS1508",
    "flysfo:journey": "CYYC-SFO",
    "geom:area": 0,
    "geom:bbox": "-122.370943,37.617990,-114.020920,51.119526",
    "geom:latitude": 44.368758,
    "geom:longitude": -118.1959315,
    "iata:airline": "WS",
    "icao:aircraft": "B738",
    "icao:airline": "WJA",
    "mz:is_current": -1,
    "sfomuseum:aircraft_id": 1159289871,
    "sfomuseum:airline_id": 1159285523,
    "sfomuseum:arrival_id": 102527513,
    "sfomuseum:departure_id": 102554947,
    "sfomuseum:flight_id": "20160630-A-WJA-1508",
    "sfomuseum:flight_number": [
      "WS1508", 
      "WJA1508"
    ],
    "sfomuseum:placetype": "flight",
    "src:geom": "sfonoise",
    "wof:belongsto": [
      85633793, 
      85922583, 
      102087579, 
      85688637, 
      102527513, 
      1629164923, 
      1159157271, 
      102191575
    ],
    "wof:country": "US",
    "wof:created": 1582926946,
    "wof:geomhash": "4b8d850891e12dfac0a460ee51cd363b",
    "wof:hierarchy": [
      {
        "building_id": 1159157271,
        "campus_id": 102527513,
        "concourse_id": -1,
        "continent_id": 102191575,
        "country_id": 85633793,
        "county_id": 102087579,
        "event_id": 1629164923,
        "locality_id": 85922583,
        "neighbourhood_id": -1,
        "region_id": 85688637,
        "venue_id": -1,
        "wing_id": -1
      }
    ],
    "wof:id": 1629164923,
    "wof:lastmodified": 1582926946,
    "wof:name": "WJA1508 (CYYC-SFO)",
    "wof:parent_id": -1,
    "wof:placetype": "event",
    "wof:repo": "sfomuseum-data-flights-2016",
    "wof:superseded_by": [],
    "wof:supersedes": []
  },
  "bbox": [
    -122.370943, 
    37.61799, 
    -114.02092, 
    51.119526
  ],
  "geometry": {"coordinates":[[-114.02092,51.119526],[-122.370943,37.61799]],"type":"MultiPoint"}
}
