{
  "id": 1662139637,
  "type": "Feature",
  "properties": {
    "edtf:cessation": "2016-03-04~",
    "edtf:inception": "2016-03-04T09:27:04",
    "flysfo:airline": "AA",
    "flysfo:date": "2016-03-04",
    "flysfo:event": "D",
    "flysfo:flight_number": "AA164",
    "flysfo:journey": "SFO-JFK",
    "geom:area": 0,
    "geom:bbox": "-122.370943,37.617990,-73.787845,40.643286",
    "geom:latitude": 39.130638000000005,
    "geom:longitude": -98.07939400000001,
    "iata:airline": "AA",
    "icao:aircraft": "A321",
    "icao:airline": "AAL",
    "mz:is_current": -1,
    "sfomuseum:aircraft_id": 1159289411,
    "sfomuseum:airline_id": 1159283851,
    "sfomuseum:arrival_id": 102534365,
    "sfomuseum:departure_id": 102527513,
    "sfomuseum:flight_id": "20160304-D-AAL-164",
    "sfomuseum:flight_number": [
      "AA164", 
      "AAL164"
    ],
    "sfomuseum:placetype": "flight",
    "src:geom": "sfonoise",
    "wof:belongsto": [
      1662139637, 
      85922583, 
      102527513, 
      102087579, 
      102191575, 
      85633793, 
      85688637, 
      1159396321
    ],
    "wof:country": "US",
    "wof:created": 1582923390,
    "wof:geomhash": "1348792a172720778d3219cc18ccd8ee",
    "wof:hierarchy": [
      {
        "building_id": 1159396321,
        "campus_id": 102527513,
        "concourse_id": -1,
        "continent_id": 102191575,
        "country_id": 85633793,
        "county_id": 102087579,
        "event_id": 1662139637,
        "locality_id": 85922583,
        "neighbourhood_id": -1,
        "region_id": 85688637,
        "venue_id": -1,
        "wing_id": -1
      }
    ],
    "wof:id": 1662139637,
    "wof:lastmodified": 1582923390,
    "wof:name": "AAL164 (SFO-JFK)",
    "wof:parent_id": -1,
    "wof:placetype": "event",
    "wof:repo": "sfomuseum-data-flights-2016",
    "wof:superseded_by": [],
    "wof:supersedes": []
  },
  "bbox": [
    -122.370943, 
    37.61799, 
    -73.787845, 
    40.643286
  ],
  "geometry": {"coordinates":[[-122.370943,37.61799],[-73.787845,40.643286]],"type":"MultiPoint"}
}
