{
  "id": 1678933227,
  "type": "Feature",
  "properties": {
    "edtf:cessation": "2016-09-15T02:09:04",
    "edtf:inception": "2016-09-15~",
    "flysfo:airline": "DL",
    "flysfo:date": "2016-09-15",
    "flysfo:event": "A",
    "flysfo:flight_number": "DL425",
    "flysfo:journey": "KCMH-SFO",
    "geom:area": 0,
    "geom:bbox": "-122.370943,37.617990,-82.885217,39.999443",
    "geom:latitude": 38.8087165,
    "geom:longitude": -102.62808,
    "iata:airline": "DL",
    "icao:aircraft": "B763",
    "icao:airline": "DAL",
    "mz:is_current": -1,
    "sfomuseum:aircraft_id": 1159289965,
    "sfomuseum:airline_id": 1159284261,
    "sfomuseum:arrival_id": 102527513,
    "sfomuseum:departure_id": 102532255,
    "sfomuseum:flight_id": "20160915-A-DAL-425",
    "sfomuseum:flight_number": [
      "DL425", 
      "DAL425"
    ],
    "sfomuseum:placetype": "flight",
    "src:geom": "sfonoise",
    "wof:belongsto": [
      102191575, 
      102087579, 
      85922583, 
      85688637, 
      1678933227, 
      102527513, 
      1159157271, 
      85633793
    ],
    "wof:country": "US",
    "wof:created": 1582930359,
    "wof:geomhash": "980d68d8d28509c0742a6b2a7abf5f67",
    "wof:hierarchy": [
      {
        "building_id": 1159157271,
        "campus_id": 102527513,
        "concourse_id": -1,
        "continent_id": 102191575,
        "country_id": 85633793,
        "county_id": 102087579,
        "event_id": 1678933227,
        "locality_id": 85922583,
        "neighbourhood_id": -1,
        "region_id": 85688637,
        "venue_id": -1,
        "wing_id": -1
      }
    ],
    "wof:id": 1678933227,
    "wof:lastmodified": 1582930359,
    "wof:name": "DAL425 (KCMH-SFO)",
    "wof:parent_id": -1,
    "wof:placetype": "event",
    "wof:repo": "sfomuseum-data-flights-2016",
    "wof:superseded_by": [],
    "wof:supersedes": []
  },
  "bbox": [
    -122.370943, 
    37.61799, 
    -82.885217, 
    39.999443
  ],
  "geometry": {"coordinates":[[-82.885217,39.999443],[-122.370943,37.61799]],"type":"MultiPoint"}
}
