{
  "id": 1662317711,
  "type": "Feature",
  "properties": {
    "edtf:cessation": "2016-06-13~",
    "edtf:inception": "2016-06-13T15:41:25",
    "flysfo:airline": "UA",
    "flysfo:date": "2016-06-13",
    "flysfo:event": "D",
    "flysfo:flight_number": "UA2030",
    "flysfo:journey": "SFO-KCOS",
    "geom:area": 0,
    "geom:bbox": "-122.370943,37.617990,-104.689858,38.773626",
    "geom:latitude": 38.195808,
    "geom:longitude": -113.5304005,
    "iata:airline": "UA",
    "icao:aircraft": "B739",
    "icao:airline": "UAL",
    "mz:is_current": -1,
    "sfomuseum:aircraft_id": 1377564285,
    "sfomuseum:airline_id": 1159285413,
    "sfomuseum:arrival_id": 102526247,
    "sfomuseum:departure_id": 102527513,
    "sfomuseum:flight_id": "20160613-D-UAL-2030",
    "sfomuseum:flight_number": [
      "UA2030", 
      "UAL2030"
    ],
    "sfomuseum:placetype": "flight",
    "src:geom": "sfonoise",
    "wof:belongsto": [
      85922583, 
      1159396321, 
      102191575, 
      85688637, 
      102087579, 
      1662317711, 
      85633793, 
      102527513
    ],
    "wof:country": "US",
    "wof:created": 1582926417,
    "wof:geomhash": "8aed97a089883cbe179a22c2076f7bb1",
    "wof:hierarchy": [
      {
        "building_id": 1159396321,
        "campus_id": 102527513,
        "concourse_id": -1,
        "continent_id": 102191575,
        "country_id": 85633793,
        "county_id": 102087579,
        "event_id": 1662317711,
        "locality_id": 85922583,
        "neighbourhood_id": -1,
        "region_id": 85688637,
        "venue_id": -1,
        "wing_id": -1
      }
    ],
    "wof:id": 1662317711,
    "wof:lastmodified": 1582926417,
    "wof:name": "UAL2030 (SFO-KCOS)",
    "wof:parent_id": -1,
    "wof:placetype": "event",
    "wof:repo": "sfomuseum-data-flights-2016",
    "wof:superseded_by": [],
    "wof:supersedes": []
  },
  "bbox": [
    -122.370943, 
    37.61799, 
    -104.689858, 
    38.773626
  ],
  "geometry": {"coordinates":[[-122.370943,37.61799],[-104.689858,38.773626]],"type":"MultiPoint"}
}
