{
  "id": 1629111647,
  "type": "Feature",
  "properties": {
    "edtf:cessation": "2016-04-30T12:07:50",
    "edtf:inception": "2016-04-30~",
    "flysfo:airline": "WN",
    "flysfo:date": "2016-04-30",
    "flysfo:event": "A",
    "flysfo:flight_number": "WN3810",
    "flysfo:journey": "KSTL-SFO",
    "geom:area": 0,
    "geom:bbox": "-122.370943,37.617990,-90.367632,38.743872",
    "geom:latitude": 38.180931,
    "geom:longitude": -106.3692875,
    "iata:airline": "WN",
    "icao:aircraft": "B737",
    "icao:airline": "SWA",
    "mz:is_current": -1,
    "sfomuseum:aircraft_id": 1159289869,
    "sfomuseum:airline_id": 1159285591,
    "sfomuseum:arrival_id": 102527513,
    "sfomuseum:departure_id": 102525961,
    "sfomuseum:flight_id": "20160430-A-SWA-3810",
    "sfomuseum:flight_number": [
      "WN3810", 
      "SWA3810"
    ],
    "sfomuseum:placetype": "flight",
    "src:geom": "sfonoise",
    "wof:belongsto": [
      85922583, 
      1159396321, 
      85633793, 
      102087579, 
      85688637, 
      102191575, 
      1629111647, 
      102527513
    ],
    "wof:country": "US",
    "wof:created": 1582925076,
    "wof:geomhash": "5aed0915f9f8845326df52b0d348a4b7",
    "wof:hierarchy": [
      {
        "building_id": 1159396321,
        "campus_id": 102527513,
        "concourse_id": -1,
        "continent_id": 102191575,
        "country_id": 85633793,
        "county_id": 102087579,
        "event_id": 1629111647,
        "locality_id": 85922583,
        "neighbourhood_id": -1,
        "region_id": 85688637,
        "venue_id": -1,
        "wing_id": -1
      }
    ],
    "wof:id": 1629111647,
    "wof:lastmodified": 1582925076,
    "wof:name": "SWA3810 (KSTL-SFO)",
    "wof:parent_id": -1,
    "wof:placetype": "event",
    "wof:repo": "sfomuseum-data-flights-2016",
    "wof:superseded_by": [],
    "wof:supersedes": []
  },
  "bbox": [
    -122.370943, 
    37.61799, 
    -90.367632, 
    38.743872
  ],
  "geometry": {"coordinates":[[-90.367632,38.743872],[-122.370943,37.61799]],"type":"MultiPoint"}
}
