{
  "id": 1679148785,
  "type": "Feature",
  "properties": {
    "edtf:cessation": "2016-11-05T16:31:02",
    "edtf:inception": "2016-11-05~",
    "flysfo:airline": "DL",
    "flysfo:date": "2016-11-05",
    "flysfo:event": "A",
    "flysfo:flight_number": "DL8933",
    "flysfo:journey": "KMSY-SFO",
    "geom:area": 0,
    "geom:bbox": "-122.370943,29.982609,-90.261832,37.617990",
    "geom:latitude": 33.8002995,
    "geom:longitude": -106.31638749999999,
    "iata:airline": "DL",
    "icao:aircraft": "B752",
    "icao:airline": "DAL",
    "mz:is_current": -1,
    "sfomuseum:aircraft_id": 1159289939,
    "sfomuseum:airline_id": 1159284261,
    "sfomuseum:arrival_id": 102527513,
    "sfomuseum:departure_id": 102530009,
    "sfomuseum:flight_id": "20161105-A-DAL-8933",
    "sfomuseum:flight_number": [
      "DL8933", 
      "DAL8933"
    ],
    "sfomuseum:placetype": "flight",
    "src:geom": "sfonoise",
    "wof:belongsto": [
      102527513, 
      1679148785, 
      85922583, 
      85688637, 
      102191575, 
      102087579, 
      1159157271, 
      85633793
    ],
    "wof:country": "US",
    "wof:created": 1582932882,
    "wof:geomhash": "a7e835886f555fd347028edc152f9d8c",
    "wof:hierarchy": [
      {
        "building_id": 1159157271,
        "campus_id": 102527513,
        "concourse_id": -1,
        "continent_id": 102191575,
        "country_id": 85633793,
        "county_id": 102087579,
        "event_id": 1679148785,
        "locality_id": 85922583,
        "neighbourhood_id": -1,
        "region_id": 85688637,
        "venue_id": -1,
        "wing_id": -1
      }
    ],
    "wof:id": 1679148785,
    "wof:lastmodified": 1582932882,
    "wof:name": "DAL8933 (KMSY-SFO)",
    "wof:parent_id": -1,
    "wof:placetype": "event",
    "wof:repo": "sfomuseum-data-flights-2016",
    "wof:superseded_by": [],
    "wof:supersedes": []
  },
  "bbox": [
    -122.370943, 
    29.982609, 
    -90.261832, 
    37.61799
  ],
  "geometry": {"coordinates":[[-90.261832,29.982609],[-122.370943,37.61799]],"type":"MultiPoint"}
}
