{
  "id": 1629092069,
  "type": "Feature",
  "properties": {
    "edtf:cessation": "2016-03-04T02:30:42",
    "edtf:inception": "2016-03-04~",
    "flysfo:airline": "UA",
    "flysfo:date": "2016-03-04",
    "flysfo:event": "A",
    "flysfo:flight_number": "UA2296",
    "flysfo:journey": "PAED-SFO",
    "geom:area": 0,
    "geom:bbox": "-149.842684,37.617990,-122.370943,61.242334",
    "geom:latitude": 49.430161999999996,
    "geom:longitude": -136.1068135,
    "iata:airline": "UA",
    "icao:aircraft": "B744",
    "icao:airline": "UAL",
    "mz:is_current": -1,
    "sfomuseum:aircraft_id": 1159289915,
    "sfomuseum:airline_id": 1159285413,
    "sfomuseum:arrival_id": 102527513,
    "sfomuseum:departure_id": 102524963,
    "sfomuseum:flight_id": "20160304-A-UAL-2296",
    "sfomuseum:flight_number": [
      "UA2296", 
      "UAL2296"
    ],
    "sfomuseum:placetype": "flight",
    "src:geom": "sfonoise",
    "wof:belongsto": [
      1159396321, 
      85633793, 
      102087579, 
      1629092069, 
      102527513, 
      85922583, 
      102191575, 
      85688637
    ],
    "wof:country": "US",
    "wof:created": 1582923384,
    "wof:geomhash": "cbe8a65dabade9ddf93fb8a91811f67f",
    "wof:hierarchy": [
      {
        "building_id": 1159396321,
        "campus_id": 102527513,
        "concourse_id": -1,
        "continent_id": 102191575,
        "country_id": 85633793,
        "county_id": 102087579,
        "event_id": 1629092069,
        "locality_id": 85922583,
        "neighbourhood_id": -1,
        "region_id": 85688637,
        "venue_id": -1,
        "wing_id": -1
      }
    ],
    "wof:id": 1629092069,
    "wof:lastmodified": 1582923384,
    "wof:name": "UAL2296 (PAED-SFO)",
    "wof:parent_id": -1,
    "wof:placetype": "event",
    "wof:repo": "sfomuseum-data-flights-2016",
    "wof:superseded_by": [],
    "wof:supersedes": []
  },
  "bbox": [
    -149.842684, 
    37.61799, 
    -122.370943, 
    61.242334
  ],
  "geometry": {"coordinates":[[-149.842684,61.242334],[-122.370943,37.61799]],"type":"MultiPoint"}
}
