{
  "id": 1629134871,
  "type": "Feature",
  "properties": {
    "edtf:cessation": "2016-06-22T19:47:12",
    "edtf:inception": "2016-06-22~",
    "flysfo:airline": "UA",
    "flysfo:date": "2016-06-22",
    "flysfo:event": "A",
    "flysfo:flight_number": "UA1835",
    "flysfo:journey": "KBNA-SFO",
    "geom:area": 0,
    "geom:bbox": "-122.370943,36.126387,-86.676652,37.617990",
    "geom:latitude": 36.8721885,
    "geom:longitude": -104.5237975,
    "iata:airline": "UA",
    "icao:aircraft": "A319",
    "icao:airline": "UAL",
    "mz:is_current": -1,
    "sfomuseum:aircraft_id": 1159289407,
    "sfomuseum:airline_id": 1159285413,
    "sfomuseum:arrival_id": 102527513,
    "sfomuseum:departure_id": 102525035,
    "sfomuseum:flight_id": "20160622-A-UAL-1835",
    "sfomuseum:flight_number": [
      "UA1835", 
      "UAL1835"
    ],
    "sfomuseum:placetype": "flight",
    "src:geom": "sfonoise",
    "wof:belongsto": [
      85922583, 
      1159396321, 
      102191575, 
      85633793, 
      1629134871, 
      85688637, 
      102087579, 
      102527513
    ],
    "wof:country": "US",
    "wof:created": 1582926716,
    "wof:geomhash": "462e561a68f133085fb895c49eddc748",
    "wof:hierarchy": [
      {
        "building_id": 1159396321,
        "campus_id": 102527513,
        "concourse_id": -1,
        "continent_id": 102191575,
        "country_id": 85633793,
        "county_id": 102087579,
        "event_id": 1629134871,
        "locality_id": 85922583,
        "neighbourhood_id": -1,
        "region_id": 85688637,
        "venue_id": -1,
        "wing_id": -1
      }
    ],
    "wof:id": 1629134871,
    "wof:lastmodified": 1582926716,
    "wof:name": "UAL1835 (KBNA-SFO)",
    "wof:parent_id": -1,
    "wof:placetype": "event",
    "wof:repo": "sfomuseum-data-flights-2016",
    "wof:superseded_by": [],
    "wof:supersedes": []
  },
  "bbox": [
    -122.370943, 
    36.126387, 
    -86.676652, 
    37.61799
  ],
  "geometry": {"coordinates":[[-86.676652,36.126387],[-122.370943,37.61799]],"type":"MultiPoint"}
}
