{
  "id": 1662301649,
  "type": "Feature",
  "properties": {
    "edtf:cessation": "2016-06-05T09:02:24",
    "edtf:inception": "2016-06-05~",
    "flysfo:airline": "UA",
    "flysfo:date": "2016-06-05",
    "flysfo:event": "A",
    "flysfo:flight_number": "UA528",
    "flysfo:journey": "KDFW-SFO",
    "geom:area": 0,
    "geom:bbox": "-122.370943,32.903660,-97.050966,37.617990",
    "geom:latitude": 35.260825,
    "geom:longitude": -109.7109545,
    "iata:airline": "UA",
    "icao:aircraft": "B739",
    "icao:airline": "UAL",
    "mz:is_current": -1,
    "sfomuseum:aircraft_id": 1377564285,
    "sfomuseum:airline_id": 1159285413,
    "sfomuseum:arrival_id": 102527513,
    "sfomuseum:departure_id": 102528541,
    "sfomuseum:flight_id": "20160605-A-UAL-528",
    "sfomuseum:flight_number": [
      "UA528", 
      "UAL528"
    ],
    "sfomuseum:placetype": "flight",
    "src:geom": "sfonoise",
    "wof:belongsto": [
      85688637, 
      102527513, 
      1662301649, 
      85922583, 
      85633793, 
      102087579, 
      1159396321, 
      102191575
    ],
    "wof:country": "US",
    "wof:created": 1582926185,
    "wof:geomhash": "865973335526f09b753756c305bf4946",
    "wof:hierarchy": [
      {
        "building_id": 1159396321,
        "campus_id": 102527513,
        "concourse_id": -1,
        "continent_id": 102191575,
        "country_id": 85633793,
        "county_id": 102087579,
        "event_id": 1662301649,
        "locality_id": 85922583,
        "neighbourhood_id": -1,
        "region_id": 85688637,
        "venue_id": -1,
        "wing_id": -1
      }
    ],
    "wof:id": 1662301649,
    "wof:lastmodified": 1582926185,
    "wof:name": "UAL528 (KDFW-SFO)",
    "wof:parent_id": -1,
    "wof:placetype": "event",
    "wof:repo": "sfomuseum-data-flights-2016",
    "wof:superseded_by": [],
    "wof:supersedes": []
  },
  "bbox": [
    -122.370943, 
    32.90366, 
    -97.050966, 
    37.61799
  ],
  "geometry": {"coordinates":[[-97.050966,32.90366],[-122.370943,37.61799]],"type":"MultiPoint"}
}
