{
  "id": 1662306517,
  "type": "Feature",
  "properties": {
    "edtf:cessation": "2016-06-07T18:57:13",
    "edtf:inception": "2016-06-07~",
    "flysfo:airline": "AF",
    "flysfo:date": "2016-06-07",
    "flysfo:event": "A",
    "flysfo:flight_number": "AF080",
    "flysfo:journey": "LFPG-SFO",
    "geom:area": 0,
    "geom:bbox": "-122.370943,37.617990,2.542809,49.007854",
    "geom:latitude": 43.312922,
    "geom:longitude": -59.914066999999996,
    "iata:airline": "AF",
    "icao:aircraft": "B77W",
    "icao:airline": "AFR",
    "mz:is_current": -1,
    "sfomuseum:aircraft_id": 1159289993,
    "sfomuseum:airline_id": 1159283627,
    "sfomuseum:arrival_id": 102527513,
    "sfomuseum:departure_id": 102544459,
    "sfomuseum:flight_id": "20160607-A-AFR-080",
    "sfomuseum:flight_number": [
      "AF080", 
      "AFR080"
    ],
    "sfomuseum:placetype": "flight",
    "src:geom": "sfonoise",
    "wof:belongsto": [
      102191575, 
      1662306517, 
      85922583, 
      1159396321, 
      85633793, 
      102087579, 
      85688637, 
      102527513
    ],
    "wof:country": "US",
    "wof:created": 1582926261,
    "wof:geomhash": "07d689097487ceb3bc0a07973d8c4b93",
    "wof:hierarchy": [
      {
        "building_id": 1159396321,
        "campus_id": 102527513,
        "concourse_id": -1,
        "continent_id": 102191575,
        "country_id": 85633793,
        "county_id": 102087579,
        "event_id": 1662306517,
        "locality_id": 85922583,
        "neighbourhood_id": -1,
        "region_id": 85688637,
        "venue_id": -1,
        "wing_id": -1
      }
    ],
    "wof:id": 1662306517,
    "wof:lastmodified": 1582926261,
    "wof:name": "AFR080 (LFPG-SFO)",
    "wof:parent_id": -1,
    "wof:placetype": "event",
    "wof:repo": "sfomuseum-data-flights-2016",
    "wof:superseded_by": [],
    "wof:supersedes": []
  },
  "bbox": [
    -122.370943, 
    37.61799, 
    2.542809, 
    49.007854
  ],
  "geometry": {"coordinates":[[2.542809,49.007854],[-122.370943,37.61799]],"type":"MultiPoint"}
}
