{
  "id": 1662140357,
  "type": "Feature",
  "properties": {
    "edtf:cessation": "2016-03-04T16:56:33",
    "edtf:inception": "2016-03-04~",
    "flysfo:airline": "WN",
    "flysfo:date": "2016-03-04",
    "flysfo:event": "A",
    "flysfo:flight_number": "WN2389",
    "flysfo:journey": "PHX-SFO",
    "geom:area": 0,
    "geom:bbox": "-122.370943,33.432684,-112.017392,37.617990",
    "geom:latitude": 35.525337,
    "geom:longitude": -117.19416749999999,
    "iata:airline": "WN",
    "icao:aircraft": "B737",
    "icao:airline": "SWA",
    "mz:is_current": -1,
    "sfomuseum:aircraft_id": 1159289869,
    "sfomuseum:airline_id": 1159285591,
    "sfomuseum:arrival_id": 102527513,
    "sfomuseum:departure_id": 102526751,
    "sfomuseum:flight_id": "20160304-A-SWA-2389",
    "sfomuseum:flight_number": [
      "WN2389", 
      "SWA2389"
    ],
    "sfomuseum:placetype": "flight",
    "src:geom": "sfonoise",
    "wof:belongsto": [
      102191575, 
      102527513, 
      85633793, 
      102087579, 
      85688637, 
      1159396321, 
      1662140357, 
      85922583
    ],
    "wof:country": "US",
    "wof:created": 1582923402,
    "wof:geomhash": "c9fdc5df38b6a105de4fe30ae6ada830",
    "wof:hierarchy": [
      {
        "building_id": 1159396321,
        "campus_id": 102527513,
        "concourse_id": -1,
        "continent_id": 102191575,
        "country_id": 85633793,
        "county_id": 102087579,
        "event_id": 1662140357,
        "locality_id": 85922583,
        "neighbourhood_id": -1,
        "region_id": 85688637,
        "venue_id": -1,
        "wing_id": -1
      }
    ],
    "wof:id": 1662140357,
    "wof:lastmodified": 1582923402,
    "wof:name": "SWA2389 (PHX-SFO)",
    "wof:parent_id": -1,
    "wof:placetype": "event",
    "wof:repo": "sfomuseum-data-flights-2016",
    "wof:superseded_by": [],
    "wof:supersedes": []
  },
  "bbox": [
    -122.370943, 
    33.432684, 
    -112.017392, 
    37.61799
  ],
  "geometry": {"coordinates":[[-112.017392,33.432684],[-122.370943,37.61799]],"type":"MultiPoint"}
}
