{
  "id": 1662138811,
  "type": "Feature",
  "properties": {
    "edtf:cessation": "2016-03-03~",
    "edtf:inception": "2016-03-03T18:57:34",
    "flysfo:airline": "UA",
    "flysfo:date": "2016-03-03",
    "flysfo:event": "D",
    "flysfo:flight_number": "UA875",
    "flysfo:journey": "SFO-HND",
    "geom:area": 0,
    "geom:bbox": "-122.370943,35.554085,139.775638,37.617990",
    "geom:latitude": 36.5860375,
    "geom:longitude": 8.702347499999995,
    "iata:airline": "UA",
    "icao:aircraft": "B772",
    "icao:airline": "UAL",
    "mz:is_current": -1,
    "sfomuseum:aircraft_id": 1159289985,
    "sfomuseum:airline_id": 1159285413,
    "sfomuseum:arrival_id": 102541591,
    "sfomuseum:departure_id": 102527513,
    "sfomuseum:flight_id": "20160303-D-UAL-875",
    "sfomuseum:flight_number": [
      "UA875", 
      "UAL875"
    ],
    "sfomuseum:placetype": "flight",
    "src:geom": "sfonoise",
    "wof:belongsto": [
      102191575, 
      85922583, 
      102527513, 
      85633793, 
      85688637, 
      1662138811, 
      1159396321, 
      102087579
    ],
    "wof:country": "US",
    "wof:created": 1582923375,
    "wof:geomhash": "64252c90f74b3e5d6a354a131140ee76",
    "wof:hierarchy": [
      {
        "building_id": 1159396321,
        "campus_id": 102527513,
        "concourse_id": -1,
        "continent_id": 102191575,
        "country_id": 85633793,
        "county_id": 102087579,
        "event_id": 1662138811,
        "locality_id": 85922583,
        "neighbourhood_id": -1,
        "region_id": 85688637,
        "venue_id": -1,
        "wing_id": -1
      }
    ],
    "wof:id": 1662138811,
    "wof:lastmodified": 1582923375,
    "wof:name": "UAL875 (SFO-HND)",
    "wof:parent_id": -1,
    "wof:placetype": "event",
    "wof:repo": "sfomuseum-data-flights-2016",
    "wof:superseded_by": [],
    "wof:supersedes": []
  },
  "bbox": [
    -122.370943, 
    35.554085, 
    139.775638, 
    37.61799
  ],
  "geometry": {"coordinates":[[-122.370943,37.61799],[139.775638,35.554085]],"type":"MultiPoint"}
}
