{
  "id": 1679331779,
  "type": "Feature",
  "properties": {
    "edtf:cessation": "2016-12-30~",
    "edtf:inception": "2016-12-30T15:13:27",
    "flysfo:airline": "WN",
    "flysfo:date": "2016-12-30",
    "flysfo:event": "D",
    "flysfo:flight_number": "WN4820",
    "flysfo:journey": "SFO-KDAL",
    "geom:area": 0,
    "geom:bbox": "-122.370943,32.845849,-96.850523,37.617990",
    "geom:latitude": 35.231919500000004,
    "geom:longitude": -109.610733,
    "iata:airline": "WN",
    "icao:aircraft": "B733",
    "icao:airline": "SWA",
    "mz:is_current": -1,
    "sfomuseum:aircraft_id": 1159289851,
    "sfomuseum:airline_id": 1159285591,
    "sfomuseum:arrival_id": 102525799,
    "sfomuseum:departure_id": 102527513,
    "sfomuseum:flight_id": "20161230-D-SWA-4820",
    "sfomuseum:flight_number": [
      "WN4820", 
      "SWA4820"
    ],
    "sfomuseum:placetype": "flight",
    "src:geom": "sfonoise",
    "wof:belongsto": [
      85922583, 
      85688637, 
      102191575, 
      1679331779, 
      102087579, 
      1159157271, 
      102527513, 
      85633793
    ],
    "wof:country": "US",
    "wof:created": 1582934650,
    "wof:geomhash": "a08c5b1a6c329f228ec453404f254a51",
    "wof:hierarchy": [
      {
        "building_id": 1159157271,
        "campus_id": 102527513,
        "concourse_id": -1,
        "continent_id": 102191575,
        "country_id": 85633793,
        "county_id": 102087579,
        "event_id": 1679331779,
        "locality_id": 85922583,
        "neighbourhood_id": -1,
        "region_id": 85688637,
        "venue_id": -1,
        "wing_id": -1
      }
    ],
    "wof:id": 1679331779,
    "wof:lastmodified": 1582934650,
    "wof:name": "SWA4820 (SFO-KDAL)",
    "wof:parent_id": -1,
    "wof:placetype": "event",
    "wof:repo": "sfomuseum-data-flights-2016",
    "wof:superseded_by": [],
    "wof:supersedes": []
  },
  "bbox": [
    -122.370943, 
    32.845849, 
    -96.850523, 
    37.61799
  ],
  "geometry": {"coordinates":[[-122.370943,37.61799],[-96.850523,32.845849]],"type":"MultiPoint"}
}
