{
  "id": 1662168595,
  "type": "Feature",
  "properties": {
    "edtf:cessation": "2016-03-21~",
    "edtf:inception": "2016-03-21T22:49:01",
    "flysfo:airline": "DL",
    "flysfo:date": "2016-03-21",
    "flysfo:event": "D",
    "flysfo:flight_number": "DL1148",
    "flysfo:journey": "SFO-DTW",
    "geom:area": 0,
    "geom:bbox": "-122.370943,37.617990,-83.351709,42.218860",
    "geom:latitude": 39.918425,
    "geom:longitude": -102.86132599999999,
    "iata:airline": "DL",
    "icao:aircraft": "B753",
    "icao:airline": "DAL",
    "mz:is_current": -1,
    "sfomuseum:aircraft_id": 1159289945,
    "sfomuseum:airline_id": 1159284261,
    "sfomuseum:arrival_id": 102525635,
    "sfomuseum:departure_id": 102527513,
    "sfomuseum:flight_id": "20160321-D-DAL-1148",
    "sfomuseum:flight_number": [
      "DL1148", 
      "DAL1148"
    ],
    "sfomuseum:placetype": "flight",
    "src:geom": "sfonoise",
    "wof:belongsto": [
      102527513, 
      85633793, 
      85922583, 
      85688637, 
      102191575, 
      1159396321, 
      102087579, 
      1662168595
    ],
    "wof:country": "US",
    "wof:created": 1582923792,
    "wof:geomhash": "9151bfe07cf224e1ff61a7f7b8c30671",
    "wof:hierarchy": [
      {
        "building_id": 1159396321,
        "campus_id": 102527513,
        "concourse_id": -1,
        "continent_id": 102191575,
        "country_id": 85633793,
        "county_id": 102087579,
        "event_id": 1662168595,
        "locality_id": 85922583,
        "neighbourhood_id": -1,
        "region_id": 85688637,
        "venue_id": -1,
        "wing_id": -1
      }
    ],
    "wof:id": 1662168595,
    "wof:lastmodified": 1582923792,
    "wof:name": "DAL1148 (SFO-DTW)",
    "wof:parent_id": -1,
    "wof:placetype": "event",
    "wof:repo": "sfomuseum-data-flights-2016",
    "wof:superseded_by": [],
    "wof:supersedes": []
  },
  "bbox": [
    -122.370943, 
    37.61799, 
    -83.351709, 
    42.21886
  ],
  "geometry": {"coordinates":[[-122.370943,37.61799],[-83.351709,42.21886]],"type":"MultiPoint"}
}
