{
  "id": 1629284619,
  "type": "Feature",
  "properties": {
    "edtf:cessation": "2016-07-30T19:55:10",
    "edtf:inception": "2016-07-30~",
    "flysfo:airline": "UA",
    "flysfo:date": "2016-07-30",
    "flysfo:event": "A",
    "flysfo:flight_number": "UA1978",
    "flysfo:journey": "KBIS-SFO",
    "geom:area": 0,
    "geom:bbox": "-122.370943,37.617990,-100.758087,46.774939",
    "geom:latitude": 42.196464500000005,
    "geom:longitude": -111.564515,
    "iata:airline": "UA",
    "icao:aircraft": "B752",
    "icao:airline": "UAL",
    "mz:is_current": -1,
    "sfomuseum:aircraft_id": 1159289939,
    "sfomuseum:airline_id": 1159285413,
    "sfomuseum:arrival_id": 102527513,
    "sfomuseum:departure_id": 102527655,
    "sfomuseum:flight_id": "20160730-A-UAL-1978",
    "sfomuseum:flight_number": [
      "UA1978", 
      "UAL1978"
    ],
    "sfomuseum:placetype": "flight",
    "src:geom": "sfonoise",
    "wof:belongsto": [
      102087579, 
      1159157271, 
      102527513, 
      102191575, 
      85688637, 
      85633793, 
      1629284619, 
      85922583
    ],
    "wof:country": "US",
    "wof:created": 1582927867,
    "wof:geomhash": "87b07dfc53bba5ccd1f9e3ea76c29c71",
    "wof:hierarchy": [
      {
        "building_id": 1159157271,
        "campus_id": 102527513,
        "concourse_id": -1,
        "continent_id": 102191575,
        "country_id": 85633793,
        "county_id": 102087579,
        "event_id": 1629284619,
        "locality_id": 85922583,
        "neighbourhood_id": -1,
        "region_id": 85688637,
        "venue_id": -1,
        "wing_id": -1
      }
    ],
    "wof:id": 1629284619,
    "wof:lastmodified": 1582927867,
    "wof:name": "UAL1978 (KBIS-SFO)",
    "wof:parent_id": -1,
    "wof:placetype": "event",
    "wof:repo": "sfomuseum-data-flights-2016",
    "wof:superseded_by": [],
    "wof:supersedes": []
  },
  "bbox": [
    -122.370943, 
    37.61799, 
    -100.758087, 
    46.774939
  ],
  "geometry": {"coordinates":[[-100.758087,46.774939],[-122.370943,37.61799]],"type":"MultiPoint"}
}
