{
  "id": 1628926527,
  "type": "Feature",
  "properties": {
    "edtf:cessation": "2016-01-17~",
    "edtf:inception": "2016-01-17T08:49:23",
    "flysfo:airline": "UA",
    "flysfo:date": "2016-01-17",
    "flysfo:event": "D",
    "flysfo:flight_number": "UA2193",
    "flysfo:journey": "SFO-KSMF",
    "geom:area": 0,
    "geom:bbox": "-122.370943,37.617990,-121.589912,38.685533",
    "geom:latitude": 38.1517615,
    "geom:longitude": -121.98042749999999,
    "iata:airline": "UA",
    "icao:aircraft": "A319",
    "icao:airline": "UAL",
    "mz:is_current": -1,
    "sfomuseum:aircraft_id": 1159289407,
    "sfomuseum:airline_id": 1159285413,
    "sfomuseum:arrival_id": 102530559,
    "sfomuseum:departure_id": 102527513,
    "sfomuseum:flight_id": "20160117-D-UAL-2193",
    "sfomuseum:flight_number": [
      "UA2193", 
      "UAL2193"
    ],
    "sfomuseum:placetype": "flight",
    "src:geom": "sfonoise",
    "wof:belongsto": [
      85922583, 
      1628926527, 
      102191575, 
      85633793, 
      102087579, 
      1159396321, 
      102527513, 
      85688637
    ],
    "wof:country": "US",
    "wof:created": 1582922223,
    "wof:geomhash": "5cb31017412a00ced54cc35c2a74371e",
    "wof:hierarchy": [
      {
        "building_id": 1159396321,
        "campus_id": 102527513,
        "concourse_id": -1,
        "continent_id": 102191575,
        "country_id": 85633793,
        "county_id": 102087579,
        "event_id": 1628926527,
        "locality_id": 85922583,
        "neighbourhood_id": -1,
        "region_id": 85688637,
        "venue_id": -1,
        "wing_id": -1
      }
    ],
    "wof:id": 1628926527,
    "wof:lastmodified": 1582922223,
    "wof:name": "UAL2193 (SFO-KSMF)",
    "wof:parent_id": -1,
    "wof:placetype": "event",
    "wof:repo": "sfomuseum-data-flights-2016",
    "wof:superseded_by": [],
    "wof:supersedes": []
  },
  "bbox": [
    -122.370943, 
    37.61799, 
    -121.589912, 
    38.685533
  ],
  "geometry": {"coordinates":[[-122.370943,37.61799],[-121.589912,38.685533]],"type":"MultiPoint"}
}
